{"type":"FeatureCollection","features":[{"type":"Feature","properties":{"id":"at-1"},"geometry":{"type":"Polygon","coordinates":[[[16.148,47.443],[16.09,47.402],[16.072,47.395],[16.047,47.411],[16.022,47.389],[16.02,47.372],[16.038,47.344],[16.058,47.291],[16.068,47.238],[16.095,47.165],[16.095,47.138],[16.084,47.107],[16.09,47.083],[16.135,47.04],[16.136,47.025],[16.103,46.988],[16.054,46.944],[16.019,46.923],[16.003,46.877],[16.027,46.853],[16.028,46.837],[16.123,46.876],[16.159,46.91],[16.231,46.948],[16.233,46.966],[16.261,46.978],[16.275,47.004],[16.326,47],[16.388,47.002],[16.41,46.99],[16.486,46.999],[16.468,47.018],[16.437,47.032],[16.493,47.049],[16.494,47.06],[16.462,47.068],[16.461,47.096],[16.482,47.105],[16.51,47.138],[16.481,47.151],[16.447,47.14],[16.434,47.146],[16.442,47.168],[16.435,47.184],[16.413,47.187],[16.409,47.204],[16.425,47.226],[16.421,47.243],[16.467,47.263],[16.469,47.293],[16.425,47.351],[16.436,47.359],[16.434,47.397],[16.444,47.41],[16.47,47.406],[16.482,47.392],[16.589,47.426],[16.641,47.453],[16.637,47.493],[16.677,47.51],[16.688,47.523],[16.681,47.551],[16.651,47.567],[16.656,47.586],[16.648,47.606],[16.63,47.622],[16.608,47.629],[16.575,47.625],[16.51,47.643],[16.482,47.639],[16.408,47.661],[16.439,47.69],[16.455,47.682],[16.513,47.706],[16.527,47.72],[16.531,47.743],[16.568,47.754],[16.61,47.751],[16.69,47.73],[16.702,47.724],[16.719,47.694],[16.741,47.681],[16.797,47.675],[16.817,47.684],[16.85,47.713],[16.865,47.687],[16.903,47.682],[16.982,47.695],[17.055,47.702],[17.075,47.708],[17.051,47.731],[17.049,47.764],[17.041,47.801],[17.056,47.812],[17.04,47.837],[17.011,47.848],[17.004,47.863],[17.051,47.873],[17.078,47.892],[17.096,47.962],[17.086,47.97],[17.148,48.005],[17.125,48.02],[17.07,48.036],[17.075,48.052],[17.059,48.06],[17.07,48.089],[17.08,48.098],[17.062,48.113],[17.034,48.1],[17.003,48.109],[16.983,48.098],[16.983,48.068],[16.962,48.046],[16.9,48.072],[16.857,48.063],[16.816,48.043],[16.774,48.03],[16.75,48.03],[16.704,48.009],[16.68,47.972],[16.612,47.933],[16.573,47.92],[16.503,47.935],[16.439,47.928],[16.391,47.903],[16.36,47.872],[16.358,47.833],[16.348,47.812],[16.324,47.796],[16.29,47.794],[16.289,47.733],[16.313,47.703],[16.346,47.676],[16.376,47.645],[16.321,47.572],[16.318,47.55],[16.327,47.524],[16.324,47.501],[16.272,47.463],[16.231,47.446],[16.205,47.442],[16.148,47.443]]]}},{"type":"Feature","properties":{"id":"at-2"},"geometry":{"type":"Polygon","coordinates":[[[12.671,46.652],[12.697,46.641],[12.74,46.643],[12.774,46.635],[12.83,46.61],[13.065,46.598],[13.146,46.585],[13.21,46.558],[13.231,46.552],[13.271,46.551],[13.373,46.566],[13.417,46.56],[13.478,46.564],[13.507,46.547],[13.549,46.546],[13.67,46.519],[13.716,46.519],[13.782,46.508],[13.861,46.515],[13.891,46.512],[13.982,46.482],[14.05,46.484],[14.081,46.476],[14.137,46.442],[14.15,46.44],[14.362,46.436],[14.406,46.439],[14.42,46.424],[14.468,46.413],[14.502,46.418],[14.54,46.379],[14.558,46.384],[14.575,46.42],[14.59,46.434],[14.642,46.445],[14.662,46.46],[14.68,46.459],[14.71,46.493],[14.761,46.496],[14.789,46.507],[14.822,46.568],[14.85,46.601],[14.898,46.606],[14.934,46.621],[14.948,46.619],[14.967,46.6],[15.004,46.637],[15.062,46.65],[15.106,46.646],[15.035,46.703],[15.023,46.727],[15.02,46.761],[15.009,46.796],[14.987,46.842],[15.006,46.881],[15.008,46.911],[14.93,46.994],[14.89,47.027],[14.85,47.041],[14.739,47.023],[14.616,47.017],[14.589,47.024],[14.497,47.023],[14.395,46.998],[14.368,47],[14.338,47.014],[14.267,47.029],[14.201,47.057],[14.136,47.053],[14.027,47.018],[14.003,47.003],[13.979,46.973],[13.942,46.961],[13.88,46.928],[13.844,46.923],[13.782,46.954],[13.753,46.981],[13.667,47.026],[13.606,47.044],[13.562,47.047],[13.461,47.061],[13.44,47.062],[13.308,47.087],[13.274,47.084],[13.226,47.055],[13.174,47.037],[13.135,47.032],[13.059,47.029],[13.03,47.031],[12.994,47.041],[12.914,47.076],[12.866,47.087],[12.834,47.089],[12.772,47.099],[12.727,47.115],[12.687,47.132],[12.665,47.136],[12.634,47.112],[12.637,47.093],[12.658,47.078],[12.744,47.058],[12.752,47.04],[12.735,47.004],[12.739,46.986],[12.764,46.957],[12.794,46.939],[12.815,46.919],[12.829,46.876],[12.885,46.832],[12.945,46.775],[12.933,46.758],[12.897,46.776],[12.875,46.778],[12.835,46.765],[12.746,46.756],[12.724,46.749],[12.709,46.705],[12.671,46.652]]]}},{"type":"Feature","properties":{"id":"at-3"},"geometry":{"type":"Polygon","coordinates":[[[17.062,48.113],[17.047,48.131],[17.007,48.143],[16.982,48.161],[16.975,48.177],[16.97,48.217],[16.954,48.253],[16.951,48.277],[16.917,48.291],[16.898,48.316],[16.902,48.339],[16.875,48.355],[16.844,48.366],[16.861,48.444],[16.875,48.472],[16.901,48.497],[16.914,48.519],[16.947,48.54],[16.954,48.557],[16.945,48.604],[16.911,48.631],[16.897,48.697],[16.873,48.719],[16.818,48.711],[16.781,48.714],[16.729,48.733],[16.691,48.732],[16.662,48.74],[16.643,48.778],[16.51,48.805],[16.492,48.8],[16.453,48.802],[16.436,48.795],[16.385,48.737],[16.358,48.727],[16.339,48.736],[16.318,48.733],[16.178,48.747],[16.085,48.743],[16.032,48.758],[15.932,48.806],[15.908,48.82],[15.9,48.835],[15.859,48.849],[15.84,48.85],[15.818,48.872],[15.779,48.871],[15.744,48.858],[15.704,48.855],[15.681,48.858],[15.604,48.887],[15.521,48.908],[15.472,48.937],[15.336,48.975],[15.289,48.975],[15.263,48.983],[15.257,48.964],[15.238,48.951],[15.162,48.937],[15.142,48.937],[15.149,48.965],[15.137,48.993],[15.06,48.997],[15.004,49.01],[14.982,49.008],[14.965,48.972],[14.968,48.885],[14.938,48.803],[14.951,48.78],[14.94,48.763],[14.919,48.762],[14.868,48.776],[14.815,48.78],[14.8,48.777],[14.78,48.743],[14.775,48.724],[14.723,48.693],[14.704,48.673],[14.701,48.616],[14.691,48.587],[14.712,48.572],[14.774,48.563],[14.839,48.542],[14.876,48.539],[14.906,48.527],[14.914,48.5],[14.884,48.495],[14.887,48.461],[14.91,48.44],[14.934,48.434],[14.94,48.402],[14.964,48.383],[14.975,48.334],[14.969,48.247],[14.953,48.237],[14.93,48.244],[14.88,48.242],[14.862,48.237],[14.819,48.206],[14.675,48.182],[14.638,48.197],[14.61,48.223],[14.565,48.244],[14.52,48.245],[14.493,48.231],[14.485,48.218],[14.479,48.178],[14.469,48.156],[14.48,48.118],[14.463,48.099],[14.445,48.069],[14.427,48.057],[14.445,48.043],[14.607,47.961],[14.659,47.944],[14.691,47.937],[14.733,47.918],[14.751,47.902],[14.75,47.883],[14.732,47.866],[14.719,47.829],[14.716,47.794],[14.699,47.769],[14.734,47.75],[14.838,47.751],[14.883,47.725],[14.93,47.727],[14.954,47.737],[15.015,47.752],[15.056,47.751],[15.187,47.78],[15.23,47.819],[15.278,47.815],[15.339,47.825],[15.375,47.82],[15.417,47.793],[15.5,47.766],[15.539,47.747],[15.606,47.743],[15.639,47.717],[15.672,47.704],[15.714,47.702],[15.726,47.69],[15.743,47.637],[15.763,47.633],[15.797,47.645],[15.818,47.644],[15.829,47.632],[15.825,47.595],[15.842,47.585],[15.866,47.585],[15.892,47.572],[15.917,47.533],[15.998,47.524],[16.047,47.506],[16.08,47.517],[16.113,47.463],[16.148,47.443],[16.205,47.442],[16.231,47.446],[16.272,47.463],[16.324,47.501],[16.327,47.524],[16.318,47.55],[16.321,47.572],[16.376,47.645],[16.346,47.676],[16.313,47.703],[16.289,47.733],[16.29,47.794],[16.324,47.796],[16.348,47.812],[16.358,47.833],[16.36,47.872],[16.391,47.903],[16.439,47.928],[16.503,47.935],[16.573,47.92],[16.612,47.933],[16.68,47.972],[16.704,48.009],[16.75,48.03],[16.774,48.03],[16.816,48.043],[16.857,48.063],[16.9,48.072],[16.962,48.046],[16.983,48.068],[16.983,48.098],[17.003,48.109],[17.034,48.1],[17.062,48.113]],[[16.483,48.289],[16.512,48.303],[16.538,48.28],[16.556,48.249],[16.543,48.198],[16.571,48.153],[16.502,48.162],[16.44,48.157],[16.41,48.135],[16.388,48.136],[16.347,48.149],[16.294,48.146],[16.233,48.149],[16.203,48.174],[16.211,48.203],[16.188,48.23],[16.192,48.247],[16.208,48.262],[16.233,48.254],[16.259,48.258],[16.284,48.274],[16.351,48.303],[16.404,48.318],[16.415,48.33],[16.446,48.328],[16.483,48.289]]]}},{"type":"Feature","properties":{"id":"at-4"},"geometry":{"type":"Polygon","coordinates":[[[14.691,48.587],[14.659,48.577],[14.635,48.602],[14.613,48.6],[14.601,48.618],[14.579,48.62],[14.549,48.611],[14.522,48.611],[14.482,48.624],[14.458,48.643],[14.444,48.637],[14.421,48.597],[14.405,48.586],[14.316,48.558],[14.217,48.581],[14.075,48.592],[14.041,48.601],[14.011,48.626],[14.006,48.64],[14.032,48.667],[14.014,48.675],[13.982,48.706],[13.915,48.731],[13.856,48.759],[13.816,48.766],[13.786,48.725],[13.799,48.703],[13.806,48.643],[13.802,48.612],[13.779,48.574],[13.766,48.564],[13.734,48.56],[13.714,48.523],[13.673,48.535],[13.658,48.551],[13.624,48.565],[13.521,48.585],[13.455,48.573],[13.44,48.561],[13.457,48.525],[13.456,48.507],[13.436,48.469],[13.438,48.441],[13.42,48.392],[13.406,48.377],[13.308,48.32],[13.274,48.307],[13.136,48.291],[13.033,48.264],[12.979,48.232],[12.933,48.209],[12.878,48.202],[12.853,48.19],[12.822,48.161],[12.782,48.142],[12.764,48.124],[12.745,48.121],[12.737,48.1],[12.76,48.065],[12.831,48.015],[12.848,47.982],[12.927,48.002],[12.938,48.021],[12.968,48.032],[13.036,48.031],[13.061,48.021],[13.09,48],[13.139,47.987],[13.177,47.984],[13.235,47.989],[13.303,48.01],[13.352,47.988],[13.351,47.966],[13.322,47.964],[13.295,47.969],[13.276,47.952],[13.271,47.912],[13.275,47.886],[13.292,47.841],[13.317,47.825],[13.498,47.798],[13.521,47.784],[13.509,47.773],[13.453,47.77],[13.453,47.751],[13.488,47.738],[13.513,47.735],[13.526,47.718],[13.489,47.641],[13.506,47.622],[13.506,47.603],[13.479,47.564],[13.489,47.536],[13.524,47.511],[13.582,47.486],[13.674,47.474],[13.696,47.48],[13.724,47.498],[13.735,47.516],[13.73,47.546],[13.681,47.598],[13.677,47.618],[13.687,47.664],[13.717,47.685],[13.823,47.72],[13.843,47.721],[13.881,47.707],[13.953,47.695],[13.997,47.699],[14.042,47.662],[14.06,47.626],[14.086,47.636],[14.135,47.645],[14.172,47.657],[14.195,47.658],[14.251,47.631],[14.293,47.621],[14.347,47.626],[14.417,47.659],[14.449,47.665],[14.477,47.678],[14.492,47.695],[14.636,47.734],[14.699,47.769],[14.716,47.794],[14.719,47.829],[14.732,47.866],[14.75,47.883],[14.751,47.902],[14.733,47.918],[14.691,47.937],[14.659,47.944],[14.607,47.961],[14.445,48.043],[14.427,48.057],[14.445,48.069],[14.463,48.099],[14.48,48.118],[14.469,48.156],[14.479,48.178],[14.485,48.218],[14.493,48.231],[14.52,48.245],[14.565,48.244],[14.61,48.223],[14.638,48.197],[14.675,48.182],[14.819,48.206],[14.862,48.237],[14.88,48.242],[14.93,48.244],[14.953,48.237],[14.969,48.247],[14.975,48.334],[14.964,48.383],[14.94,48.402],[14.934,48.434],[14.91,48.44],[14.887,48.461],[14.884,48.495],[14.914,48.5],[14.906,48.527],[14.876,48.539],[14.839,48.542],[14.774,48.563],[14.712,48.572],[14.691,48.587]]]}},{"type":"Feature","properties":{"id":"at-5"},"geometry":{"type":"Polygon","coordinates":[[[12.848,47.982],[12.862,47.963],[12.886,47.953],[12.931,47.925],[12.965,47.872],[12.991,47.847],[12.927,47.777],[12.917,47.75],[12.892,47.724],[12.908,47.712],[12.964,47.705],[13.004,47.715],[13.02,47.713],[13.045,47.697],[13.064,47.674],[13.075,47.647],[13.072,47.622],[13.041,47.583],[13.04,47.56],[13.028,47.542],[13.037,47.493],[13.009,47.47],[12.991,47.466],[12.97,47.476],[12.943,47.47],[12.883,47.499],[12.837,47.533],[12.804,47.541],[12.779,47.555],[12.774,47.58],[12.786,47.603],[12.813,47.612],[12.767,47.636],[12.745,47.665],[12.689,47.675],[12.653,47.675],[12.598,47.663],[12.563,47.642],[12.589,47.612],[12.645,47.583],[12.658,47.571],[12.657,47.539],[12.679,47.499],[12.665,47.479],[12.635,47.451],[12.614,47.42],[12.59,47.401],[12.568,47.393],[12.502,47.385],[12.48,47.353],[12.457,47.333],[12.425,47.324],[12.393,47.321],[12.342,47.333],[12.315,47.333],[12.28,47.318],[12.168,47.291],[12.124,47.29],[12.096,47.28],[12.098,47.26],[12.082,47.206],[12.084,47.176],[12.095,47.16],[12.12,47.145],[12.131,47.121],[12.133,47.079],[12.181,47.085],[12.204,47.08],[12.204,47.067],[12.321,47.105],[12.38,47.144],[12.397,47.149],[12.476,47.156],[12.578,47.144],[12.595,47.138],[12.634,47.112],[12.665,47.136],[12.687,47.132],[12.727,47.115],[12.772,47.099],[12.834,47.089],[12.866,47.087],[12.914,47.076],[12.994,47.041],[13.03,47.031],[13.059,47.029],[13.135,47.032],[13.174,47.037],[13.226,47.055],[13.274,47.084],[13.308,47.087],[13.44,47.062],[13.461,47.061],[13.562,47.047],[13.606,47.044],[13.667,47.026],[13.753,46.981],[13.782,46.954],[13.821,46.988],[13.864,47.042],[13.88,47.073],[13.88,47.105],[13.937,47.151],[13.932,47.169],[13.902,47.184],[13.861,47.222],[13.848,47.25],[13.81,47.296],[13.797,47.302],[13.767,47.292],[13.739,47.29],[13.694,47.274],[13.662,47.286],[13.631,47.306],[13.604,47.343],[13.575,47.41],[13.565,47.445],[13.582,47.486],[13.524,47.511],[13.489,47.536],[13.479,47.564],[13.506,47.603],[13.506,47.622],[13.489,47.641],[13.526,47.718],[13.513,47.735],[13.488,47.738],[13.453,47.751],[13.453,47.77],[13.509,47.773],[13.521,47.784],[13.498,47.798],[13.317,47.825],[13.292,47.841],[13.275,47.886],[13.271,47.912],[13.276,47.952],[13.295,47.969],[13.322,47.964],[13.351,47.966],[13.352,47.988],[13.303,48.01],[13.235,47.989],[13.177,47.984],[13.139,47.987],[13.09,48],[13.061,48.021],[13.036,48.031],[12.968,48.032],[12.938,48.021],[12.927,48.002],[12.848,47.982]]]}},{"type":"Feature","properties":{"id":"at-6"},"geometry":{"type":"Polygon","coordinates":[[[14.699,47.769],[14.636,47.734],[14.492,47.695],[14.477,47.678],[14.449,47.665],[14.417,47.659],[14.347,47.626],[14.293,47.621],[14.251,47.631],[14.195,47.658],[14.172,47.657],[14.135,47.645],[14.086,47.636],[14.06,47.626],[14.042,47.662],[13.997,47.699],[13.953,47.695],[13.881,47.707],[13.843,47.721],[13.823,47.72],[13.717,47.685],[13.687,47.664],[13.677,47.618],[13.681,47.598],[13.73,47.546],[13.735,47.516],[13.724,47.498],[13.696,47.48],[13.674,47.474],[13.582,47.486],[13.565,47.445],[13.575,47.41],[13.604,47.343],[13.631,47.306],[13.662,47.286],[13.694,47.274],[13.739,47.29],[13.767,47.292],[13.797,47.302],[13.81,47.296],[13.848,47.25],[13.861,47.222],[13.902,47.184],[13.932,47.169],[13.937,47.151],[13.88,47.105],[13.88,47.073],[13.864,47.042],[13.821,46.988],[13.782,46.954],[13.844,46.923],[13.88,46.928],[13.942,46.961],[13.979,46.973],[14.003,47.003],[14.027,47.018],[14.136,47.053],[14.201,47.057],[14.267,47.029],[14.338,47.014],[14.368,47],[14.395,46.998],[14.497,47.023],[14.589,47.024],[14.616,47.017],[14.739,47.023],[14.85,47.041],[14.89,47.027],[14.93,46.994],[15.008,46.911],[15.006,46.881],[14.987,46.842],[15.009,46.796],[15.02,46.761],[15.023,46.727],[15.035,46.703],[15.106,46.646],[15.205,46.639],[15.388,46.646],[15.418,46.638],[15.463,46.615],[15.493,46.618],[15.511,46.628],[15.531,46.664],[15.567,46.676],[15.604,46.673],[15.627,46.681],[15.636,46.718],[15.652,46.711],[15.729,46.703],[15.755,46.704],[15.823,46.723],[15.879,46.721],[15.946,46.697],[15.987,46.692],[16.015,46.694],[16.003,46.709],[15.982,46.719],[15.971,46.743],[15.971,46.778],[15.988,46.83],[16.028,46.837],[16.027,46.853],[16.003,46.877],[16.019,46.923],[16.054,46.944],[16.103,46.988],[16.136,47.025],[16.135,47.04],[16.09,47.083],[16.084,47.107],[16.095,47.138],[16.095,47.165],[16.068,47.238],[16.058,47.291],[16.038,47.344],[16.02,47.372],[16.022,47.389],[16.047,47.411],[16.072,47.395],[16.09,47.402],[16.148,47.443],[16.113,47.463],[16.08,47.517],[16.047,47.506],[15.998,47.524],[15.917,47.533],[15.892,47.572],[15.866,47.585],[15.842,47.585],[15.825,47.595],[15.829,47.632],[15.818,47.644],[15.797,47.645],[15.763,47.633],[15.743,47.637],[15.726,47.69],[15.714,47.702],[15.672,47.704],[15.639,47.717],[15.606,47.743],[15.539,47.747],[15.5,47.766],[15.417,47.793],[15.375,47.82],[15.339,47.825],[15.278,47.815],[15.23,47.819],[15.187,47.78],[15.056,47.751],[15.015,47.752],[14.954,47.737],[14.93,47.727],[14.883,47.725],[14.838,47.751],[14.734,47.75],[14.699,47.769]]]}},{"type":"Feature","properties":{"id":"at-7"},"geometry":{"type":"MultiPolygon","coordinates":[[[[10.125,46.847],[10.158,46.852],[10.201,46.867],[10.212,46.877],[10.22,46.906],[10.235,46.923],[10.296,46.923],[10.296,46.941],[10.314,46.964],[10.339,46.984],[10.368,46.996],[10.395,46.985],[10.416,46.962],[10.458,46.937],[10.464,46.92],[10.451,46.886],[10.454,46.864],[10.486,46.846],[10.528,46.843],[10.629,46.862],[10.662,46.861],[10.739,46.83],[10.744,46.813],[10.717,46.795],[10.723,46.786],[10.755,46.791],[10.795,46.777],[10.824,46.78],[10.88,46.765],[10.931,46.774],[10.997,46.769],[11.033,46.806],[11.055,46.82],[11.054,46.834],[11.073,46.865],[11.092,46.912],[11.157,46.957],[11.174,46.964],[11.244,46.979],[11.314,46.987],[11.349,46.982],[11.381,46.972],[11.411,46.97],[11.453,47.001],[11.489,47.004],[11.515,46.989],[11.534,46.99],[11.596,47],[11.65,46.993],[11.684,46.992],[11.716,46.975],[11.746,46.972],[11.777,46.988],[11.823,46.993],[11.857,47.012],[11.9,47.028],[11.944,47.038],[12.015,47.04],[12.116,47.077],[12.133,47.079],[12.131,47.121],[12.12,47.145],[12.095,47.16],[12.084,47.176],[12.082,47.206],[12.098,47.26],[12.096,47.28],[12.124,47.29],[12.168,47.291],[12.28,47.318],[12.315,47.333],[12.342,47.333],[12.393,47.321],[12.425,47.324],[12.457,47.333],[12.48,47.353],[12.502,47.385],[12.568,47.393],[12.59,47.401],[12.614,47.42],[12.635,47.451],[12.665,47.479],[12.679,47.499],[12.657,47.539],[12.658,47.571],[12.645,47.583],[12.589,47.612],[12.563,47.642],[12.538,47.631],[12.497,47.629],[12.453,47.65],[12.424,47.692],[12.408,47.694],[12.351,47.682],[12.294,47.69],[12.239,47.679],[12.223,47.696],[12.24,47.732],[12.177,47.706],[12.182,47.692],[12.202,47.678],[12.207,47.646],[12.202,47.63],[12.166,47.604],[11.936,47.611],[11.852,47.599],[11.82,47.575],[11.764,47.583],[11.683,47.583],[11.62,47.59],[11.589,47.57],[11.569,47.527],[11.551,47.514],[11.483,47.503],[11.435,47.51],[11.413,47.506],[11.365,47.469],[11.389,47.462],[11.384,47.445],[11.368,47.44],[11.306,47.435],[11.259,47.401],[11.237,47.394],[11.213,47.396],[11.215,47.423],[11.194,47.429],[11.169,47.424],[11.103,47.394],[11.084,47.39],[10.979,47.391],[10.966,47.396],[10.96,47.433],[10.91,47.469],[10.858,47.485],[10.852,47.493],[10.892,47.515],[10.859,47.531],[10.831,47.529],[10.79,47.516],[10.752,47.515],[10.74,47.528],[10.608,47.562],[10.584,47.562],[10.55,47.537],[10.525,47.528],[10.483,47.533],[10.454,47.546],[10.457,47.579],[10.414,47.573],[10.431,47.542],[10.42,47.493],[10.442,47.481],[10.452,47.46],[10.452,47.439],[10.443,47.416],[10.412,47.381],[10.366,47.361],[10.343,47.331],[10.306,47.302],[10.239,47.278],[10.175,47.272],[10.191,47.244],[10.203,47.199],[10.202,47.161],[10.187,47.136],[10.148,47.096],[10.138,47.077],[10.125,47.022],[10.129,46.985],[10.12,46.955],[10.084,46.926],[10.083,46.908],[10.106,46.883],[10.125,46.847]]],[[[12.204,47.067],[12.204,47.053],[12.182,47.034],[12.122,47.011],[12.111,46.993],[12.128,46.949],[12.142,46.928],[12.127,46.909],[12.172,46.899],[12.195,46.88],[12.251,46.876],[12.267,46.868],[12.276,46.834],[12.267,46.808],[12.269,46.789],[12.284,46.78],[12.343,46.765],[12.37,46.711],[12.405,46.69],[12.446,46.679],[12.5,46.672],[12.531,46.658],[12.562,46.651],[12.62,46.656],[12.671,46.652],[12.709,46.705],[12.724,46.749],[12.746,46.756],[12.835,46.765],[12.875,46.778],[12.897,46.776],[12.933,46.758],[12.945,46.775],[12.885,46.832],[12.829,46.876],[12.815,46.919],[12.794,46.939],[12.764,46.957],[12.739,46.986],[12.735,47.004],[12.752,47.04],[12.744,47.058],[12.658,47.078],[12.637,47.093],[12.634,47.112],[12.595,47.138],[12.578,47.144],[12.476,47.156],[12.397,47.149],[12.38,47.144],[12.321,47.105],[12.204,47.067]]]]}},{"type":"Feature","properties":{"id":"at-8"},"geometry":{"type":"Polygon","coordinates":[[[10.175,47.272],[10.169,47.29],[10.186,47.295],[10.19,47.317],[10.209,47.354],[10.209,47.372],[10.191,47.379],[10.147,47.374],[10.126,47.363],[10.09,47.359],[10.073,47.365],[10.064,47.396],[10.053,47.405],[10.076,47.417],[10.072,47.439],[10.023,47.488],[9.994,47.477],[9.983,47.481],[9.972,47.506],[9.949,47.524],[9.946,47.541],[9.919,47.532],[9.859,47.541],[9.833,47.535],[9.813,47.542],[9.808,47.576],[9.782,47.588],[9.753,47.582],[9.731,47.565],[9.704,47.531],[9.677,47.523],[9.613,47.522],[9.55,47.534],[9.555,47.511],[9.585,47.481],[9.622,47.469],[9.65,47.452],[9.65,47.41],[9.64,47.395],[9.601,47.361],[9.587,47.328],[9.553,47.3],[9.521,47.263],[9.547,47.243],[9.54,47.229],[9.563,47.198],[9.552,47.167],[9.582,47.155],[9.606,47.132],[9.616,47.107],[9.609,47.081],[9.581,47.057],[9.6,47.053],[9.669,47.056],[9.858,47.015],[9.867,47.002],[9.862,46.94],[9.9,46.914],[10.007,46.891],[10.046,46.866],[10.068,46.857],[10.125,46.847],[10.106,46.883],[10.083,46.908],[10.084,46.926],[10.12,46.955],[10.129,46.985],[10.125,47.022],[10.138,47.077],[10.148,47.096],[10.187,47.136],[10.202,47.161],[10.203,47.199],[10.191,47.244],[10.175,47.272]]]}},{"type":"Feature","properties":{"id":"at-9"},"geometry":{"type":"Polygon","coordinates":[[[16.483,48.289],[16.446,48.328],[16.415,48.33],[16.404,48.318],[16.351,48.303],[16.284,48.274],[16.259,48.258],[16.233,48.254],[16.208,48.262],[16.192,48.247],[16.188,48.23],[16.211,48.203],[16.203,48.174],[16.233,48.149],[16.294,48.146],[16.347,48.149],[16.388,48.136],[16.41,48.135],[16.44,48.157],[16.502,48.162],[16.571,48.153],[16.543,48.198],[16.556,48.249],[16.538,48.28],[16.512,48.303],[16.483,48.289]]]}}]}