{"type":"FeatureCollection","features":[{"type":"Feature","properties":{"id":"fr-ara"},"geometry":{"type":"Polygon","coordinates":[[[6.629,45.124],[6.667,45.14],[6.694,45.14],[6.736,45.157],[6.771,45.153],[6.808,45.139],[6.844,45.13],[6.877,45.141],[6.868,45.157],[6.881,45.168],[6.914,45.17],[6.959,45.21],[7.03,45.228],[7.05,45.215],[7.062,45.219],[7.081,45.243],[7.108,45.259],[7.093,45.324],[7.13,45.357],[7.16,45.398],[7.161,45.411],[7.097,45.435],[7.072,45.47],[7.028,45.493],[6.983,45.511],[6.975,45.526],[6.97,45.567],[6.955,45.586],[6.956,45.603],[6.969,45.626],[6.963,45.641],[6.919,45.653],[6.883,45.676],[6.843,45.683],[6.816,45.697],[6.796,45.718],[6.784,45.765],[6.783,45.795],[6.801,45.826],[6.843,45.839],[6.871,45.828],[6.873,45.845],[6.905,45.845],[6.949,45.858],[6.969,45.87],[6.997,45.911],[7.022,45.925],[6.983,45.995],[6.915,46.049],[6.892,46.056],[6.869,46.044],[6.851,46.05],[6.851,46.086],[6.869,46.112],[6.854,46.123],[6.774,46.135],[6.766,46.152],[6.775,46.186],[6.792,46.222],[6.828,46.269],[6.805,46.297],[6.769,46.323],[6.75,46.346],[6.756,46.357],[6.782,46.378],[6.787,46.414],[6.763,46.429],[6.614,46.456],[6.547,46.457],[6.483,46.449],[6.398,46.408],[6.332,46.401],[6.302,46.394],[6.269,46.375],[6.219,46.329],[6.214,46.315],[6.238,46.268],[6.252,46.26],[6.276,46.263],[6.281,46.24],[6.255,46.221],[6.191,46.192],[6.14,46.15],[6.108,46.139],[6.074,46.149],[6.028,46.148],[5.983,46.14],[5.959,46.13],[5.983,46.171],[5.955,46.2],[5.959,46.212],[6.043,46.243],[6.09,46.246],[6.104,46.309],[6.136,46.359],[6.135,46.37],[6.108,46.396],[6.059,46.417],[6.017,46.386],[6.003,46.37],[5.969,46.345],[5.952,46.323],[5.881,46.275],[5.84,46.267],[5.731,46.271],[5.714,46.278],[5.698,46.312],[5.648,46.344],[5.601,46.311],[5.595,46.3],[5.568,46.294],[5.557,46.282],[5.51,46.261],[5.483,46.266],[5.47,46.277],[5.475,46.31],[5.469,46.32],[5.44,46.325],[5.427,46.339],[5.392,46.347],[5.375,46.36],[5.364,46.391],[5.345,46.403],[5.32,46.408],[5.311,46.42],[5.311,46.455],[5.24,46.469],[5.214,46.48],[5.179,46.505],[5.155,46.511],[5.125,46.509],[5.064,46.493],[5.025,46.493],[4.988,46.506],[4.96,46.51],[4.937,46.501],[4.912,46.447],[4.899,46.396],[4.874,46.36],[4.873,46.338],[4.819,46.257],[4.794,46.188],[4.798,46.172],[4.739,46.177],[4.72,46.189],[4.703,46.225],[4.704,46.247],[4.677,46.261],[4.673,46.288],[4.638,46.299],[4.623,46.293],[4.619,46.273],[4.606,46.263],[4.581,46.266],[4.554,46.289],[4.518,46.276],[4.499,46.275],[4.46,46.282],[4.423,46.294],[4.408,46.29],[4.384,46.225],[4.354,46.197],[4.328,46.182],[4.289,46.173],[4.192,46.19],[4.134,46.182],[4.093,46.191],[4.064,46.193],[4.007,46.177],[3.972,46.182],[3.946,46.197],[3.898,46.213],[3.899,46.249],[3.886,46.276],[3.978,46.312],[4,46.326],[3.986,46.356],[3.979,46.395],[3.989,46.423],[3.979,46.463],[3.972,46.471],[3.937,46.484],[3.878,46.493],[3.835,46.522],[3.81,46.522],[3.741,46.549],[3.746,46.593],[3.743,46.61],[3.708,46.64],[3.699,46.657],[3.658,46.686],[3.65,46.708],[3.625,46.739],[3.597,46.743],[3.589,46.716],[3.568,46.706],[3.56,46.681],[3.495,46.654],[3.461,46.651],[3.457,46.675],[3.434,46.706],[3.408,46.711],[3.39,46.705],[3.368,46.686],[3.349,46.686],[3.313,46.699],[3.256,46.701],[3.216,46.687],[3.186,46.696],[3.159,46.719],[3.13,46.728],[3.108,46.727],[3.052,46.75],[3.031,46.772],[3.03,46.791],[2.976,46.793],[2.931,46.783],[2.868,46.754],[2.838,46.726],[2.806,46.731],[2.773,46.713],[2.716,46.731],[2.7,46.717],[2.653,46.69],[2.628,46.689],[2.62,46.661],[2.577,46.656],[2.591,46.634],[2.586,46.601],[2.618,46.566],[2.613,46.549],[2.53,46.532],[2.483,46.53],[2.455,46.525],[2.4,46.522],[2.34,46.501],[2.315,46.477],[2.292,46.468],[2.254,46.42],[2.289,46.385],[2.316,46.367],[2.332,46.329],[2.349,46.318],[2.397,46.31],[2.431,46.274],[2.449,46.283],[2.474,46.271],[2.515,46.226],[2.538,46.176],[2.567,46.136],[2.56,46.091],[2.564,46.07],[2.595,46.027],[2.595,45.971],[2.568,45.946],[2.542,45.903],[2.502,45.87],[2.473,45.871],[2.454,45.864],[2.401,45.829],[2.401,45.814],[2.422,45.794],[2.444,45.757],[2.469,45.752],[2.49,45.736],[2.516,45.713],[2.525,45.698],[2.522,45.649],[2.509,45.633],[2.476,45.618],[2.465,45.585],[2.473,45.569],[2.495,45.545],[2.497,45.501],[2.519,45.479],[2.499,45.418],[2.489,45.397],[2.47,45.389],[2.441,45.392],[2.391,45.413],[2.358,45.41],[2.352,45.4],[2.369,45.385],[2.367,45.369],[2.348,45.34],[2.33,45.331],[2.298,45.293],[2.244,45.271],[2.233,45.245],[2.195,45.224],[2.195,45.194],[2.207,45.18],[2.207,45.159],[2.185,45.128],[2.168,45.095],[2.152,45.079],[2.114,45.059],[2.11,45.037],[2.13,45.011],[2.132,44.993],[2.117,44.986],[2.082,44.983],[2.059,44.975],[2.071,44.957],[2.079,44.897],[2.094,44.866],[2.136,44.818],[2.152,44.796],[2.159,44.775],[2.143,44.72],[2.132,44.699],[2.165,44.678],[2.171,44.65],[2.182,44.631],[2.205,44.622],[2.214,44.647],[2.3,44.669],[2.321,44.667],[2.346,44.652],[2.368,44.66],[2.422,44.659],[2.455,44.662],[2.482,44.676],[2.524,44.711],[2.537,44.73],[2.541,44.749],[2.555,44.772],[2.578,44.795],[2.594,44.835],[2.727,44.935],[2.74,44.931],[2.773,44.893],[2.773,44.868],[2.783,44.862],[2.821,44.867],[2.867,44.824],[2.885,44.792],[2.916,44.784],[2.927,44.769],[2.907,44.757],[2.914,44.744],[2.926,44.691],[2.946,44.665],[2.98,44.644],[2.994,44.677],[3.021,44.707],[3.031,44.749],[3.045,44.792],[3.063,44.824],[3.089,44.837],[3.1,44.881],[3.116,44.894],[3.131,44.893],[3.154,44.87],[3.188,44.881],[3.244,44.922],[3.297,44.93],[3.338,44.95],[3.37,44.954],[3.391,44.948],[3.403,44.915],[3.46,44.837],[3.493,44.816],[3.526,44.826],[3.56,44.828],[3.578,44.833],[3.59,44.865],[3.602,44.875],[3.625,44.877],[3.654,44.869],[3.663,44.856],[3.653,44.839],[3.661,44.831],[3.716,44.825],[3.738,44.816],[3.795,44.776],[3.848,44.755],[3.872,44.751],[3.868,44.722],[3.892,44.663],[3.9,44.622],[3.922,44.58],[3.943,44.57],[3.965,44.536],[3.994,44.458],[4.022,44.44],[4.051,44.395],[4.036,44.376],[4.044,44.331],[4.076,44.329],[4.131,44.332],[4.141,44.322],[4.229,44.285],[4.251,44.282],[4.334,44.331],[4.373,44.34],[4.397,44.328],[4.396,44.301],[4.429,44.292],[4.445,44.301],[4.451,44.326],[4.466,44.336],[4.521,44.337],[4.551,44.327],[4.585,44.301],[4.612,44.291],[4.658,44.282],[4.658,44.327],[4.686,44.33],[4.744,44.326],[4.774,44.311],[4.787,44.296],[4.81,44.249],[4.822,44.238],[4.845,44.239],[4.891,44.259],[4.919,44.261],[4.984,44.282],[5.052,44.296],[5.111,44.288],[5.139,44.293],[5.16,44.307],[5.175,44.297],[5.163,44.276],[5.164,44.247],[5.177,44.234],[5.223,44.224],[5.269,44.227],[5.339,44.209],[5.379,44.202],[5.393,44.169],[5.471,44.125],[5.506,44.122],[5.537,44.136],[5.59,44.178],[5.604,44.181],[5.638,44.172],[5.649,44.154],[5.675,44.157],[5.671,44.181],[5.679,44.191],[5.685,44.233],[5.684,44.259],[5.648,44.281],[5.623,44.303],[5.631,44.325],[5.61,44.332],[5.564,44.33],[5.538,44.34],[5.497,44.348],[5.459,44.37],[5.444,44.402],[5.428,44.425],[5.449,44.429],[5.493,44.424],[5.5,44.438],[5.478,44.453],[5.466,44.479],[5.472,44.489],[5.525,44.488],[5.587,44.471],[5.607,44.473],[5.651,44.496],[5.658,44.514],[5.62,44.539],[5.608,44.556],[5.615,44.573],[5.644,44.606],[5.658,44.641],[5.683,44.646],[5.723,44.641],[5.764,44.652],[5.793,44.655],[5.83,44.683],[5.829,44.697],[5.812,44.712],[5.845,44.75],[5.868,44.754],[5.918,44.756],[5.958,44.765],[5.972,44.777],[5.973,44.808],[6.013,44.83],[6.032,44.834],[6.058,44.828],[6.077,44.83],[6.129,44.855],[6.148,44.857],[6.176,44.852],[6.206,44.857],[6.244,44.856],[6.277,44.866],[6.305,44.867],[6.341,44.858],[6.365,44.868],[6.37,44.912],[6.364,44.928],[6.335,44.954],[6.325,44.999],[6.305,45.007],[6.259,45],[6.227,45.007],[6.222,45.034],[6.242,45.105],[6.266,45.125],[6.283,45.115],[6.357,45.108],[6.379,45.096],[6.394,45.07],[6.459,45.054],[6.481,45.058],[6.496,45.071],[6.506,45.095],[6.52,45.104],[6.561,45.105],[6.598,45.121],[6.629,45.124]],[[4.964,44.429],[4.992,44.423],[5.032,44.394],[5.043,44.368],[5.022,44.352],[5.001,44.323],[4.981,44.313],[4.897,44.312],[4.883,44.323],[4.889,44.356],[4.938,44.416],[4.964,44.429]]]}},{"type":"Feature","properties":{"id":"fr-bfc"},"geometry":{"type":"Polygon","coordinates":[[[3.395,48.412],[3.37,48.393],[3.355,48.374],[3.308,48.378],[3.206,48.366],[3.131,48.372],[3.092,48.361],[3.042,48.362],[3.032,48.354],[3.015,48.321],[3.016,48.287],[3.03,48.268],[3.002,48.229],[2.947,48.205],[2.937,48.194],[2.926,48.156],[2.957,48.154],[3.008,48.142],[3.027,48.125],[3.045,48.076],[3.061,48.061],[3.092,48.044],[3.112,48.026],[3.118,48.001],[3.085,47.949],[3.045,47.93],[3.021,47.911],[2.992,47.9],[2.996,47.875],[3.012,47.847],[2.999,47.829],[3,47.801],[2.983,47.788],[2.918,47.765],[2.86,47.762],[2.835,47.749],[2.837,47.716],[2.867,47.708],[2.915,47.677],[2.934,47.649],[2.925,47.627],[2.931,47.609],[2.961,47.583],[2.969,47.568],[2.948,47.563],[2.91,47.562],[2.859,47.544],[2.875,47.521],[2.908,47.474],[2.93,47.453],[2.925,47.412],[2.909,47.384],[2.885,47.358],[2.875,47.337],[2.893,47.316],[2.919,47.305],[2.945,47.282],[2.972,47.267],[2.99,47.216],[3.013,47.174],[3.033,47.122],[3.032,47.076],[3.068,47.046],[3.076,46.974],[3.054,46.913],[3.073,46.87],[3.034,46.812],[3.03,46.791],[3.031,46.772],[3.052,46.75],[3.108,46.727],[3.13,46.728],[3.159,46.719],[3.186,46.696],[3.216,46.687],[3.256,46.701],[3.313,46.699],[3.349,46.686],[3.368,46.686],[3.39,46.705],[3.408,46.711],[3.434,46.706],[3.457,46.675],[3.461,46.651],[3.495,46.654],[3.56,46.681],[3.568,46.706],[3.589,46.716],[3.597,46.743],[3.625,46.739],[3.65,46.708],[3.658,46.686],[3.699,46.657],[3.708,46.64],[3.743,46.61],[3.746,46.593],[3.741,46.549],[3.81,46.522],[3.835,46.522],[3.878,46.493],[3.937,46.484],[3.972,46.471],[3.979,46.463],[3.989,46.423],[3.979,46.395],[3.986,46.356],[4,46.326],[3.978,46.312],[3.886,46.276],[3.899,46.249],[3.898,46.213],[3.946,46.197],[3.972,46.182],[4.007,46.177],[4.064,46.193],[4.093,46.191],[4.134,46.182],[4.192,46.19],[4.289,46.173],[4.328,46.182],[4.354,46.197],[4.384,46.225],[4.408,46.29],[4.423,46.294],[4.46,46.282],[4.499,46.275],[4.518,46.276],[4.554,46.289],[4.581,46.266],[4.606,46.263],[4.619,46.273],[4.623,46.293],[4.638,46.299],[4.673,46.288],[4.677,46.261],[4.704,46.247],[4.703,46.225],[4.72,46.189],[4.739,46.177],[4.798,46.172],[4.794,46.188],[4.819,46.257],[4.873,46.338],[4.874,46.36],[4.899,46.396],[4.912,46.447],[4.937,46.501],[4.96,46.51],[4.988,46.506],[5.025,46.493],[5.064,46.493],[5.125,46.509],[5.155,46.511],[5.179,46.505],[5.214,46.48],[5.24,46.469],[5.311,46.455],[5.311,46.42],[5.32,46.408],[5.345,46.403],[5.364,46.391],[5.375,46.36],[5.392,46.347],[5.427,46.339],[5.44,46.325],[5.469,46.32],[5.475,46.31],[5.47,46.277],[5.483,46.266],[5.51,46.261],[5.557,46.282],[5.568,46.294],[5.595,46.3],[5.601,46.311],[5.648,46.344],[5.698,46.312],[5.714,46.278],[5.731,46.271],[5.84,46.267],[5.881,46.275],[5.952,46.323],[5.969,46.345],[6.003,46.37],[6.017,46.386],[6.059,46.417],[6.068,46.434],[6.06,46.46],[6.11,46.521],[6.146,46.552],[6.138,46.558],[6.118,46.583],[6.132,46.596],[6.266,46.68],[6.338,46.707],[6.374,46.734],[6.407,46.746],[6.429,46.761],[6.433,46.786],[6.419,46.807],[6.447,46.858],[6.445,46.883],[6.428,46.909],[6.443,46.944],[6.491,46.963],[6.599,46.987],[6.665,47.021],[6.688,47.044],[6.676,47.062],[6.699,47.085],[6.724,47.091],[6.746,47.104],[6.745,47.121],[6.775,47.128],[6.84,47.17],[6.859,47.191],[6.888,47.211],[6.956,47.245],[6.952,47.27],[6.959,47.291],[6.992,47.306],[7.006,47.319],[7.037,47.33],[7.044,47.34],[7.004,47.368],[6.986,47.362],[6.867,47.354],[6.872,47.367],[6.899,47.396],[6.925,47.406],[6.939,47.427],[6.983,47.444],[6.991,47.452],[6.973,47.489],[7.001,47.498],[7.054,47.49],[7.104,47.496],[7.142,47.488],[7.151,47.508],[7.149,47.532],[7.134,47.55],[7.08,47.591],[7.037,47.596],[7.023,47.606],[7.027,47.624],[7.053,47.653],[7.059,47.68],[7.05,47.716],[7.024,47.736],[6.883,47.791],[6.87,47.802],[6.869,47.819],[6.836,47.824],[6.762,47.862],[6.741,47.876],[6.697,47.89],[6.675,47.903],[6.637,47.935],[6.614,47.941],[6.577,47.908],[6.553,47.901],[6.499,47.905],[6.412,47.942],[6.373,47.953],[6.322,47.95],[6.283,47.935],[6.244,47.932],[6.196,47.948],[6.182,47.958],[6.183,47.977],[6.147,48.002],[6.099,48.009],[6.071,48.004],[6.034,47.973],[5.982,47.944],[5.965,47.95],[5.967,47.975],[5.943,47.971],[5.926,47.948],[5.892,47.933],[5.892,47.909],[5.861,47.901],[5.821,47.863],[5.716,47.813],[5.7,47.792],[5.71,47.764],[5.701,47.733],[5.701,47.693],[5.683,47.681],[5.587,47.658],[5.555,47.66],[5.501,47.682],[5.421,47.671],[5.407,47.659],[5.375,47.608],[5.359,47.593],[5.339,47.607],[5.322,47.605],[5.294,47.59],[5.276,47.591],[5.267,47.615],[5.222,47.636],[5.194,47.654],[5.186,47.672],[5.168,47.675],[5.138,47.651],[5.109,47.648],[5.08,47.66],[5.034,47.704],[5.022,47.705],[4.991,47.686],[4.971,47.693],[4.96,47.715],[4.955,47.751],[4.932,47.773],[4.95,47.789],[4.978,47.791],[4.986,47.814],[4.968,47.842],[4.946,47.866],[4.895,47.911],[4.864,47.896],[4.844,47.909],[4.861,47.944],[4.847,47.954],[4.801,47.966],[4.807,47.985],[4.793,47.997],[4.732,48.006],[4.699,48.022],[4.67,48.011],[4.643,48.009],[4.61,48.015],[4.583,48.011],[4.563,47.998],[4.56,47.974],[4.542,47.965],[4.326,47.946],[4.288,47.924],[4.255,47.935],[4.224,47.968],[4.211,47.966],[4.203,47.939],[4.175,47.953],[4.152,47.951],[4.136,47.935],[4.096,47.932],[4.068,47.938],[4.029,47.922],[3.991,47.931],[3.952,47.928],[3.909,47.939],[3.906,47.976],[3.898,47.986],[3.859,47.983],[3.839,47.99],[3.836,48.004],[3.859,48.01],[3.854,48.022],[3.783,48.104],[3.752,48.128],[3.741,48.151],[3.717,48.162],[3.698,48.146],[3.68,48.142],[3.649,48.151],[3.618,48.169],[3.582,48.181],[3.587,48.194],[3.611,48.211],[3.607,48.257],[3.588,48.281],[3.523,48.339],[3.493,48.356],[3.462,48.368],[3.421,48.37],[3.413,48.402],[3.395,48.412]]]}},{"type":"Feature","properties":{"id":"fr-bre"},"geometry":{"type":"MultiPolygon","coordinates":[[[[-1.079,48.499],[-1.121,48.516],[-1.223,48.535],[-1.266,48.535],[-1.295,48.509],[-1.336,48.495],[-1.382,48.47],[-1.41,48.463],[-1.448,48.466],[-1.499,48.495],[-1.529,48.531],[-1.556,48.586],[-1.58,48.62],[-1.59,48.642],[-1.644,48.623],[-1.723,48.615],[-1.796,48.616],[-1.838,48.624],[-1.861,48.641],[-1.861,48.664],[-1.836,48.691],[-1.844,48.712],[-1.946,48.699],[-1.977,48.691],[-1.988,48.674],[-2.018,48.66],[-2.029,48.643],[-2,48.601],[-1.98,48.589],[-1.977,48.573],[-1.949,48.538],[-1.97,48.521],[-1.982,48.549],[-2.008,48.575],[-2.001,48.589],[-2.022,48.599],[-2.029,48.62],[-2.052,48.65],[-2.1,48.647],[-2.145,48.636],[-2.137,48.622],[-2.188,48.601],[-2.214,48.582],[-2.219,48.604],[-2.241,48.621],[-2.251,48.65],[-2.274,48.643],[-2.313,48.62],[-2.33,48.63],[-2.302,48.65],[-2.295,48.677],[-2.312,48.687],[-2.356,48.663],[-2.412,48.643],[-2.421,48.657],[-2.443,48.659],[-2.487,48.65],[-2.46,48.636],[-2.474,48.626],[-2.577,48.582],[-2.601,48.558],[-2.636,48.539],[-2.676,48.54],[-2.682,48.509],[-2.713,48.53],[-2.721,48.545],[-2.714,48.561],[-2.771,48.579],[-2.813,48.599],[-2.811,48.615],[-2.827,48.658],[-2.892,48.695],[-2.914,48.716],[-2.947,48.733],[-2.933,48.746],[-2.933,48.767],[-2.953,48.772],[-3.004,48.774],[-3.029,48.78],[-3.042,48.794],[-3.008,48.808],[-3.018,48.827],[-3.065,48.824],[-3.085,48.805],[-3.118,48.76],[-3.125,48.767],[-3.098,48.794],[-3.077,48.828],[-3.091,48.836],[-3.084,48.852],[-3.091,48.871],[-3.116,48.874],[-3.145,48.862],[-3.179,48.841],[-3.209,48.816],[-3.207,48.855],[-3.23,48.872],[-3.26,48.848],[-3.287,48.843],[-3.372,48.822],[-3.398,48.807],[-3.433,48.808],[-3.434,48.822],[-3.468,48.836],[-3.515,48.842],[-3.543,48.808],[-3.582,48.791],[-3.577,48.774],[-3.543,48.746],[-3.58,48.733],[-3.585,48.726],[-3.571,48.688],[-3.614,48.683],[-3.639,48.688],[-3.638,48.705],[-3.674,48.698],[-3.698,48.702],[-3.732,48.719],[-3.778,48.717],[-3.81,48.722],[-3.837,48.707],[-3.837,48.671],[-3.852,48.665],[-3.844,48.636],[-3.894,48.654],[-3.912,48.681],[-3.95,48.669],[-3.968,48.691],[-3.961,48.705],[-3.974,48.713],[-3.974,48.733],[-4.057,48.712],[-4.053,48.696],[-4.07,48.685],[-4.109,48.698],[-4.131,48.699],[-4.174,48.691],[-4.208,48.671],[-4.207,48.65],[-4.242,48.658],[-4.283,48.643],[-4.307,48.642],[-4.299,48.664],[-4.317,48.678],[-4.343,48.679],[-4.398,48.661],[-4.427,48.658],[-4.43,48.643],[-4.485,48.63],[-4.564,48.63],[-4.557,48.609],[-4.595,48.609],[-4.608,48.603],[-4.59,48.566],[-4.642,48.582],[-4.673,48.58],[-4.722,48.568],[-4.765,48.52],[-4.775,48.491],[-4.749,48.479],[-4.78,48.455],[-4.783,48.417],[-4.766,48.39],[-4.783,48.376],[-4.777,48.356],[-4.755,48.342],[-4.704,48.342],[-4.691,48.363],[-4.619,48.348],[-4.57,48.36],[-4.521,48.368],[-4.458,48.395],[-4.427,48.404],[-4.359,48.411],[-4.397,48.388],[-4.454,48.342],[-4.427,48.339],[-4.407,48.348],[-4.384,48.338],[-4.325,48.363],[-4.309,48.352],[-4.304,48.335],[-4.276,48.325],[-4.27,48.315],[-4.244,48.314],[-4.187,48.3],[-4.269,48.288],[-4.263,48.3],[-4.33,48.297],[-4.377,48.288],[-4.402,48.289],[-4.427,48.3],[-4.516,48.296],[-4.543,48.305],[-4.53,48.342],[-4.559,48.339],[-4.577,48.308],[-4.575,48.29],[-4.626,48.287],[-4.626,48.267],[-4.566,48.265],[-4.547,48.253],[-4.564,48.232],[-4.544,48.205],[-4.557,48.177],[-4.532,48.183],[-4.514,48.202],[-4.485,48.243],[-4.458,48.249],[-4.404,48.226],[-4.379,48.232],[-4.358,48.212],[-4.316,48.206],[-4.302,48.196],[-4.294,48.167],[-4.276,48.144],[-4.29,48.108],[-4.305,48.104],[-4.362,48.116],[-4.684,48.067],[-4.697,48.075],[-4.728,48.041],[-4.653,48.026],[-4.602,48.026],[-4.572,48.006],[-4.533,48.026],[-4.435,47.976],[-4.387,47.934],[-4.372,47.916],[-4.347,47.863],[-4.348,47.838],[-4.373,47.829],[-4.372,47.807],[-4.225,47.802],[-4.185,47.813],[-4.153,47.834],[-4.18,47.842],[-4.188,47.862],[-4.172,47.877],[-4.153,47.855],[-4.134,47.866],[-4.094,47.875],[-4.032,47.864],[-3.986,47.868],[-3.979,47.883],[-3.988,47.903],[-3.962,47.9],[-3.935,47.888],[-3.913,47.862],[-3.895,47.855],[-3.852,47.801],[-3.79,47.803],[-3.775,47.794],[-3.723,47.813],[-3.706,47.797],[-3.687,47.792],[-3.649,47.794],[-3.617,47.779],[-3.591,47.78],[-3.539,47.774],[-3.524,47.772],[-3.495,47.739],[-3.461,47.708],[-3.446,47.705],[-3.364,47.718],[-3.375,47.734],[-3.304,47.761],[-3.317,47.739],[-3.341,47.739],[-3.345,47.721],[-3.316,47.708],[-3.332,47.697],[-3.262,47.684],[-3.232,47.66],[-3.215,47.661],[-3.207,47.697],[-3.178,47.71],[-3.159,47.711],[-3.177,47.749],[-3.153,47.742],[-3.139,47.725],[-3.118,47.732],[-3.111,47.704],[-3.186,47.681],[-3.198,47.653],[-3.197,47.633],[-3.166,47.622],[-3.141,47.598],[-3.134,47.581],[-3.134,47.544],[-3.143,47.527],[-3.144,47.507],[-3.132,47.478],[-3.107,47.496],[-3.123,47.519],[-3.129,47.548],[-3.112,47.599],[-3.074,47.576],[-3.042,47.588],[-3.003,47.579],[-2.981,47.587],[-2.961,47.571],[-2.933,47.574],[-2.955,47.592],[-2.967,47.613],[-2.958,47.642],[-2.942,47.632],[-2.94,47.602],[-2.886,47.601],[-2.867,47.607],[-2.848,47.626],[-2.796,47.63],[-2.758,47.639],[-2.754,47.627],[-2.725,47.607],[-2.689,47.604],[-2.741,47.551],[-2.769,47.55],[-2.794,47.555],[-2.816,47.547],[-2.832,47.554],[-2.851,47.547],[-2.865,47.567],[-2.893,47.567],[-2.89,47.547],[-2.869,47.542],[-2.844,47.512],[-2.817,47.499],[-2.783,47.499],[-2.731,47.512],[-2.681,47.504],[-2.667,47.51],[-2.666,47.534],[-2.643,47.526],[-2.618,47.527],[-2.621,47.543],[-2.592,47.544],[-2.601,47.52],[-2.563,47.52],[-2.531,47.527],[-2.502,47.527],[-2.425,47.506],[-2.484,47.498],[-2.481,47.478],[-2.489,47.459],[-2.461,47.453],[-2.433,47.466],[-2.404,47.456],[-2.346,47.459],[-2.334,47.464],[-2.302,47.502],[-2.281,47.507],[-2.253,47.495],[-2.211,47.508],[-2.187,47.481],[-2.173,47.486],[-2.154,47.513],[-2.12,47.53],[-2.11,47.542],[-2.098,47.587],[-2.086,47.608],[-2.089,47.633],[-2.081,47.65],[-2.023,47.673],[-1.958,47.676],[-1.938,47.685],[-1.866,47.703],[-1.806,47.692],[-1.685,47.718],[-1.641,47.74],[-1.622,47.759],[-1.592,47.775],[-1.489,47.808],[-1.462,47.823],[-1.409,47.824],[-1.39,47.817],[-1.379,47.802],[-1.351,47.792],[-1.251,47.78],[-1.243,47.81],[-1.229,47.823],[-1.216,47.858],[-1.194,47.9],[-1.183,47.934],[-1.168,47.961],[-1.145,47.979],[-1.124,47.986],[-1.078,47.989],[-1.041,48.002],[-1.042,48.062],[-1.07,48.091],[-1.082,48.152],[-1.07,48.174],[-1.085,48.24],[-1.102,48.267],[-1.07,48.318],[-1.07,48.349],[-1.082,48.423],[-1.079,48.499]]],[[[-3.115,47.331],[-3.177,47.371],[-3.25,47.395],[-3.262,47.383],[-3.238,47.336],[-3.241,47.321],[-3.223,47.312],[-3.172,47.302],[-3.094,47.297],[-3.067,47.302],[-3.063,47.321],[-3.073,47.328],[-3.115,47.331]]],[[[-5.05,48.479],[-5.069,48.485],[-5.092,48.481],[-5.133,48.465],[-5.098,48.461],[-5.088,48.447],[-5.037,48.465],[-5.05,48.479]]]]}},{"type":"Feature","properties":{"id":"fr-cor"},"geometry":{"type":"Polygon","coordinates":[[[8.57,42.382],[8.552,42.387],[8.55,42.366],[8.56,42.346],[8.613,42.352],[8.635,42.339],[8.605,42.326],[8.625,42.319],[8.635,42.305],[8.672,42.291],[8.681,42.273],[8.651,42.26],[8.611,42.255],[8.586,42.243],[8.549,42.242],[8.545,42.233],[8.574,42.22],[8.566,42.209],[8.582,42.195],[8.566,42.175],[8.594,42.147],[8.586,42.133],[8.63,42.13],[8.648,42.122],[8.661,42.105],[8.699,42.109],[8.723,42.072],[8.745,42.057],[8.738,42.044],[8.684,42.026],[8.665,42.014],[8.669,41.996],[8.655,41.979],[8.636,41.973],[8.586,41.969],[8.614,41.944],[8.619,41.93],[8.607,41.914],[8.614,41.901],[8.648,41.912],[8.689,41.914],[8.744,41.933],[8.781,41.929],[8.805,41.907],[8.782,41.874],[8.792,41.859],[8.772,41.84],[8.785,41.824],[8.752,41.81],[8.709,41.805],[8.722,41.782],[8.709,41.764],[8.668,41.755],[8.689,41.742],[8.696,41.729],[8.719,41.731],[8.76,41.743],[8.785,41.742],[8.776,41.722],[8.789,41.713],[8.836,41.709],[8.899,41.695],[8.911,41.684],[8.886,41.671],[8.873,41.651],[8.819,41.633],[8.802,41.639],[8.778,41.592],[8.796,41.581],[8.792,41.561],[8.853,41.544],[8.848,41.526],[8.874,41.523],[8.884,41.511],[8.907,41.507],[8.936,41.489],[8.951,41.492],[9.001,41.483],[9.018,41.469],[9.039,41.462],[9.067,41.462],[9.105,41.446],[9.107,41.429],[9.096,41.404],[9.122,41.395],[9.169,41.386],[9.194,41.369],[9.223,41.373],[9.247,41.413],[9.222,41.411],[9.223,41.427],[9.211,41.441],[9.271,41.469],[9.276,41.499],[9.265,41.531],[9.282,41.533],[9.3,41.553],[9.341,41.569],[9.354,41.595],[9.345,41.604],[9.292,41.592],[9.279,41.598],[9.294,41.618],[9.318,41.627],[9.347,41.62],[9.345,41.64],[9.373,41.645],[9.381,41.693],[9.402,41.706],[9.403,41.78],[9.394,41.848],[9.396,41.86],[9.403,41.917],[9.403,41.953],[9.492,42.048],[9.519,42.085],[9.553,42.113],[9.56,42.147],[9.552,42.17],[9.56,42.295],[9.555,42.314],[9.537,42.353],[9.532,42.374],[9.535,42.408],[9.546,42.435],[9.533,42.456],[9.53,42.486],[9.532,42.544],[9.528,42.564],[9.485,42.574],[9.457,42.606],[9.457,42.634],[9.45,42.654],[9.45,42.709],[9.483,42.802],[9.484,42.832],[9.466,42.924],[9.47,42.942],[9.454,42.964],[9.464,42.99],[9.436,43.004],[9.422,43.017],[9.404,43.012],[9.363,43.012],[9.342,42.991],[9.35,42.957],[9.36,42.949],[9.36,42.929],[9.33,42.904],[9.326,42.885],[9.333,42.867],[9.306,42.839],[9.335,42.808],[9.341,42.79],[9.333,42.771],[9.343,42.749],[9.328,42.72],[9.292,42.675],[9.271,42.702],[9.237,42.723],[9.185,42.733],[9.141,42.735],[9.107,42.726],[9.053,42.682],[9.05,42.662],[9.018,42.65],[8.907,42.632],[8.843,42.608],[8.813,42.6],[8.799,42.572],[8.771,42.558],[8.74,42.572],[8.716,42.562],[8.711,42.54],[8.717,42.531],[8.68,42.521],[8.667,42.51],[8.66,42.477],[8.677,42.472],[8.661,42.452],[8.66,42.43],[8.651,42.423],[8.619,42.42],[8.604,42.4],[8.57,42.382]]]}},{"type":"Feature","properties":{"id":"fr-cvl"},"geometry":{"type":"Polygon","coordinates":[[[3.03,46.791],[3.034,46.812],[3.073,46.87],[3.054,46.913],[3.076,46.974],[3.068,47.046],[3.032,47.076],[3.033,47.122],[3.013,47.174],[2.99,47.216],[2.972,47.267],[2.945,47.282],[2.919,47.305],[2.893,47.316],[2.875,47.337],[2.885,47.358],[2.909,47.384],[2.925,47.412],[2.93,47.453],[2.908,47.474],[2.875,47.521],[2.859,47.544],[2.91,47.562],[2.948,47.563],[2.969,47.568],[2.961,47.583],[2.931,47.609],[2.925,47.627],[2.934,47.649],[2.915,47.677],[2.867,47.708],[2.837,47.716],[2.835,47.749],[2.86,47.762],[2.918,47.765],[2.983,47.788],[3,47.801],[2.999,47.829],[3.012,47.847],[2.996,47.875],[2.992,47.9],[3.021,47.911],[3.045,47.93],[3.085,47.949],[3.118,48.001],[3.112,48.026],[3.092,48.044],[3.061,48.061],[3.045,48.076],[3.027,48.125],[3.008,48.142],[2.957,48.154],[2.926,48.156],[2.825,48.131],[2.795,48.133],[2.803,48.151],[2.788,48.16],[2.746,48.154],[2.719,48.134],[2.685,48.123],[2.548,48.13],[2.496,48.122],[2.467,48.124],[2.451,48.134],[2.464,48.156],[2.498,48.153],[2.509,48.163],[2.5,48.181],[2.514,48.207],[2.493,48.225],[2.437,48.25],[2.42,48.292],[2.391,48.314],[2.36,48.31],[2.316,48.328],[2.282,48.311],[2.256,48.306],[2.208,48.339],[2.191,48.335],[2.168,48.31],[2.134,48.299],[1.988,48.277],[1.972,48.295],[2,48.32],[1.968,48.347],[1.958,48.383],[1.923,48.413],[1.919,48.444],[1.911,48.449],[1.875,48.444],[1.801,48.468],[1.774,48.486],[1.764,48.501],[1.764,48.536],[1.748,48.562],[1.718,48.575],[1.705,48.589],[1.698,48.612],[1.635,48.643],[1.611,48.664],[1.603,48.681],[1.579,48.693],[1.575,48.704],[1.604,48.737],[1.605,48.751],[1.577,48.762],[1.566,48.787],[1.575,48.823],[1.57,48.845],[1.547,48.868],[1.493,48.94],[1.453,48.923],[1.445,48.91],[1.454,48.888],[1.451,48.871],[1.436,48.859],[1.395,48.844],[1.372,48.831],[1.355,48.811],[1.344,48.788],[1.324,48.775],[1.258,48.752],[1.219,48.758],[1.184,48.756],[1.154,48.76],[1.126,48.776],[1.105,48.774],[1.097,48.752],[1.039,48.748],[1.009,48.721],[0.968,48.717],[0.873,48.699],[0.849,48.688],[0.816,48.665],[0.823,48.621],[0.85,48.583],[0.893,48.562],[0.945,48.523],[0.953,48.509],[0.947,48.479],[0.953,48.464],[0.98,48.433],[0.945,48.388],[0.895,48.359],[0.827,48.34],[0.789,48.335],[0.779,48.305],[0.798,48.29],[0.797,48.253],[0.827,48.209],[0.798,48.186],[0.847,48.161],[0.907,48.153],[0.913,48.141],[0.832,48.103],[0.833,48.094],[0.852,48.081],[0.843,48.071],[0.813,48.069],[0.797,48.054],[0.815,48.029],[0.84,48.027],[0.843,48.011],[0.835,47.99],[0.841,47.955],[0.828,47.936],[0.78,47.907],[0.771,47.879],[0.77,47.842],[0.745,47.788],[0.721,47.771],[0.692,47.758],[0.636,47.739],[0.613,47.723],[0.602,47.701],[0.61,47.689],[0.608,47.671],[0.571,47.665],[0.518,47.646],[0.478,47.64],[0.451,47.622],[0.431,47.621],[0.408,47.631],[0.385,47.624],[0.39,47.586],[0.371,47.58],[0.314,47.592],[0.242,47.603],[0.218,47.561],[0.215,47.535],[0.222,47.502],[0.19,47.454],[0.172,47.405],[0.177,47.377],[0.15,47.346],[0.122,47.32],[0.099,47.287],[0.082,47.23],[0.067,47.154],[0.092,47.122],[0.14,47.121],[0.14,47.103],[0.16,47.099],[0.192,47.102],[0.197,47.087],[0.191,47.066],[0.2,47.056],[0.249,47.064],[0.265,47.06],[0.277,47.045],[0.307,47.043],[0.312,47.032],[0.304,47],[0.308,46.951],[0.327,46.939],[0.345,46.936],[0.389,46.939],[0.434,46.933],[0.484,46.951],[0.563,46.953],[0.584,46.965],[0.572,46.983],[0.584,47.001],[0.672,46.966],[0.693,46.943],[0.713,46.9],[0.831,46.779],[0.881,46.75],[0.895,46.739],[0.914,46.711],[0.917,46.69],[0.908,46.671],[0.907,46.644],[0.916,46.615],[0.96,46.581],[1.02,46.56],[1.027,46.538],[1.039,46.534],[1.101,46.534],[1.129,46.525],[1.149,46.5],[1.142,46.465],[1.183,46.441],[1.195,46.428],[1.177,46.387],[1.221,46.369],[1.247,46.368],[1.305,46.375],[1.321,46.392],[1.354,46.391],[1.37,46.372],[1.414,46.351],[1.446,46.365],[1.511,46.412],[1.526,46.414],[1.562,46.407],[1.588,46.41],[1.602,46.402],[1.612,46.384],[1.641,46.383],[1.672,46.401],[1.725,46.396],[1.745,46.403],[1.751,46.435],[1.762,46.45],[1.78,46.451],[1.809,46.427],[1.831,46.42],[1.861,46.435],[1.882,46.438],[1.971,46.436],[2.012,46.425],[2.068,46.425],[2.102,46.416],[2.139,46.421],[2.155,46.424],[2.254,46.42],[2.292,46.468],[2.315,46.477],[2.34,46.501],[2.4,46.522],[2.455,46.525],[2.483,46.53],[2.53,46.532],[2.613,46.549],[2.618,46.566],[2.586,46.601],[2.591,46.634],[2.577,46.656],[2.62,46.661],[2.628,46.689],[2.653,46.69],[2.7,46.717],[2.716,46.731],[2.773,46.713],[2.806,46.731],[2.838,46.726],[2.868,46.754],[2.931,46.783],[2.976,46.793],[3.03,46.791]]]}},{"type":"Feature","properties":{"id":"fr-ges"},"geometry":{"type":"Polygon","coordinates":[[[3.478,48.85],[3.475,48.829],[3.464,48.817],[3.421,48.816],[3.411,48.804],[3.426,48.79],[3.406,48.778],[3.395,48.76],[3.42,48.75],[3.451,48.724],[3.463,48.686],[3.455,48.662],[3.467,48.639],[3.508,48.642],[3.538,48.613],[3.494,48.588],[3.476,48.57],[3.461,48.54],[3.451,48.533],[3.411,48.528],[3.404,48.519],[3.42,48.502],[3.389,48.468],[3.4,48.453],[3.392,48.421],[3.395,48.412],[3.413,48.402],[3.421,48.37],[3.462,48.368],[3.493,48.356],[3.523,48.339],[3.588,48.281],[3.607,48.257],[3.611,48.211],[3.587,48.194],[3.582,48.181],[3.618,48.169],[3.649,48.151],[3.68,48.142],[3.698,48.146],[3.717,48.162],[3.741,48.151],[3.752,48.128],[3.783,48.104],[3.854,48.022],[3.859,48.01],[3.836,48.004],[3.839,47.99],[3.859,47.983],[3.898,47.986],[3.906,47.976],[3.909,47.939],[3.952,47.928],[3.991,47.931],[4.029,47.922],[4.068,47.938],[4.096,47.932],[4.136,47.935],[4.152,47.951],[4.175,47.953],[4.203,47.939],[4.211,47.966],[4.224,47.968],[4.255,47.935],[4.288,47.924],[4.326,47.946],[4.542,47.965],[4.56,47.974],[4.563,47.998],[4.583,48.011],[4.61,48.015],[4.643,48.009],[4.67,48.011],[4.699,48.022],[4.732,48.006],[4.793,47.997],[4.807,47.985],[4.801,47.966],[4.847,47.954],[4.861,47.944],[4.844,47.909],[4.864,47.896],[4.895,47.911],[4.946,47.866],[4.968,47.842],[4.986,47.814],[4.978,47.791],[4.95,47.789],[4.932,47.773],[4.955,47.751],[4.96,47.715],[4.971,47.693],[4.991,47.686],[5.022,47.705],[5.034,47.704],[5.08,47.66],[5.109,47.648],[5.138,47.651],[5.168,47.675],[5.186,47.672],[5.194,47.654],[5.222,47.636],[5.267,47.615],[5.276,47.591],[5.294,47.59],[5.322,47.605],[5.339,47.607],[5.359,47.593],[5.375,47.608],[5.407,47.659],[5.421,47.671],[5.501,47.682],[5.555,47.66],[5.587,47.658],[5.683,47.681],[5.701,47.693],[5.701,47.733],[5.71,47.764],[5.7,47.792],[5.716,47.813],[5.821,47.863],[5.861,47.901],[5.892,47.909],[5.892,47.933],[5.926,47.948],[5.943,47.971],[5.967,47.975],[5.965,47.95],[5.982,47.944],[6.034,47.973],[6.071,48.004],[6.099,48.009],[6.147,48.002],[6.183,47.977],[6.182,47.958],[6.196,47.948],[6.244,47.932],[6.283,47.935],[6.322,47.95],[6.373,47.953],[6.412,47.942],[6.499,47.905],[6.553,47.901],[6.577,47.908],[6.614,47.941],[6.637,47.935],[6.675,47.903],[6.697,47.89],[6.741,47.876],[6.762,47.862],[6.836,47.824],[6.869,47.819],[6.87,47.802],[6.883,47.791],[7.024,47.736],[7.05,47.716],[7.059,47.68],[7.053,47.653],[7.027,47.624],[7.023,47.606],[7.037,47.596],[7.08,47.591],[7.134,47.55],[7.149,47.532],[7.151,47.508],[7.142,47.488],[7.181,47.488],[7.163,47.46],[7.168,47.444],[7.245,47.418],[7.309,47.433],[7.379,47.431],[7.406,47.438],[7.426,47.456],[7.428,47.471],[7.414,47.484],[7.426,47.493],[7.467,47.482],[7.483,47.491],[7.477,47.515],[7.501,47.517],[7.502,47.533],[7.483,47.542],[7.526,47.566],[7.586,47.585],[7.59,47.608],[7.573,47.622],[7.55,47.652],[7.522,47.67],[7.512,47.707],[7.538,47.732],[7.538,47.748],[7.526,47.783],[7.543,47.829],[7.562,47.839],[7.558,47.879],[7.581,47.911],[7.585,47.94],[7.621,47.971],[7.619,48.003],[7.576,48.054],[7.573,48.095],[7.582,48.121],[7.605,48.153],[7.613,48.179],[7.677,48.238],[7.693,48.27],[7.702,48.311],[7.737,48.327],[7.752,48.355],[7.74,48.381],[7.738,48.407],[7.751,48.444],[7.769,48.47],[7.776,48.498],[7.813,48.519],[7.802,48.548],[7.802,48.582],[7.81,48.615],[7.852,48.659],[7.881,48.668],[7.923,48.698],[7.948,48.712],[7.964,48.729],[7.97,48.757],[8.01,48.76],[8.027,48.78],[8.084,48.804],[8.103,48.821],[8.148,48.904],[8.179,48.943],[8.2,48.959],[8.189,48.966],[8.09,48.979],[7.932,49.035],[7.857,49.032],[7.774,49.048],[7.727,49.036],[7.685,49.043],[7.645,49.036],[7.626,49.043],[7.609,49.062],[7.586,49.07],[7.543,49.075],[7.521,49.084],[7.485,49.119],[7.476,49.152],[7.415,49.158],[7.391,49.17],[7.351,49.159],[7.326,49.132],[7.297,49.128],[7.268,49.106],[7.241,49.114],[7.155,49.114],[7.124,49.123],[7.085,49.142],[7.071,49.136],[7.073,49.12],[7.043,49.108],[7.021,49.119],[7.009,49.146],[7.009,49.182],[6.988,49.182],[6.925,49.206],[6.885,49.205],[6.843,49.211],[6.828,49.196],[6.839,49.163],[6.809,49.146],[6.77,49.155],[6.726,49.156],[6.701,49.173],[6.709,49.198],[6.703,49.214],[6.678,49.211],[6.664,49.244],[6.639,49.257],[6.64,49.271],[6.573,49.313],[6.55,49.338],[6.573,49.348],[6.574,49.362],[6.526,49.395],[6.512,49.425],[6.495,49.436],[6.403,49.465],[6.365,49.456],[6.325,49.457],[6.249,49.49],[6.194,49.499],[6.136,49.495],[6.114,49.484],[6.1,49.465],[6.063,49.448],[5.978,49.445],[5.961,49.441],[5.947,49.47],[5.928,49.482],[5.865,49.492],[5.822,49.511],[5.791,49.538],[5.757,49.548],[5.736,49.546],[5.71,49.531],[5.645,49.544],[5.62,49.536],[5.602,49.514],[5.579,49.514],[5.548,49.523],[5.478,49.495],[5.45,49.508],[5.45,49.546],[5.402,49.602],[5.391,49.609],[5.335,49.626],[5.322,49.613],[5.298,49.613],[5.294,49.641],[5.306,49.648],[5.299,49.662],[5.259,49.691],[5.192,49.683],[5.169,49.687],[5.136,49.705],[5.082,49.753],[5.026,49.767],[4.989,49.791],[4.95,49.796],[4.907,49.786],[4.858,49.787],[4.849,49.794],[4.849,49.832],[4.837,49.848],[4.859,49.892],[4.86,49.913],[4.845,49.932],[4.797,49.944],[4.784,49.958],[4.788,49.974],[4.827,50.036],[4.827,50.064],[4.846,50.091],[4.863,50.084],[4.872,50.14],[4.863,50.148],[4.831,50.143],[4.816,50.161],[4.789,50.153],[4.682,50.084],[4.673,50.066],[4.681,50.048],[4.673,50.016],[4.657,49.989],[4.604,49.98],[4.465,49.936],[4.435,49.932],[4.278,49.96],[4.216,49.954],[4.217,49.917],[4.247,49.881],[4.248,49.855],[4.217,49.814],[4.21,49.778],[4.235,49.75],[4.231,49.727],[4.151,49.68],[4.118,49.649],[4.094,49.639],[4.074,49.639],[4.046,49.626],[4.073,49.567],[4.066,49.55],[4.072,49.523],[4.048,49.505],[4.043,49.487],[4.072,49.448],[4.044,49.44],[4.034,49.427],[4.055,49.407],[4.054,49.382],[4.032,49.36],[4.003,49.37],[3.953,49.364],[3.925,49.377],[3.878,49.381],[3.859,49.371],[3.861,49.352],[3.85,49.346],[3.788,49.34],[3.703,49.325],[3.65,49.303],[3.667,49.266],[3.671,49.223],[3.68,49.206],[3.705,49.202],[3.742,49.179],[3.742,49.161],[3.703,49.146],[3.66,49.151],[3.636,49.147],[3.623,49.126],[3.626,49.09],[3.609,49.071],[3.586,49.06],[3.587,49.037],[3.604,49.032],[3.657,49.033],[3.671,49.024],[3.666,49.009],[3.631,48.988],[3.62,48.974],[3.591,48.959],[3.574,48.933],[3.512,48.893],[3.478,48.85]]]}},{"type":"Feature","properties":{"id":"fr-gf"},"geometry":{"type":"Polygon","coordinates":[[[-54.211,3.127],[-54.188,3.131],[-54.177,3.117],[-54.177,3.073],[-54.191,3.059],[-54.177,3.049],[-54.169,3.011],[-54.185,2.998],[-54.18,2.984],[-54.163,2.97],[-54.17,2.925],[-54.187,2.899],[-54.19,2.871],[-54.17,2.853],[-54.189,2.838],[-54.205,2.792],[-54.213,2.776],[-54.285,2.678],[-54.32,2.607],[-54.359,2.508],[-54.376,2.484],[-54.423,2.436],[-54.435,2.431],[-54.473,2.429],[-54.493,2.417],[-54.52,2.349],[-54.532,2.34],[-54.551,2.338],[-54.585,2.348],[-54.599,2.346],[-54.615,2.326],[-54.588,2.324],[-54.565,2.315],[-54.526,2.283],[-54.549,2.279],[-54.546,2.269],[-54.511,2.243],[-54.493,2.223],[-54.477,2.214],[-54.434,2.209],[-54.403,2.197],[-54.374,2.197],[-54.335,2.164],[-54.314,2.155],[-54.264,2.148],[-54.21,2.162],[-54.189,2.161],[-54.157,2.122],[-54.135,2.111],[-54.111,2.114],[-54.098,2.128],[-54.084,2.169],[-54.069,2.188],[-54.043,2.188],[-54.021,2.181],[-54.006,2.194],[-53.964,2.209],[-53.946,2.222],[-53.939,2.24],[-53.938,2.265],[-53.901,2.265],[-53.888,2.274],[-53.867,2.305],[-53.831,2.31],[-53.801,2.354],[-53.765,2.369],[-53.748,2.365],[-53.737,2.349],[-53.748,2.319],[-53.742,2.309],[-53.713,2.307],[-53.646,2.278],[-53.579,2.27],[-53.547,2.252],[-53.532,2.247],[-53.512,2.252],[-53.473,2.254],[-53.462,2.259],[-53.425,2.286],[-53.39,2.299],[-53.379,2.308],[-53.344,2.35],[-53.323,2.339],[-53.297,2.304],[-53.234,2.251],[-53.235,2.241],[-53.254,2.234],[-53.272,2.22],[-53.28,2.205],[-53.269,2.196],[-53.253,2.197],[-53.132,2.219],[-53.113,2.219],[-53.092,2.212],[-53.061,2.186],[-53.019,2.182],[-52.981,2.173],[-52.96,2.175],[-52.934,2.196],[-52.923,2.194],[-52.907,2.205],[-52.88,2.26],[-52.863,2.274],[-52.82,2.292],[-52.708,2.359],[-52.677,2.39],[-52.656,2.431],[-52.619,2.463],[-52.59,2.505],[-52.569,2.55],[-52.553,2.573],[-52.556,2.598],[-52.572,2.623],[-52.572,2.639],[-52.551,2.646],[-52.54,2.659],[-52.533,2.69],[-52.455,2.865],[-52.442,2.881],[-52.409,2.897],[-52.422,2.927],[-52.417,2.943],[-52.353,3.058],[-52.352,3.066],[-52.361,3.109],[-52.362,3.132],[-52.355,3.152],[-52.319,3.178],[-52.299,3.225],[-52.279,3.242],[-52.251,3.243],[-52.228,3.26],[-52.093,3.481],[-52.094,3.507],[-52.074,3.517],[-52.054,3.557],[-52.013,3.619],[-52.003,3.642],[-51.995,3.685],[-51.988,3.705],[-51.973,3.722],[-51.949,3.725],[-51.938,3.743],[-51.941,3.764],[-51.931,3.781],[-51.9,3.797],[-51.835,3.868],[-51.819,3.891],[-51.806,3.918],[-51.798,3.95],[-51.783,3.981],[-51.758,4.003],[-51.683,4.039],[-51.672,4.061],[-51.652,4.122],[-51.649,4.152],[-51.651,4.19],[-51.657,4.217],[-51.669,4.242],[-51.708,4.3],[-51.717,4.334],[-51.712,4.354],[-51.694,4.371],[-51.698,4.393],[-51.731,4.399],[-51.744,4.429],[-51.731,4.457],[-51.748,4.457],[-51.758,4.478],[-51.765,4.529],[-51.774,4.552],[-51.801,4.59],[-51.793,4.601],[-51.802,4.613],[-51.848,4.656],[-51.865,4.665],[-51.896,4.665],[-51.909,4.656],[-51.925,4.626],[-51.931,4.59],[-51.923,4.447],[-51.925,4.429],[-51.937,4.392],[-51.951,4.371],[-51.986,4.353],[-52.046,4.334],[-52.02,4.367],[-51.988,4.386],[-51.962,4.408],[-51.951,4.454],[-51.956,4.494],[-51.98,4.571],[-51.985,4.611],[-51.996,4.652],[-52.025,4.694],[-52.06,4.73],[-52.094,4.758],[-52.159,4.796],[-52.176,4.829],[-52.193,4.85],[-52.213,4.867],[-52.232,4.875],[-52.243,4.856],[-52.286,4.83],[-52.3,4.813],[-52.314,4.762],[-52.34,4.725],[-52.343,4.761],[-52.313,4.811],[-52.277,4.859],[-52.259,4.892],[-52.264,4.913],[-52.279,4.931],[-52.3,4.945],[-52.324,4.951],[-52.345,4.943],[-52.371,4.907],[-52.389,4.896],[-52.38,4.937],[-52.402,4.974],[-52.48,5.04],[-52.505,5.054],[-52.522,5.053],[-52.526,5.071],[-52.541,5.079],[-52.681,5.21],[-52.753,5.267],[-52.783,5.317],[-52.829,5.342],[-52.897,5.406],[-52.965,5.444],[-52.995,5.458],[-53.006,5.451],[-53.046,5.46],[-53.083,5.472],[-53.13,5.505],[-53.178,5.524],[-53.221,5.536],[-53.252,5.549],[-53.265,5.546],[-53.225,5.517],[-53.208,5.514],[-53.208,5.502],[-53.23,5.495],[-53.248,5.51],[-53.264,5.53],[-53.277,5.538],[-53.303,5.535],[-53.408,5.562],[-53.448,5.561],[-53.495,5.572],[-53.517,5.581],[-53.547,5.6],[-53.583,5.618],[-53.696,5.663],[-53.732,5.684],[-53.777,5.714],[-53.81,5.731],[-53.816,5.716],[-53.859,5.734],[-53.934,5.745],[-53.944,5.745],[-53.992,5.661],[-54.007,5.558],[-54.013,5.541],[-54.033,5.505],[-54.061,5.437],[-54.08,5.408],[-54.107,5.381],[-54.138,5.36],[-54.171,5.348],[-54.19,5.326],[-54.269,5.269],[-54.311,5.226],[-54.332,5.196],[-54.344,5.156],[-54.365,5.139],[-54.376,5.115],[-54.43,5.053],[-54.449,5.024],[-54.458,4.991],[-54.449,4.951],[-54.451,4.937],[-54.482,4.913],[-54.487,4.903],[-54.479,4.879],[-54.479,4.755],[-54.475,4.742],[-54.447,4.728],[-54.435,4.709],[-54.438,4.649],[-54.425,4.616],[-54.423,4.563],[-54.428,4.546],[-54.448,4.51],[-54.451,4.484],[-54.433,4.376],[-54.403,4.313],[-54.394,4.27],[-54.393,4.244],[-54.411,4.209],[-54.407,4.192],[-54.382,4.17],[-54.349,4.161],[-54.339,4.152],[-54.338,4.117],[-54.355,4.067],[-54.354,4.042],[-54.344,4.025],[-54.31,3.994],[-54.293,3.95],[-54.266,3.923],[-54.241,3.876],[-54.222,3.866],[-54.187,3.815],[-54.17,3.806],[-54.136,3.796],[-54.126,3.789],[-54.094,3.747],[-54.074,3.676],[-54.051,3.641],[-54.018,3.641],[-53.995,3.624],[-53.989,3.611],[-54.006,3.531],[-54.003,3.455],[-54.019,3.415],[-54.056,3.378],[-54.069,3.327],[-54.08,3.31],[-54.114,3.285],[-54.14,3.245],[-54.177,3.201],[-54.19,3.178],[-54.211,3.127]]]}},{"type":"Feature","properties":{"id":"fr-gp"},"geometry":{"type":"MultiPolygon","coordinates":[[[[-61.194,15.932],[-61.197,15.945],[-61.212,15.959],[-61.224,15.988],[-61.244,16.004],[-61.268,16.009],[-61.29,15.998],[-61.315,15.967],[-61.318,15.953],[-61.332,15.932],[-61.322,15.919],[-61.305,15.878],[-61.275,15.874],[-61.241,15.882],[-61.216,15.894],[-61.198,15.911],[-61.194,15.932]]],[[[-60.989,16.346],[-61.015,16.354],[-61.039,16.344],[-61.079,16.312],[-61.069,16.302],[-61.04,16.314],[-60.989,16.346]]],[[[-61.552,16.286],[-61.571,16.29],[-61.585,16.271],[-61.616,16.312],[-61.65,16.329],[-61.722,16.351],[-61.738,16.365],[-61.756,16.361],[-61.771,16.349],[-61.788,16.32],[-61.797,16.312],[-61.794,16.299],[-61.797,16.251],[-61.779,16.217],[-61.784,16.202],[-61.769,16.166],[-61.769,16.088],[-61.756,16.052],[-61.748,16.047],[-61.733,16.014],[-61.702,15.99],[-61.702,15.97],[-61.695,15.949],[-61.643,15.97],[-61.597,15.997],[-61.566,16.034],[-61.558,16.086],[-61.565,16.141],[-61.577,16.176],[-61.579,16.222],[-61.573,16.233],[-61.548,16.238],[-61.555,16.258],[-61.552,16.286]]],[[[-61.544,16.285],[-61.548,16.258],[-61.534,16.233],[-61.503,16.213],[-61.462,16.202],[-61.444,16.205],[-61.411,16.219],[-61.234,16.258],[-61.175,16.244],[-61.169,16.259],[-61.188,16.264],[-61.29,16.333],[-61.339,16.333],[-61.377,16.36],[-61.394,16.389],[-61.393,16.425],[-61.398,16.452],[-61.409,16.472],[-61.427,16.489],[-61.459,16.512],[-61.506,16.487],[-61.534,16.449],[-61.524,16.395],[-61.496,16.381],[-61.5,16.353],[-61.518,16.349],[-61.528,16.338],[-61.544,16.285]]],[[[-61.625,15.871],[-61.638,15.853],[-61.628,15.847],[-61.616,15.86],[-61.625,15.871]]]]}},{"type":"Feature","properties":{"id":"fr-hdf"},"geometry":{"type":"Polygon","coordinates":[[[2.063,51.014],[1.973,51.007],[1.939,50.994],[1.921,50.997],[1.73,50.944],[1.699,50.926],[1.653,50.889],[1.605,50.881],[1.581,50.869],[1.583,50.85],[1.606,50.79],[1.568,50.717],[1.563,50.678],[1.574,50.636],[1.578,50.589],[1.583,50.575],[1.61,50.548],[1.579,50.533],[1.574,50.492],[1.573,50.445],[1.555,50.405],[1.61,50.377],[1.595,50.373],[1.572,50.376],[1.552,50.349],[1.543,50.31],[1.542,50.278],[1.551,50.27],[1.594,50.256],[1.61,50.232],[1.645,50.212],[1.654,50.187],[1.555,50.218],[1.521,50.215],[1.487,50.185],[1.465,50.132],[1.391,50.075],[1.373,50.066],[1.516,50.001],[1.681,49.888],[1.695,49.874],[1.71,49.835],[1.741,49.798],[1.755,49.766],[1.728,49.753],[1.685,49.71],[1.69,49.688],[1.721,49.694],[1.735,49.685],[1.719,49.664],[1.681,49.645],[1.694,49.627],[1.697,49.577],[1.705,49.555],[1.709,49.521],[1.72,49.503],[1.752,49.509],[1.769,49.499],[1.762,49.478],[1.737,49.465],[1.717,49.424],[1.718,49.411],[1.721,49.382],[1.75,49.311],[1.783,49.251],[1.768,49.246],[1.726,49.27],[1.705,49.266],[1.691,49.25],[1.698,49.231],[1.713,49.222],[1.719,49.204],[1.737,49.189],[1.792,49.186],[1.886,49.168],[1.92,49.174],[1.968,49.175],[2.002,49.182],[2.045,49.204],[2.081,49.211],[2.135,49.185],[2.174,49.182],[2.238,49.163],[2.267,49.162],[2.301,49.176],[2.335,49.176],[2.509,49.113],[2.536,49.118],[2.583,49.085],[2.626,49.098],[2.651,49.094],[2.681,49.076],[2.712,49.082],[2.746,49.068],[2.763,49.07],[2.785,49.085],[2.804,49.086],[2.859,49.075],[2.938,49.085],[2.954,49.089],[2.979,49.078],[3.016,49.092],[3.045,49.092],[3.08,49.106],[3.141,49.093],[3.159,49.078],[3.176,49.046],[3.166,49.024],[3.176,49.004],[3.32,48.92],[3.356,48.925],[3.367,48.915],[3.375,48.88],[3.383,48.871],[3.419,48.853],[3.45,48.847],[3.478,48.85],[3.512,48.893],[3.574,48.933],[3.591,48.959],[3.62,48.974],[3.631,48.988],[3.666,49.009],[3.671,49.024],[3.657,49.033],[3.604,49.032],[3.587,49.037],[3.586,49.06],[3.609,49.071],[3.626,49.09],[3.623,49.126],[3.636,49.147],[3.66,49.151],[3.703,49.146],[3.742,49.161],[3.742,49.179],[3.705,49.202],[3.68,49.206],[3.671,49.223],[3.667,49.266],[3.65,49.303],[3.703,49.325],[3.788,49.34],[3.85,49.346],[3.861,49.352],[3.859,49.371],[3.878,49.381],[3.925,49.377],[3.953,49.364],[4.003,49.37],[4.032,49.36],[4.054,49.382],[4.055,49.407],[4.034,49.427],[4.044,49.44],[4.072,49.448],[4.043,49.487],[4.048,49.505],[4.072,49.523],[4.066,49.55],[4.073,49.567],[4.046,49.626],[4.074,49.639],[4.094,49.639],[4.118,49.649],[4.151,49.68],[4.231,49.727],[4.235,49.75],[4.21,49.778],[4.217,49.814],[4.248,49.855],[4.247,49.881],[4.217,49.917],[4.216,49.954],[4.188,49.956],[4.132,49.975],[4.132,50.018],[4.145,50.031],[4.186,50.052],[4.21,50.06],[4.181,50.127],[4.14,50.124],[4.126,50.128],[4.128,50.146],[4.157,50.213],[4.201,50.242],[4.204,50.252],[4.185,50.265],[4.15,50.27],[4.144,50.252],[4.125,50.257],[4.098,50.295],[4.056,50.315],[4.023,50.338],[3.982,50.343],[3.919,50.325],[3.896,50.325],[3.84,50.345],[3.799,50.348],[3.755,50.346],[3.733,50.337],[3.697,50.298],[3.662,50.319],[3.653,50.36],[3.653,50.407],[3.644,50.446],[3.608,50.477],[3.564,50.487],[3.499,50.487],[3.491,50.517],[3.463,50.519],[3.429,50.502],[3.385,50.492],[3.344,50.493],[3.3,50.507],[3.271,50.527],[3.264,50.57],[3.238,50.626],[3.23,50.655],[3.244,50.672],[3.224,50.705],[3.197,50.709],[3.146,50.769],[3.103,50.784],[2.971,50.758],[2.93,50.736],[2.9,50.703],[2.871,50.699],[2.787,50.723],[2.768,50.733],[2.744,50.766],[2.707,50.789],[2.692,50.809],[2.62,50.816],[2.588,50.85],[2.597,50.868],[2.577,50.912],[2.612,50.941],[2.608,50.961],[2.557,51.001],[2.547,51.02],[2.537,51.065],[2.522,51.088],[2.466,51.069],[2.384,51.055],[2.324,51.06],[2.134,51.02],[2.063,51.014]]]}},{"type":"Feature","properties":{"id":"fr-idf"},"geometry":{"type":"Polygon","coordinates":[[[1.698,49.231],[1.668,49.191],[1.62,49.083],[1.581,49.069],[1.454,49.049],[1.443,49.036],[1.453,49.022],[1.451,48.992],[1.456,48.981],[1.488,48.973],[1.493,48.94],[1.547,48.868],[1.57,48.845],[1.575,48.823],[1.566,48.787],[1.577,48.762],[1.605,48.751],[1.604,48.737],[1.575,48.704],[1.579,48.693],[1.603,48.681],[1.611,48.664],[1.635,48.643],[1.698,48.612],[1.705,48.589],[1.718,48.575],[1.748,48.562],[1.764,48.536],[1.764,48.501],[1.774,48.486],[1.801,48.468],[1.875,48.444],[1.911,48.449],[1.919,48.444],[1.923,48.413],[1.958,48.383],[1.968,48.347],[2,48.32],[1.972,48.295],[1.988,48.277],[2.134,48.299],[2.168,48.31],[2.191,48.335],[2.208,48.339],[2.256,48.306],[2.282,48.311],[2.316,48.328],[2.36,48.31],[2.391,48.314],[2.42,48.292],[2.437,48.25],[2.493,48.225],[2.514,48.207],[2.5,48.181],[2.509,48.163],[2.498,48.153],[2.464,48.156],[2.451,48.134],[2.467,48.124],[2.496,48.122],[2.548,48.13],[2.685,48.123],[2.719,48.134],[2.746,48.154],[2.788,48.16],[2.803,48.151],[2.795,48.133],[2.825,48.131],[2.926,48.156],[2.937,48.194],[2.947,48.205],[3.002,48.229],[3.03,48.268],[3.016,48.287],[3.015,48.321],[3.032,48.354],[3.042,48.362],[3.092,48.361],[3.131,48.372],[3.206,48.366],[3.308,48.378],[3.355,48.374],[3.37,48.393],[3.395,48.412],[3.392,48.421],[3.4,48.453],[3.389,48.468],[3.42,48.502],[3.404,48.519],[3.411,48.528],[3.451,48.533],[3.461,48.54],[3.476,48.57],[3.494,48.588],[3.538,48.613],[3.508,48.642],[3.467,48.639],[3.455,48.662],[3.463,48.686],[3.451,48.724],[3.42,48.75],[3.395,48.76],[3.406,48.778],[3.426,48.79],[3.411,48.804],[3.421,48.816],[3.464,48.817],[3.475,48.829],[3.478,48.85],[3.45,48.847],[3.419,48.853],[3.383,48.871],[3.375,48.88],[3.367,48.915],[3.356,48.925],[3.32,48.92],[3.176,49.004],[3.166,49.024],[3.176,49.046],[3.159,49.078],[3.141,49.093],[3.08,49.106],[3.045,49.092],[3.016,49.092],[2.979,49.078],[2.954,49.089],[2.938,49.085],[2.859,49.075],[2.804,49.086],[2.785,49.085],[2.763,49.07],[2.746,49.068],[2.712,49.082],[2.681,49.076],[2.651,49.094],[2.626,49.098],[2.583,49.085],[2.536,49.118],[2.509,49.113],[2.335,49.176],[2.301,49.176],[2.267,49.162],[2.238,49.163],[2.174,49.182],[2.135,49.185],[2.081,49.211],[2.045,49.204],[2.002,49.182],[1.968,49.175],[1.92,49.174],[1.886,49.168],[1.792,49.186],[1.737,49.189],[1.719,49.204],[1.713,49.222],[1.698,49.231]]]}},{"type":"Feature","properties":{"id":"fr-mq"},"geometry":{"type":"Polygon","coordinates":[[[-60.81,14.462],[-60.825,14.51],[-60.838,14.517],[-60.825,14.53],[-60.845,14.571],[-60.848,14.596],[-60.865,14.602],[-60.873,14.62],[-60.893,14.631],[-60.907,14.654],[-60.894,14.66],[-60.92,14.675],[-60.935,14.688],[-60.907,14.703],[-60.919,14.712],[-60.935,14.709],[-60.934,14.75],[-60.914,14.736],[-60.893,14.757],[-60.903,14.777],[-60.927,14.771],[-60.961,14.75],[-60.979,14.785],[-60.991,14.788],[-61.002,14.811],[-61.019,14.822],[-61.058,14.839],[-61.102,14.866],[-61.136,14.877],[-61.171,14.876],[-61.211,14.854],[-61.226,14.836],[-61.229,14.822],[-61.219,14.795],[-61.191,14.766],[-61.175,14.733],[-61.182,14.713],[-61.17,14.696],[-61.16,14.667],[-61.142,14.65],[-61.106,14.626],[-61.086,14.605],[-61.044,14.605],[-61.016,14.613],[-61.014,14.596],[-60.996,14.565],[-61.003,14.551],[-61.018,14.545],[-61.033,14.55],[-61.044,14.565],[-61.079,14.545],[-61.106,14.517],[-61.092,14.508],[-61.092,14.497],[-61.07,14.467],[-61.046,14.464],[-61.006,14.476],[-60.948,14.469],[-60.92,14.473],[-60.914,14.462],[-60.898,14.461],[-60.869,14.476],[-60.859,14.462],[-60.86,14.447],[-60.881,14.438],[-60.882,14.413],[-60.871,14.408],[-60.845,14.414],[-60.835,14.428],[-60.823,14.457],[-60.81,14.462]]]}},{"type":"Feature","properties":{"id":"fr-naq"},"geometry":{"type":"MultiPolygon","coordinates":[[[[2.254,46.42],[2.155,46.424],[2.139,46.421],[2.102,46.416],[2.068,46.425],[2.012,46.425],[1.971,46.436],[1.882,46.438],[1.861,46.435],[1.831,46.42],[1.809,46.427],[1.78,46.451],[1.762,46.45],[1.751,46.435],[1.745,46.403],[1.725,46.396],[1.672,46.401],[1.641,46.383],[1.612,46.384],[1.602,46.402],[1.588,46.41],[1.562,46.407],[1.526,46.414],[1.511,46.412],[1.446,46.365],[1.414,46.351],[1.37,46.372],[1.354,46.391],[1.321,46.392],[1.305,46.375],[1.247,46.368],[1.221,46.369],[1.177,46.387],[1.195,46.428],[1.183,46.441],[1.142,46.465],[1.149,46.5],[1.129,46.525],[1.101,46.534],[1.039,46.534],[1.027,46.538],[1.02,46.56],[0.96,46.581],[0.916,46.615],[0.907,46.644],[0.908,46.671],[0.917,46.69],[0.914,46.711],[0.895,46.739],[0.881,46.75],[0.831,46.779],[0.713,46.9],[0.693,46.943],[0.672,46.966],[0.584,47.001],[0.572,46.983],[0.584,46.965],[0.563,46.953],[0.484,46.951],[0.434,46.933],[0.389,46.939],[0.345,46.936],[0.327,46.939],[0.308,46.951],[0.304,47],[0.312,47.032],[0.307,47.043],[0.277,47.045],[0.265,47.06],[0.249,47.064],[0.2,47.056],[0.191,47.066],[0.197,47.087],[0.192,47.102],[0.16,47.099],[0.14,47.103],[0.14,47.121],[0.092,47.122],[0.067,47.154],[0.014,47.161],[-0.004,47.157],[-0.037,47.128],[-0.053,47.096],[-0.092,47.086],[-0.109,47.07],[-0.118,47.057],[-0.143,47.063],[-0.159,47.091],[-0.171,47.098],[-0.212,47.096],[-0.27,47.097],[-0.376,47.088],[-0.403,47.08],[-0.473,47.066],[-0.518,47.075],[-0.555,47.061],[-0.545,47.036],[-0.549,47.025],[-0.592,47.01],[-0.632,46.992],[-0.696,46.988],[-0.752,46.991],[-0.78,46.997],[-0.838,46.99],[-0.87,46.994],[-0.909,47.012],[-0.935,47.017],[-0.946,47],[-0.909,46.982],[-0.873,46.942],[-0.846,46.932],[-0.834,46.919],[-0.821,46.873],[-0.803,46.855],[-0.746,46.83],[-0.712,46.802],[-0.726,46.779],[-0.716,46.751],[-0.689,46.721],[-0.662,46.683],[-0.648,46.632],[-0.627,46.607],[-0.616,46.548],[-0.64,46.515],[-0.624,46.461],[-0.634,46.423],[-0.624,46.403],[-0.603,46.406],[-0.569,46.387],[-0.555,46.37],[-0.565,46.357],[-0.612,46.352],[-0.642,46.329],[-0.695,46.324],[-0.757,46.301],[-0.825,46.331],[-0.867,46.334],[-0.941,46.321],[-0.973,46.329],[-0.955,46.354],[-0.97,46.362],[-1.08,46.343],[-1.097,46.335],[-1.119,46.311],[-1.111,46.303],[-1.103,46.272],[-1.111,46.259],[-1.18,46.229],[-1.191,46.216],[-1.185,46.197],[-1.204,46.184],[-1.21,46.166],[-1.2,46.159],[-1.151,46.153],[-1.152,46.144],[-1.117,46.128],[-1.129,46.116],[-1.097,46.102],[-1.084,46.057],[-1.049,46.039],[-1.06,46.016],[-1.09,46.008],[-1.097,45.985],[-1.069,45.964],[-1.09,45.951],[-1.076,45.937],[-1.073,45.904],[-1.097,45.902],[-1.152,45.868],[-1.137,45.843],[-1.125,45.808],[-1.099,45.786],[-1.01,45.735],[-1.057,45.74],[-1.081,45.753],[-1.144,45.806],[-1.164,45.807],[-1.23,45.792],[-1.23,45.78],[-1.247,45.71],[-1.229,45.705],[-1.194,45.71],[-1.149,45.679],[-1.084,45.66],[-1.03,45.623],[-0.991,45.61],[-0.984,45.587],[-0.842,45.515],[-0.795,45.477],[-0.753,45.424],[-0.72,45.361],[-0.707,45.322],[-0.669,45.131],[-0.656,45.099],[-0.638,45.073],[-0.602,45.053],[-0.559,45.043],[-0.519,45.029],[-0.516,45.011],[-0.565,45.024],[-0.573,45.014],[-0.55,44.998],[-0.539,44.977],[-0.548,44.95],[-0.539,44.909],[-0.557,44.919],[-0.561,44.939],[-0.561,44.985],[-0.578,45.005],[-0.61,45.018],[-0.648,45.045],[-0.682,45.076],[-0.72,45.146],[-0.739,45.239],[-0.766,45.326],[-0.794,45.355],[-0.915,45.45],[-0.973,45.471],[-1.04,45.507],[-1.059,45.527],[-1.056,45.565],[-1.085,45.569],[-1.1,45.554],[-1.134,45.505],[-1.14,45.49],[-1.158,45.279],[-1.199,45.121],[-1.26,44.627],[-1.245,44.663],[-1.234,44.707],[-1.165,44.779],[-1.141,44.768],[-1.065,44.717],[-1.044,44.685],[-1.045,44.669],[-1.065,44.659],[-1.1,44.655],[-1.161,44.666],[-1.187,44.665],[-1.206,44.648],[-1.231,44.584],[-1.257,44.556],[-1.247,44.505],[-1.251,44.468],[-1.254,44.442],[-1.282,44.302],[-1.346,44.019],[-1.381,43.89],[-1.405,43.832],[-1.446,43.668],[-1.47,43.612],[-1.477,43.58],[-1.514,43.539],[-1.562,43.493],[-1.566,43.482],[-1.597,43.443],[-1.638,43.424],[-1.661,43.4],[-1.75,43.389],[-1.776,43.376],[-1.794,43.386],[-1.797,43.341],[-1.768,43.331],[-1.756,43.319],[-1.747,43.291],[-1.674,43.304],[-1.645,43.292],[-1.648,43.282],[-1.639,43.256],[-1.622,43.247],[-1.588,43.252],[-1.574,43.277],[-1.559,43.284],[-1.508,43.277],[-1.466,43.261],[-1.432,43.265],[-1.404,43.243],[-1.4,43.207],[-1.411,43.167],[-1.426,43.135],[-1.488,43.082],[-1.475,43.06],[-1.457,43.045],[-1.435,43.036],[-1.383,43.029],[-1.366,43.033],[-1.358,43.047],[-1.348,43.093],[-1.331,43.107],[-1.309,43.114],[-1.311,43.069],[-1.275,43.047],[-1.217,43.039],[-1.183,43.025],[-1.15,43.006],[-1.112,43.008],[-1.08,42.993],[-1.028,42.987],[-0.981,42.957],[-0.943,42.948],[-0.864,42.943],[-0.786,42.953],[-0.76,42.947],[-0.741,42.911],[-0.746,42.894],[-0.73,42.878],[-0.7,42.876],[-0.648,42.85],[-0.609,42.811],[-0.61,42.799],[-0.583,42.796],[-0.579,42.777],[-0.561,42.774],[-0.536,42.784],[-0.534,42.808],[-0.508,42.807],[-0.454,42.789],[-0.424,42.791],[-0.4,42.801],[-0.352,42.829],[-0.335,42.825],[-0.323,42.843],[-0.305,42.831],[-0.315,42.874],[-0.316,42.901],[-0.284,42.941],[-0.284,42.966],[-0.29,42.988],[-0.282,43.003],[-0.253,43.026],[-0.238,43.033],[-0.199,43.034],[-0.185,43.046],[-0.192,43.066],[-0.191,43.092],[-0.177,43.107],[-0.139,43.125],[-0.118,43.159],[-0.081,43.173],[-0.066,43.211],[-0.035,43.236],[-0.026,43.253],[-0.037,43.277],[-0.028,43.31],[-0.015,43.322],[0.011,43.329],[0.023,43.339],[0.006,43.385],[0.009,43.422],[-0.015,43.431],[-0.034,43.414],[-0.049,43.421],[-0.052,43.441],[-0.043,43.453],[-0.016,43.459],[-0.023,43.479],[-0.047,43.522],[-0.08,43.545],[-0.09,43.565],[-0.11,43.575],[-0.203,43.589],[-0.236,43.587],[-0.252,43.616],[-0.267,43.623],[-0.251,43.649],[-0.246,43.668],[-0.255,43.681],[-0.215,43.699],[-0.195,43.739],[-0.209,43.757],[-0.208,43.788],[-0.191,43.818],[-0.184,43.842],[-0.202,43.873],[-0.224,43.891],[-0.214,43.907],[-0.167,43.931],[-0.132,43.926],[-0.1,43.928],[-0.069,43.952],[-0.024,43.971],[0.003,43.959],[0.005,43.948],[-0.009,43.924],[0.005,43.913],[0.055,43.907],[0.073,43.913],[0.082,43.931],[0.076,43.956],[0.085,43.967],[0.116,43.981],[0.157,43.969],[0.183,43.988],[0.198,44.008],[0.222,44.019],[0.287,43.998],[0.314,43.999],[0.354,44.017],[0.375,44.02],[0.447,44.046],[0.466,44.056],[0.509,44.052],[0.577,44.071],[0.593,44.073],[0.624,44.062],[0.659,44.038],[0.68,44.04],[0.742,44.067],[0.753,44.098],[0.766,44.111],[0.795,44.123],[0.804,44.142],[0.819,44.149],[0.864,44.14],[0.894,44.15],[0.891,44.164],[0.872,44.181],[0.906,44.201],[0.943,44.26],[0.945,44.279],[0.898,44.296],[0.887,44.313],[0.901,44.347],[0.901,44.367],[0.92,44.379],[0.95,44.366],[0.97,44.363],[1.051,44.368],[1.065,44.379],[1.067,44.422],[1.038,44.446],[1.021,44.48],[1.019,44.506],[1,44.527],[1.013,44.548],[1.062,44.565],[1.077,44.575],[1.12,44.604],[1.175,44.673],[1.19,44.683],[1.235,44.693],[1.258,44.707],[1.288,44.717],[1.322,44.751],[1.312,44.773],[1.326,44.802],[1.355,44.807],[1.372,44.82],[1.399,44.853],[1.427,44.87],[1.437,44.883],[1.434,44.906],[1.447,44.933],[1.425,44.984],[1.43,45],[1.459,45.015],[1.53,45.045],[1.546,45.028],[1.581,45.036],[1.61,45.029],[1.659,45.007],[1.693,44.985],[1.714,44.96],[1.766,44.935],[1.8,44.933],[1.852,44.946],[1.908,44.968],[1.926,44.97],[1.954,44.961],[1.979,44.971],[2.005,44.975],[2.059,44.975],[2.082,44.983],[2.117,44.986],[2.132,44.993],[2.13,45.011],[2.11,45.037],[2.114,45.059],[2.152,45.079],[2.168,45.095],[2.185,45.128],[2.207,45.159],[2.207,45.18],[2.195,45.194],[2.195,45.224],[2.233,45.245],[2.244,45.271],[2.298,45.293],[2.33,45.331],[2.348,45.34],[2.367,45.369],[2.369,45.385],[2.352,45.4],[2.358,45.41],[2.391,45.413],[2.441,45.392],[2.47,45.389],[2.489,45.397],[2.499,45.418],[2.519,45.479],[2.497,45.501],[2.495,45.545],[2.473,45.569],[2.465,45.585],[2.476,45.618],[2.509,45.633],[2.522,45.649],[2.525,45.698],[2.516,45.713],[2.49,45.736],[2.469,45.752],[2.444,45.757],[2.422,45.794],[2.401,45.814],[2.401,45.829],[2.454,45.864],[2.473,45.871],[2.502,45.87],[2.542,45.903],[2.568,45.946],[2.595,45.971],[2.595,46.027],[2.564,46.07],[2.56,46.091],[2.567,46.136],[2.538,46.176],[2.515,46.226],[2.474,46.271],[2.449,46.283],[2.431,46.274],[2.397,46.31],[2.349,46.318],[2.332,46.329],[2.316,46.367],[2.289,46.385],[2.254,46.42]],[[-0.097,43.328],[-0.112,43.338],[-0.112,43.369],[-0.099,43.385],[-0.071,43.381],[-0.064,43.359],[-0.074,43.337],[-0.097,43.328]],[[-0.118,43.248],[-0.135,43.258],[-0.137,43.286],[-0.114,43.305],[-0.09,43.295],[-0.081,43.272],[-0.097,43.251],[-0.118,43.248]]],[[[-1.219,45.944],[-1.23,45.958],[-1.234,45.992],[-1.248,46.002],[-1.274,45.998],[-1.34,46.038],[-1.374,46.05],[-1.405,46.053],[-1.372,45.995],[-1.378,45.976],[-1.34,45.939],[-1.319,45.928],[-1.26,45.882],[-1.241,45.855],[-1.227,45.82],[-1.209,45.814],[-1.195,45.83],[-1.184,45.856],[-1.176,45.899],[-1.185,45.916],[-1.224,45.935],[-1.219,45.944]]],[[[-1.281,46.156],[-1.254,46.162],[-1.266,46.181],[-1.308,46.207],[-1.409,46.218],[-1.435,46.234],[-1.464,46.225],[-1.491,46.224],[-1.508,46.246],[-1.474,46.238],[-1.468,46.25],[-1.498,46.262],[-1.556,46.252],[-1.504,46.208],[-1.489,46.203],[-1.433,46.211],[-1.336,46.167],[-1.291,46.161],[-1.281,46.156]]]]}},{"type":"Feature","properties":{"id":"fr-nor"},"geometry":{"type":"Polygon","coordinates":[[[1.373,50.066],[1.261,50.008],[1.221,49.979],[1.173,49.961],[0.761,49.875],[0.675,49.876],[0.597,49.857],[0.557,49.84],[0.523,49.833],[0.398,49.784],[0.387,49.775],[0.236,49.729],[0.186,49.703],[0.171,49.692],[0.131,49.604],[0.08,49.542],[0.075,49.524],[0.104,49.494],[0.147,49.481],[0.185,49.48],[0.257,49.464],[0.34,49.457],[0.422,49.464],[0.493,49.494],[0.457,49.467],[0.411,49.452],[0.294,49.435],[0.162,49.415],[0.096,49.384],[0.072,49.359],[0.04,49.35],[0.013,49.335],[-0.034,49.32],[-0.194,49.295],[-0.219,49.28],[-0.313,49.317],[-0.363,49.325],[-0.411,49.343],[-0.479,49.343],[-0.547,49.359],[-0.583,49.346],[-0.651,49.356],[-0.822,49.363],[-0.94,49.392],[-1.072,49.397],[-1.106,49.379],[-1.119,49.346],[-1.152,49.363],[-1.182,49.356],[-1.174,49.382],[-1.176,49.415],[-1.185,49.43],[-1.262,49.493],[-1.277,49.521],[-1.306,49.558],[-1.301,49.582],[-1.264,49.589],[-1.253,49.612],[-1.228,49.624],[-1.232,49.641],[-1.271,49.698],[-1.391,49.713],[-1.456,49.702],[-1.511,49.663],[-1.54,49.658],[-1.573,49.664],[-1.597,49.652],[-1.633,49.664],[-1.708,49.68],[-1.812,49.691],[-1.839,49.715],[-1.867,49.713],[-1.908,49.726],[-1.935,49.724],[-1.946,49.678],[-1.902,49.666],[-1.869,49.662],[-1.84,49.62],[-1.844,49.572],[-1.878,49.545],[-1.885,49.531],[-1.844,49.494],[-1.838,49.476],[-1.816,49.445],[-1.82,49.397],[-1.807,49.377],[-1.776,49.37],[-1.715,49.339],[-1.699,49.356],[-1.686,49.335],[-1.707,49.329],[-1.687,49.302],[-1.658,49.288],[-1.657,49.268],[-1.641,49.232],[-1.595,49.238],[-1.61,49.216],[-1.604,49.178],[-1.589,49.144],[-1.608,49.103],[-1.603,49.084],[-1.589,49.082],[-1.597,49.037],[-1.579,49.013],[-1.568,49.033],[-1.546,49.03],[-1.552,49.015],[-1.563,48.958],[-1.542,48.944],[-1.548,48.924],[-1.564,48.922],[-1.572,48.874],[-1.603,48.842],[-1.579,48.838],[-1.567,48.822],[-1.562,48.771],[-1.554,48.747],[-1.516,48.725],[-1.508,48.702],[-1.49,48.69],[-1.456,48.683],[-1.447,48.674],[-1.395,48.668],[-1.393,48.652],[-1.501,48.636],[-1.58,48.643],[-1.59,48.642],[-1.58,48.62],[-1.556,48.586],[-1.529,48.531],[-1.499,48.495],[-1.448,48.466],[-1.41,48.463],[-1.382,48.47],[-1.336,48.495],[-1.295,48.509],[-1.266,48.535],[-1.223,48.535],[-1.121,48.516],[-1.079,48.499],[-1.029,48.493],[-0.995,48.493],[-0.936,48.507],[-0.899,48.497],[-0.863,48.502],[-0.846,48.492],[-0.822,48.46],[-0.81,48.451],[-0.786,48.457],[-0.754,48.441],[-0.723,48.465],[-0.665,48.473],[-0.641,48.455],[-0.554,48.468],[-0.535,48.476],[-0.501,48.501],[-0.47,48.507],[-0.42,48.504],[-0.353,48.492],[-0.338,48.494],[-0.319,48.512],[-0.271,48.518],[-0.249,48.527],[-0.245,48.553],[-0.233,48.561],[-0.171,48.545],[-0.158,48.533],[-0.167,48.514],[-0.154,48.49],[-0.121,48.463],[-0.088,48.449],[-0.07,48.447],[-0.057,48.432],[-0.053,48.381],[0.007,48.385],[0.047,48.379],[0.067,48.384],[0.08,48.405],[0.111,48.411],[0.143,48.44],[0.192,48.46],[0.281,48.474],[0.31,48.472],[0.352,48.459],[0.372,48.449],[0.378,48.425],[0.374,48.37],[0.39,48.333],[0.416,48.316],[0.443,48.305],[0.486,48.307],[0.498,48.296],[0.501,48.271],[0.515,48.266],[0.6,48.25],[0.667,48.248],[0.726,48.195],[0.771,48.181],[0.798,48.186],[0.827,48.209],[0.797,48.253],[0.798,48.29],[0.779,48.305],[0.789,48.335],[0.827,48.34],[0.895,48.359],[0.945,48.388],[0.98,48.433],[0.953,48.464],[0.947,48.479],[0.953,48.509],[0.945,48.523],[0.893,48.562],[0.85,48.583],[0.823,48.621],[0.816,48.665],[0.849,48.688],[0.873,48.699],[0.968,48.717],[1.009,48.721],[1.039,48.748],[1.097,48.752],[1.105,48.774],[1.126,48.776],[1.154,48.76],[1.184,48.756],[1.219,48.758],[1.258,48.752],[1.324,48.775],[1.344,48.788],[1.355,48.811],[1.372,48.831],[1.395,48.844],[1.436,48.859],[1.451,48.871],[1.454,48.888],[1.445,48.91],[1.453,48.923],[1.493,48.94],[1.488,48.973],[1.456,48.981],[1.451,48.992],[1.453,49.022],[1.443,49.036],[1.454,49.049],[1.581,49.069],[1.62,49.083],[1.668,49.191],[1.698,49.231],[1.691,49.25],[1.705,49.266],[1.726,49.27],[1.768,49.246],[1.783,49.251],[1.75,49.311],[1.721,49.382],[1.718,49.411],[1.717,49.424],[1.737,49.465],[1.762,49.478],[1.769,49.499],[1.752,49.509],[1.72,49.503],[1.709,49.521],[1.705,49.555],[1.697,49.577],[1.694,49.627],[1.681,49.645],[1.719,49.664],[1.735,49.685],[1.721,49.694],[1.69,49.688],[1.685,49.71],[1.728,49.753],[1.755,49.766],[1.741,49.798],[1.71,49.835],[1.695,49.874],[1.681,49.888],[1.516,50.001],[1.373,50.066]]]}},{"type":"Feature","properties":{"id":"fr-occ"},"geometry":{"type":"MultiPolygon","coordinates":[[[[4.658,44.282],[4.612,44.291],[4.585,44.301],[4.551,44.327],[4.521,44.337],[4.466,44.336],[4.451,44.326],[4.445,44.301],[4.429,44.292],[4.396,44.301],[4.397,44.328],[4.373,44.34],[4.334,44.331],[4.251,44.282],[4.229,44.285],[4.141,44.322],[4.131,44.332],[4.076,44.329],[4.044,44.331],[4.036,44.376],[4.051,44.395],[4.022,44.44],[3.994,44.458],[3.965,44.536],[3.943,44.57],[3.922,44.58],[3.9,44.622],[3.892,44.663],[3.868,44.722],[3.872,44.751],[3.848,44.755],[3.795,44.776],[3.738,44.816],[3.716,44.825],[3.661,44.831],[3.653,44.839],[3.663,44.856],[3.654,44.869],[3.625,44.877],[3.602,44.875],[3.59,44.865],[3.578,44.833],[3.56,44.828],[3.526,44.826],[3.493,44.816],[3.46,44.837],[3.403,44.915],[3.391,44.948],[3.37,44.954],[3.338,44.95],[3.297,44.93],[3.244,44.922],[3.188,44.881],[3.154,44.87],[3.131,44.893],[3.116,44.894],[3.1,44.881],[3.089,44.837],[3.063,44.824],[3.045,44.792],[3.031,44.749],[3.021,44.707],[2.994,44.677],[2.98,44.644],[2.946,44.665],[2.926,44.691],[2.914,44.744],[2.907,44.757],[2.927,44.769],[2.916,44.784],[2.885,44.792],[2.867,44.824],[2.821,44.867],[2.783,44.862],[2.773,44.868],[2.773,44.893],[2.74,44.931],[2.727,44.935],[2.594,44.835],[2.578,44.795],[2.555,44.772],[2.541,44.749],[2.537,44.73],[2.524,44.711],[2.482,44.676],[2.455,44.662],[2.422,44.659],[2.368,44.66],[2.346,44.652],[2.321,44.667],[2.3,44.669],[2.214,44.647],[2.205,44.622],[2.182,44.631],[2.171,44.65],[2.165,44.678],[2.132,44.699],[2.143,44.72],[2.159,44.775],[2.152,44.796],[2.136,44.818],[2.094,44.866],[2.079,44.897],[2.071,44.957],[2.059,44.975],[2.005,44.975],[1.979,44.971],[1.954,44.961],[1.926,44.97],[1.908,44.968],[1.852,44.946],[1.8,44.933],[1.766,44.935],[1.714,44.96],[1.693,44.985],[1.659,45.007],[1.61,45.029],[1.581,45.036],[1.546,45.028],[1.53,45.045],[1.459,45.015],[1.43,45],[1.425,44.984],[1.447,44.933],[1.434,44.906],[1.437,44.883],[1.427,44.87],[1.399,44.853],[1.372,44.82],[1.355,44.807],[1.326,44.802],[1.312,44.773],[1.322,44.751],[1.288,44.717],[1.258,44.707],[1.235,44.693],[1.19,44.683],[1.175,44.673],[1.12,44.604],[1.077,44.575],[1.062,44.565],[1.013,44.548],[1,44.527],[1.019,44.506],[1.021,44.48],[1.038,44.446],[1.067,44.422],[1.065,44.379],[1.051,44.368],[0.97,44.363],[0.95,44.366],[0.92,44.379],[0.901,44.367],[0.901,44.347],[0.887,44.313],[0.898,44.296],[0.945,44.279],[0.943,44.26],[0.906,44.201],[0.872,44.181],[0.891,44.164],[0.894,44.15],[0.864,44.14],[0.819,44.149],[0.804,44.142],[0.795,44.123],[0.766,44.111],[0.753,44.098],[0.742,44.067],[0.68,44.04],[0.659,44.038],[0.624,44.062],[0.593,44.073],[0.577,44.071],[0.509,44.052],[0.466,44.056],[0.447,44.046],[0.375,44.02],[0.354,44.017],[0.314,43.999],[0.287,43.998],[0.222,44.019],[0.198,44.008],[0.183,43.988],[0.157,43.969],[0.116,43.981],[0.085,43.967],[0.076,43.956],[0.082,43.931],[0.073,43.913],[0.055,43.907],[0.005,43.913],[-0.009,43.924],[0.005,43.948],[0.003,43.959],[-0.024,43.971],[-0.069,43.952],[-0.1,43.928],[-0.132,43.926],[-0.167,43.931],[-0.214,43.907],[-0.224,43.891],[-0.202,43.873],[-0.184,43.842],[-0.191,43.818],[-0.208,43.788],[-0.209,43.757],[-0.195,43.739],[-0.215,43.699],[-0.255,43.681],[-0.246,43.668],[-0.251,43.649],[-0.267,43.623],[-0.252,43.616],[-0.236,43.587],[-0.203,43.589],[-0.11,43.575],[-0.09,43.565],[-0.08,43.545],[-0.047,43.522],[-0.023,43.479],[-0.016,43.459],[-0.043,43.453],[-0.052,43.441],[-0.049,43.421],[-0.034,43.414],[-0.015,43.431],[0.009,43.422],[0.006,43.385],[0.023,43.339],[0.011,43.329],[-0.015,43.322],[-0.028,43.31],[-0.037,43.277],[-0.026,43.253],[-0.035,43.236],[-0.066,43.211],[-0.081,43.173],[-0.118,43.159],[-0.139,43.125],[-0.177,43.107],[-0.191,43.092],[-0.192,43.066],[-0.185,43.046],[-0.199,43.034],[-0.238,43.033],[-0.253,43.026],[-0.282,43.003],[-0.29,42.988],[-0.284,42.966],[-0.284,42.941],[-0.316,42.901],[-0.315,42.874],[-0.305,42.831],[-0.247,42.805],[-0.235,42.786],[-0.208,42.784],[-0.161,42.795],[-0.164,42.778],[-0.146,42.746],[-0.123,42.73],[-0.119,42.717],[-0.096,42.711],[-0.078,42.697],[-0.039,42.685],[-0.004,42.688],[0.073,42.708],[0.134,42.715],[0.169,42.726],[0.238,42.71],[0.275,42.669],[0.29,42.67],[0.318,42.7],[0.354,42.717],[0.382,42.7],[0.389,42.685],[0.429,42.683],[0.467,42.69],[0.484,42.685],[0.608,42.688],[0.644,42.684],[0.665,42.699],[0.666,42.715],[0.648,42.741],[0.633,42.745],[0.651,42.763],[0.64,42.775],[0.654,42.803],[0.656,42.838],[0.679,42.845],[0.724,42.845],[0.776,42.832],[0.813,42.832],[0.856,42.813],[0.886,42.804],[0.921,42.784],[0.94,42.794],[0.959,42.794],[0.983,42.78],[1.068,42.776],[1.107,42.76],[1.134,42.716],[1.163,42.706],[1.196,42.714],[1.319,42.713],[1.343,42.709],[1.338,42.694],[1.361,42.687],[1.398,42.644],[1.415,42.609],[1.429,42.595],[1.451,42.602],[1.467,42.641],[1.498,42.64],[1.543,42.649],[1.608,42.618],[1.722,42.61],[1.713,42.59],[1.753,42.577],[1.761,42.568],[1.74,42.562],[1.722,42.549],[1.711,42.528],[1.707,42.503],[1.731,42.488],[1.793,42.482],[1.814,42.475],[1.87,42.447],[1.927,42.437],[1.941,42.42],[1.964,42.367],[1.996,42.349],[2.052,42.352],[2.104,42.385],[2.121,42.411],[2.137,42.416],[2.184,42.412],[2.246,42.426],[2.277,42.429],[2.317,42.41],[2.375,42.389],[2.423,42.384],[2.43,42.368],[2.465,42.341],[2.504,42.328],[2.525,42.326],[2.548,42.352],[2.567,42.353],[2.613,42.341],[2.662,42.339],[2.64,42.373],[2.648,42.381],[2.69,42.406],[2.729,42.414],[2.768,42.41],[2.805,42.42],[2.851,42.448],[2.901,42.451],[2.934,42.47],[2.966,42.461],[2.983,42.469],[3.03,42.466],[3.044,42.445],[3.066,42.432],[3.112,42.425],[3.181,42.431],[3.176,42.456],[3.143,42.492],[3.146,42.515],[3.137,42.525],[3.066,42.542],[3.052,42.555],[3.046,42.588],[3.038,42.683],[3.043,42.725],[3.039,42.75],[3.04,42.79],[3.046,42.837],[3.056,42.907],[3.055,42.927],[3.039,42.943],[3.07,43.027],[3.114,43.106],[3.154,43.135],[3.179,43.165],[3.221,43.195],[3.244,43.219],[3.318,43.263],[3.385,43.284],[3.452,43.289],[3.492,43.274],[3.513,43.281],[3.59,43.355],[3.622,43.375],[3.74,43.413],[3.939,43.533],[3.991,43.551],[4.047,43.556],[4.105,43.552],[4.133,43.533],[4.117,43.51],[4.133,43.487],[4.16,43.472],[4.206,43.46],[4.231,43.472],[4.248,43.501],[4.264,43.504],[4.287,43.518],[4.309,43.521],[4.337,43.532],[4.378,43.558],[4.4,43.562],[4.413,43.582],[4.448,43.587],[4.463,43.609],[4.43,43.625],[4.452,43.667],[4.477,43.693],[4.5,43.706],[4.541,43.713],[4.605,43.696],[4.618,43.722],[4.617,43.741],[4.646,43.795],[4.649,43.819],[4.641,43.871],[4.727,43.917],[4.773,43.933],[4.806,43.953],[4.822,43.976],[4.821,44],[4.845,44],[4.85,44.013],[4.778,44.084],[4.761,44.091],[4.733,44.086],[4.723,44.094],[4.719,44.125],[4.724,44.16],[4.721,44.19],[4.688,44.219],[4.686,44.24],[4.667,44.258],[4.658,44.282]]],[[[-0.097,43.328],[-0.074,43.337],[-0.064,43.359],[-0.071,43.381],[-0.099,43.385],[-0.112,43.369],[-0.112,43.338],[-0.097,43.328]]],[[[-0.118,43.248],[-0.097,43.251],[-0.081,43.272],[-0.09,43.295],[-0.114,43.305],[-0.137,43.286],[-0.135,43.258],[-0.118,43.248]]]]}},{"type":"Feature","properties":{"id":"fr-pac"},"geometry":{"type":"MultiPolygon","coordinates":[[[[6.878,44.355],[6.866,44.372],[6.877,44.414],[6.884,44.423],[6.918,44.436],[6.861,44.475],[6.839,44.503],[6.836,44.534],[6.846,44.547],[6.897,44.575],[6.932,44.618],[6.946,44.625],[6.934,44.647],[6.938,44.658],[6.96,44.683],[6.983,44.692],[7.037,44.685],[7.049,44.698],[7.019,44.739],[7.01,44.772],[6.998,44.794],[7.007,44.822],[6.983,44.847],[6.933,44.862],[6.915,44.863],[6.866,44.856],[6.847,44.859],[6.778,44.888],[6.745,44.908],[6.728,44.929],[6.73,44.985],[6.723,45.013],[6.697,45.027],[6.662,45.029],[6.64,45.05],[6.637,45.074],[6.603,45.103],[6.629,45.124],[6.598,45.121],[6.561,45.105],[6.52,45.104],[6.506,45.095],[6.496,45.071],[6.481,45.058],[6.459,45.054],[6.394,45.07],[6.379,45.096],[6.357,45.108],[6.283,45.115],[6.266,45.125],[6.242,45.105],[6.222,45.034],[6.227,45.007],[6.259,45],[6.305,45.007],[6.325,44.999],[6.335,44.954],[6.364,44.928],[6.37,44.912],[6.365,44.868],[6.341,44.858],[6.305,44.867],[6.277,44.866],[6.244,44.856],[6.206,44.857],[6.176,44.852],[6.148,44.857],[6.129,44.855],[6.077,44.83],[6.058,44.828],[6.032,44.834],[6.013,44.83],[5.973,44.808],[5.972,44.777],[5.958,44.765],[5.918,44.756],[5.868,44.754],[5.845,44.75],[5.812,44.712],[5.829,44.697],[5.83,44.683],[5.793,44.655],[5.764,44.652],[5.723,44.641],[5.683,44.646],[5.658,44.641],[5.644,44.606],[5.615,44.573],[5.608,44.556],[5.62,44.539],[5.658,44.514],[5.651,44.496],[5.607,44.473],[5.587,44.471],[5.525,44.488],[5.472,44.489],[5.466,44.479],[5.478,44.453],[5.5,44.438],[5.493,44.424],[5.449,44.429],[5.428,44.425],[5.444,44.402],[5.459,44.37],[5.497,44.348],[5.538,44.34],[5.564,44.33],[5.61,44.332],[5.631,44.325],[5.623,44.303],[5.648,44.281],[5.684,44.259],[5.685,44.233],[5.679,44.191],[5.671,44.181],[5.675,44.157],[5.649,44.154],[5.638,44.172],[5.604,44.181],[5.59,44.178],[5.537,44.136],[5.506,44.122],[5.471,44.125],[5.393,44.169],[5.379,44.202],[5.339,44.209],[5.269,44.227],[5.223,44.224],[5.177,44.234],[5.164,44.247],[5.163,44.276],[5.175,44.297],[5.16,44.307],[5.139,44.293],[5.111,44.288],[5.052,44.296],[4.984,44.282],[4.919,44.261],[4.891,44.259],[4.845,44.239],[4.822,44.238],[4.81,44.249],[4.787,44.296],[4.774,44.311],[4.744,44.326],[4.686,44.33],[4.658,44.327],[4.658,44.282],[4.667,44.258],[4.686,44.24],[4.688,44.219],[4.721,44.19],[4.724,44.16],[4.719,44.125],[4.723,44.094],[4.733,44.086],[4.761,44.091],[4.778,44.084],[4.85,44.013],[4.845,44],[4.821,44],[4.822,43.976],[4.806,43.953],[4.773,43.933],[4.727,43.917],[4.641,43.871],[4.649,43.819],[4.646,43.795],[4.617,43.741],[4.618,43.722],[4.605,43.696],[4.541,43.713],[4.5,43.706],[4.477,43.693],[4.452,43.667],[4.43,43.625],[4.463,43.609],[4.448,43.587],[4.413,43.582],[4.4,43.562],[4.378,43.558],[4.337,43.532],[4.309,43.521],[4.287,43.518],[4.264,43.504],[4.248,43.501],[4.231,43.472],[4.206,43.46],[4.409,43.448],[4.513,43.456],[4.555,43.443],[4.58,43.43],[4.586,43.404],[4.566,43.388],[4.566,43.371],[4.592,43.36],[4.666,43.348],[4.791,43.345],[4.82,43.346],[4.823,43.367],[4.8,43.386],[4.77,43.402],[4.743,43.423],[4.729,43.456],[4.729,43.528],[4.695,43.573],[4.712,43.572],[4.726,43.557],[4.742,43.524],[4.745,43.507],[4.742,43.449],[4.758,43.422],[4.792,43.399],[4.833,43.382],[4.851,43.359],[4.856,43.342],[4.901,43.367],[4.868,43.365],[4.85,43.401],[4.868,43.421],[4.893,43.425],[4.928,43.44],[4.983,43.417],[5.028,43.417],[5.051,43.429],[5.062,43.452],[5.05,43.477],[5.015,43.499],[5.009,43.518],[5.022,43.552],[5.035,43.556],[5.054,43.538],[5.106,43.533],[5.118,43.504],[5.14,43.486],[5.166,43.482],[5.194,43.49],[5.223,43.504],[5.226,43.48],[5.214,43.458],[5.174,43.428],[5.146,43.422],[5.057,43.422],[5.026,43.409],[5.006,43.382],[5.014,43.358],[5.034,43.335],[5.065,43.328],[5.125,43.326],[5.163,43.329],[5.238,43.328],[5.294,43.355],[5.339,43.334],[5.357,43.28],[5.369,43.27],[5.354,43.244],[5.347,43.216],[5.37,43.208],[5.395,43.212],[5.44,43.208],[5.504,43.206],[5.525,43.213],[5.538,43.207],[5.573,43.169],[5.612,43.16],[5.634,43.187],[5.672,43.18],[5.688,43.169],[5.696,43.147],[5.741,43.132],[5.776,43.131],[5.783,43.115],[5.801,43.112],[5.818,43.099],[5.782,43.079],[5.819,43.053],[5.857,43.045],[5.875,43.069],[5.888,43.072],[5.94,43.071],[5.951,43.08],[5.911,43.093],[5.896,43.115],[5.909,43.131],[5.941,43.134],[5.934,43.114],[5.959,43.102],[6.017,43.099],[6.027,43.078],[6.11,43.084],[6.129,43.071],[6.132,43.053],[6.098,43.031],[6.18,43.036],[6.153,43.048],[6.153,43.072],[6.163,43.093],[6.179,43.103],[6.22,43.117],[6.253,43.121],[6.28,43.119],[6.326,43.104],[6.342,43.091],[6.375,43.091],[6.366,43.119],[6.379,43.136],[6.422,43.152],[6.479,43.156],[6.506,43.151],[6.527,43.161],[6.54,43.182],[6.593,43.188],[6.61,43.173],[6.64,43.182],[6.68,43.202],[6.665,43.221],[6.668,43.24],[6.685,43.248],[6.698,43.265],[6.672,43.276],[6.612,43.264],[6.591,43.269],[6.597,43.284],[6.625,43.296],[6.661,43.322],[6.675,43.346],[6.718,43.351],[6.718,43.367],[6.733,43.382],[6.731,43.408],[6.757,43.423],[6.783,43.409],[6.819,43.416],[6.847,43.413],[6.871,43.426],[6.894,43.428],[6.898,43.438],[6.92,43.449],[6.933,43.48],[6.954,43.5],[6.941,43.512],[6.945,43.527],[6.976,43.547],[7.031,43.548],[7.037,43.536],[7.088,43.569],[7.113,43.565],[7.126,43.548],[7.139,43.554],[7.126,43.606],[7.133,43.634],[7.152,43.655],[7.178,43.66],[7.197,43.657],[7.204,43.644],[7.232,43.663],[7.229,43.674],[7.257,43.692],[7.28,43.693],[7.331,43.686],[7.342,43.708],[7.366,43.723],[7.373,43.746],[7.407,43.764],[7.437,43.743],[7.463,43.762],[7.476,43.781],[7.502,43.792],[7.483,43.84],[7.478,43.866],[7.493,43.886],[7.537,43.921],[7.557,43.944],[7.609,43.976],[7.631,43.994],[7.653,44.04],[7.69,44.067],[7.692,44.085],[7.676,44.109],[7.654,44.125],[7.642,44.144],[7.656,44.176],[7.625,44.18],[7.584,44.161],[7.555,44.159],[7.381,44.123],[7.341,44.124],[7.322,44.132],[7.309,44.147],[7.251,44.16],[7.145,44.207],[7.105,44.218],[7.033,44.243],[6.996,44.238],[6.973,44.249],[6.959,44.277],[6.921,44.302],[6.896,44.34],[6.878,44.355]]],[[[6.235,43.022],[6.203,43.008],[6.175,43.009],[6.166,43],[6.202,42.987],[6.252,43.003],[6.251,43.017],[6.235,43.022]]],[[[4.964,44.429],[4.938,44.416],[4.889,44.356],[4.883,44.323],[4.897,44.312],[4.981,44.313],[5.001,44.323],[5.022,44.352],[5.043,44.368],[5.032,44.394],[4.992,44.423],[4.964,44.429]]]]}},{"type":"Feature","properties":{"id":"fr-pdl"},"geometry":{"type":"MultiPolygon","coordinates":[[[[0.067,47.154],[0.082,47.23],[0.099,47.287],[0.122,47.32],[0.15,47.346],[0.177,47.377],[0.172,47.405],[0.19,47.454],[0.222,47.502],[0.215,47.535],[0.218,47.561],[0.242,47.603],[0.314,47.592],[0.371,47.58],[0.39,47.586],[0.385,47.624],[0.408,47.631],[0.431,47.621],[0.451,47.622],[0.478,47.64],[0.518,47.646],[0.571,47.665],[0.608,47.671],[0.61,47.689],[0.602,47.701],[0.613,47.723],[0.636,47.739],[0.692,47.758],[0.721,47.771],[0.745,47.788],[0.77,47.842],[0.771,47.879],[0.78,47.907],[0.828,47.936],[0.841,47.955],[0.835,47.99],[0.843,48.011],[0.84,48.027],[0.815,48.029],[0.797,48.054],[0.813,48.069],[0.843,48.071],[0.852,48.081],[0.833,48.094],[0.832,48.103],[0.913,48.141],[0.907,48.153],[0.847,48.161],[0.798,48.186],[0.771,48.181],[0.726,48.195],[0.667,48.248],[0.6,48.25],[0.515,48.266],[0.501,48.271],[0.498,48.296],[0.486,48.307],[0.443,48.305],[0.416,48.316],[0.39,48.333],[0.374,48.37],[0.378,48.425],[0.372,48.449],[0.352,48.459],[0.31,48.472],[0.281,48.474],[0.192,48.46],[0.143,48.44],[0.111,48.411],[0.08,48.405],[0.067,48.384],[0.047,48.379],[0.007,48.385],[-0.053,48.381],[-0.057,48.432],[-0.07,48.447],[-0.088,48.449],[-0.121,48.463],[-0.154,48.49],[-0.167,48.514],[-0.158,48.533],[-0.171,48.545],[-0.233,48.561],[-0.245,48.553],[-0.249,48.527],[-0.271,48.518],[-0.319,48.512],[-0.338,48.494],[-0.353,48.492],[-0.42,48.504],[-0.47,48.507],[-0.501,48.501],[-0.535,48.476],[-0.554,48.468],[-0.641,48.455],[-0.665,48.473],[-0.723,48.465],[-0.754,48.441],[-0.786,48.457],[-0.81,48.451],[-0.822,48.46],[-0.846,48.492],[-0.863,48.502],[-0.899,48.497],[-0.936,48.507],[-0.995,48.493],[-1.029,48.493],[-1.079,48.499],[-1.082,48.423],[-1.07,48.349],[-1.07,48.318],[-1.102,48.267],[-1.085,48.24],[-1.07,48.174],[-1.082,48.152],[-1.07,48.091],[-1.042,48.062],[-1.041,48.002],[-1.078,47.989],[-1.124,47.986],[-1.145,47.979],[-1.168,47.961],[-1.183,47.934],[-1.194,47.9],[-1.216,47.858],[-1.229,47.823],[-1.243,47.81],[-1.251,47.78],[-1.351,47.792],[-1.379,47.802],[-1.39,47.817],[-1.409,47.824],[-1.462,47.823],[-1.489,47.808],[-1.592,47.775],[-1.622,47.759],[-1.641,47.74],[-1.685,47.718],[-1.806,47.692],[-1.866,47.703],[-1.938,47.685],[-1.958,47.676],[-2.023,47.673],[-2.081,47.65],[-2.089,47.633],[-2.086,47.608],[-2.098,47.587],[-2.11,47.542],[-2.12,47.53],[-2.154,47.513],[-2.173,47.486],[-2.187,47.481],[-2.211,47.508],[-2.253,47.495],[-2.281,47.507],[-2.302,47.502],[-2.334,47.464],[-2.346,47.459],[-2.404,47.456],[-2.433,47.466],[-2.461,47.453],[-2.439,47.445],[-2.448,47.431],[-2.392,47.424],[-2.429,47.404],[-2.477,47.416],[-2.556,47.383],[-2.515,47.365],[-2.494,47.342],[-2.481,47.348],[-2.445,47.32],[-2.436,47.307],[-2.453,47.293],[-2.476,47.291],[-2.519,47.305],[-2.542,47.3],[-2.448,47.267],[-2.419,47.266],[-2.405,47.286],[-2.371,47.286],[-2.355,47.28],[-2.316,47.252],[-2.278,47.246],[-2.259,47.252],[-2.236,47.267],[-2.206,47.273],[-2.18,47.3],[-2.148,47.313],[-2.01,47.32],[-1.972,47.312],[-1.958,47.302],[-1.906,47.294],[-1.871,47.28],[-1.836,47.26],[-1.806,47.235],[-1.878,47.246],[-1.919,47.266],[-1.917,47.284],[-1.948,47.279],[-1.999,47.289],[-2.015,47.3],[-2.036,47.293],[-2.128,47.287],[-2.152,47.28],[-2.167,47.259],[-2.172,47.235],[-2.159,47.204],[-2.165,47.168],[-2.205,47.161],[-2.241,47.142],[-2.205,47.129],[-2.09,47.115],[-2.03,47.092],[-2.015,47.082],[-1.993,47.052],[-1.991,47.035],[-2.008,47.026],[-2.037,46.973],[-2.049,46.957],[-2.102,46.931],[-2.096,46.916],[-2.122,46.904],[-2.131,46.872],[-2.126,46.836],[-2.119,46.82],[-2.081,46.807],[-2.05,46.792],[-1.995,46.752],[-1.965,46.71],[-1.91,46.692],[-1.9,46.666],[-1.857,46.635],[-1.839,46.599],[-1.823,46.594],[-1.827,46.577],[-1.805,46.504],[-1.782,46.495],[-1.768,46.5],[-1.749,46.487],[-1.72,46.481],[-1.687,46.461],[-1.633,46.454],[-1.617,46.444],[-1.626,46.431],[-1.599,46.425],[-1.532,46.423],[-1.504,46.419],[-1.481,46.408],[-1.465,46.39],[-1.449,46.343],[-1.423,46.342],[-1.37,46.354],[-1.303,46.324],[-1.277,46.32],[-1.24,46.284],[-1.213,46.279],[-1.214,46.311],[-1.177,46.326],[-1.132,46.324],[-1.119,46.311],[-1.097,46.335],[-1.08,46.343],[-0.97,46.362],[-0.955,46.354],[-0.973,46.329],[-0.941,46.321],[-0.867,46.334],[-0.825,46.331],[-0.757,46.301],[-0.695,46.324],[-0.642,46.329],[-0.612,46.352],[-0.565,46.357],[-0.555,46.37],[-0.569,46.387],[-0.603,46.406],[-0.624,46.403],[-0.634,46.423],[-0.624,46.461],[-0.64,46.515],[-0.616,46.548],[-0.627,46.607],[-0.648,46.632],[-0.662,46.683],[-0.689,46.721],[-0.716,46.751],[-0.726,46.779],[-0.712,46.802],[-0.746,46.83],[-0.803,46.855],[-0.821,46.873],[-0.834,46.919],[-0.846,46.932],[-0.873,46.942],[-0.909,46.982],[-0.946,47],[-0.935,47.017],[-0.909,47.012],[-0.87,46.994],[-0.838,46.99],[-0.78,46.997],[-0.752,46.991],[-0.696,46.988],[-0.632,46.992],[-0.592,47.01],[-0.549,47.025],[-0.545,47.036],[-0.555,47.061],[-0.518,47.075],[-0.473,47.066],[-0.403,47.08],[-0.376,47.088],[-0.27,47.097],[-0.212,47.096],[-0.171,47.098],[-0.159,47.091],[-0.143,47.063],[-0.118,47.057],[-0.109,47.07],[-0.092,47.086],[-0.053,47.096],[-0.037,47.128],[-0.004,47.157],[0.014,47.161],[0.067,47.154]]],[[[-2.337,46.732],[-2.375,46.732],[-2.383,46.723],[-2.371,46.704],[-2.291,46.704],[-2.298,46.72],[-2.337,46.732]]],[[[-2.2,46.985],[-2.2,47.024],[-2.239,47.035],[-2.296,47.033],[-2.279,47.018],[-2.263,46.98],[-2.247,46.964],[-2.22,46.974],[-2.195,46.962],[-2.159,46.916],[-2.138,46.923],[-2.145,46.957],[-2.2,46.985]]]]}},{"type":"Feature","properties":{"id":"fr-re"},"geometry":{"type":"Polygon","coordinates":[[[55.788,-21.103],[55.771,-21.074],[55.747,-21.063],[55.737,-21.018],[55.712,-20.994],[55.707,-20.982],[55.703,-20.949],[55.695,-20.935],[55.674,-20.913],[55.651,-20.898],[55.606,-20.888],[55.578,-20.875],[55.542,-20.875],[55.527,-20.87],[55.514,-20.875],[55.473,-20.863],[55.408,-20.863],[55.364,-20.886],[55.336,-20.905],[55.303,-20.905],[55.287,-20.932],[55.292,-20.947],[55.288,-20.965],[55.275,-20.98],[55.242,-20.993],[55.231,-21.01],[55.225,-21.048],[55.246,-21.091],[55.288,-21.144],[55.296,-21.2],[55.308,-21.219],[55.342,-21.258],[55.355,-21.275],[55.398,-21.278],[55.418,-21.302],[55.434,-21.312],[55.475,-21.327],[55.506,-21.334],[55.554,-21.364],[55.602,-21.37],[55.627,-21.369],[55.644,-21.364],[55.66,-21.37],[55.707,-21.367],[55.738,-21.352],[55.791,-21.35],[55.812,-21.343],[55.821,-21.325],[55.824,-21.264],[55.841,-21.191],[55.855,-21.157],[55.85,-21.138],[55.838,-21.126],[55.788,-21.103]]]}},{"type":"Feature","properties":{"id":"fr-yt"},"geometry":{"type":"MultiPolygon","coordinates":[[[[45.262,-12.763],[45.276,-12.805],[45.283,-12.805],[45.291,-12.774],[45.283,-12.743],[45.262,-12.763]]],[[[45.201,-12.723],[45.184,-12.718],[45.153,-12.718],[45.129,-12.707],[45.091,-12.667],[45.091,-12.647],[45.042,-12.698],[45.045,-12.725],[45.057,-12.743],[45.087,-12.76],[45.094,-12.803],[45.105,-12.833],[45.084,-12.839],[45.113,-12.863],[45.132,-12.887],[45.136,-12.904],[45.125,-12.921],[45.108,-12.912],[45.09,-12.891],[45.073,-12.888],[45.063,-12.899],[45.081,-12.908],[45.09,-12.924],[45.088,-12.94],[45.107,-12.978],[45.132,-12.989],[45.16,-12.979],[45.166,-12.989],[45.186,-12.969],[45.168,-12.944],[45.175,-12.924],[45.192,-12.905],[45.211,-12.865],[45.213,-12.852],[45.195,-12.841],[45.188,-12.817],[45.197,-12.812],[45.221,-12.778],[45.225,-12.746],[45.201,-12.723]]]]}}]}