{"type":"FeatureCollection","features":[{"type":"Feature","properties":{"id":"gb-eng"},"geometry":{"type":"MultiPolygon","coordinates":[[[[-2.665,51.617],[-2.582,51.682],[-2.522,51.706],[-2.482,51.743],[-2.42,51.753],[-2.383,51.773],[-2.389,51.75],[-2.405,51.741],[-2.465,51.726],[-2.499,51.697],[-2.535,51.673],[-2.556,51.659],[-2.58,51.619],[-2.608,51.607],[-2.679,51.531],[-2.696,51.513],[-2.729,51.496],[-2.781,51.489],[-2.816,51.474],[-2.884,51.417],[-2.921,51.394],[-2.953,51.399],[-2.975,51.384],[-2.96,51.374],[-2.988,51.347],[-2.992,51.322],[-3.011,51.311],[-3.008,51.255],[-3,51.233],[-3.005,51.213],[-3.022,51.192],[-3.058,51.208],[-3.097,51.205],[-3.163,51.207],[-3.199,51.204],[-3.271,51.189],[-3.385,51.186],[-3.434,51.21],[-3.559,51.228],[-3.64,51.226],[-3.712,51.238],[-3.769,51.248],[-3.787,51.247],[-3.841,51.233],[-3.913,51.233],[-3.969,51.222],[-4.152,51.212],[-4.229,51.192],[-4.21,51.173],[-4.222,51.15],[-4.256,51.152],[-4.232,51.127],[-4.214,51.086],[-4.235,51.055],[-4.302,51.008],[-4.338,50.997],[-4.396,51.001],[-4.437,51.015],[-4.526,51.015],[-4.53,50.995],[-4.523,50.973],[-4.544,50.939],[-4.548,50.923],[-4.555,50.898],[-4.55,50.81],[-4.577,50.775],[-4.619,50.755],[-4.638,50.741],[-4.657,50.711],[-4.728,50.672],[-4.752,50.67],[-4.749,50.644],[-4.792,50.595],[-4.821,50.589],[-4.896,50.586],[-4.915,50.572],[-4.922,50.555],[-4.906,50.542],[-4.856,50.527],[-4.861,50.519],[-4.934,50.52],[-4.941,50.557],[-4.955,50.561],[-4.975,50.548],[-4.996,50.548],[-5.025,50.524],[-5.039,50.448],[-5.05,50.429],[-5.12,50.405],[-5.154,50.399],[-5.146,50.355],[-5.2,50.331],[-5.315,50.254],[-5.352,50.24],[-5.388,50.24],[-5.417,50.202],[-5.438,50.194],[-5.458,50.201],[-5.489,50.22],[-5.511,50.219],[-5.549,50.204],[-5.584,50.196],[-5.647,50.172],[-5.685,50.162],[-5.709,50.133],[-5.699,50.085],[-5.716,50.083],[-5.705,50.052],[-5.667,50.043],[-5.619,50.046],[-5.578,50.055],[-5.546,50.069],[-5.535,50.082],[-5.541,50.113],[-5.522,50.124],[-5.475,50.13],[-5.425,50.113],[-5.384,50.108],[-5.324,50.09],[-5.288,50.068],[-5.253,50.028],[-5.25,50],[-5.21,49.967],[-5.191,49.959],[-5.176,49.988],[-5.146,50.011],[-5.098,50.014],[-5.057,50.061],[-5.075,50.09],[-5.106,50.095],[-5.081,50.117],[-5.08,50.133],[-5.058,50.143],[-5.065,50.158],[-5.052,50.176],[-5.053,50.196],[-5.02,50.192],[-5.015,50.157],[-5.002,50.144],[-4.961,50.19],[-4.947,50.199],[-4.887,50.215],[-4.85,50.235],[-4.8,50.23],[-4.777,50.261],[-4.783,50.278],[-4.755,50.302],[-4.763,50.322],[-4.752,50.33],[-4.687,50.343],[-4.673,50.315],[-4.66,50.322],[-4.495,50.328],[-4.456,50.338],[-4.384,50.367],[-4.338,50.371],[-4.252,50.356],[-4.235,50.35],[-4.215,50.323],[-4.18,50.356],[-4.208,50.356],[-4.229,50.371],[-4.194,50.377],[-4.216,50.388],[-4.273,50.382],[-4.29,50.397],[-4.229,50.397],[-4.216,50.416],[-4.235,50.432],[-4.204,50.451],[-4.16,50.459],[-4.187,50.426],[-4.191,50.418],[-4.166,50.376],[-4.142,50.369],[-4.105,50.371],[-4.116,50.348],[-4.108,50.337],[-4.064,50.322],[-4.07,50.309],[-4.033,50.295],[-4.011,50.307],[-3.97,50.321],[-3.95,50.319],[-3.884,50.28],[-3.826,50.234],[-3.789,50.212],[-3.774,50.223],[-3.718,50.212],[-3.646,50.226],[-3.653,50.251],[-3.632,50.312],[-3.622,50.322],[-3.578,50.334],[-3.571,50.356],[-3.539,50.344],[-3.527,50.35],[-3.519,50.376],[-3.498,50.384],[-3.487,50.412],[-3.532,50.41],[-3.549,50.416],[-3.556,50.432],[-3.549,50.447],[-3.532,50.455],[-3.487,50.459],[-3.505,50.508],[-3.495,50.548],[-3.467,50.586],[-3.433,50.61],[-3.455,50.658],[-3.408,50.621],[-3.368,50.617],[-3.296,50.638],[-3.26,50.675],[-3.166,50.693],[-3.136,50.686],[-3.116,50.688],[-3.071,50.711],[-3.022,50.706],[-2.998,50.708],[-2.946,50.726],[-2.887,50.734],[-2.865,50.734],[-2.693,50.693],[-2.484,50.59],[-2.46,50.565],[-2.46,50.528],[-2.439,50.542],[-2.431,50.57],[-2.456,50.576],[-2.466,50.585],[-2.46,50.607],[-2.436,50.638],[-2.377,50.648],[-2.343,50.634],[-2.157,50.621],[-2.082,50.598],[-2.065,50.596],[-1.984,50.597],[-1.965,50.602],[-1.967,50.617],[-1.932,50.644],[-1.953,50.652],[-1.953,50.677],[-2.003,50.681],[-2.036,50.713],[-2.083,50.699],[-2.048,50.735],[-2.026,50.725],[-1.949,50.713],[-1.94,50.691],[-1.897,50.716],[-1.857,50.727],[-1.797,50.723],[-1.754,50.723],[-1.715,50.736],[-1.673,50.74],[-1.602,50.732],[-1.561,50.719],[-1.525,50.761],[-1.492,50.757],[-1.451,50.769],[-1.405,50.775],[-1.404,50.792],[-1.34,50.795],[-1.317,50.8],[-1.323,50.826],[-1.426,50.9],[-1.449,50.912],[-1.339,50.873],[-1.319,50.857],[-1.301,50.844],[-1.255,50.832],[-1.199,50.808],[-1.186,50.792],[-1.151,50.781],[-1.125,50.789],[-1.121,50.799],[-1.13,50.825],[-1.165,50.844],[-1.088,50.85],[-1.069,50.844],[-1.103,50.795],[-1.083,50.781],[-1.056,50.783],[-1.021,50.844],[-0.995,50.847],[-0.93,50.84],[-0.893,50.825],[-0.864,50.802],[-0.906,50.788],[-0.904,50.772],[-0.813,50.735],[-0.79,50.73],[-0.766,50.747],[-0.773,50.766],[-0.758,50.777],[-0.733,50.767],[-0.569,50.802],[-0.398,50.802],[-0.27,50.831],[-0.233,50.822],[-0.209,50.83],[-0.173,50.829],[0.018,50.785],[0.096,50.775],[0.122,50.761],[0.168,50.76],[0.214,50.749],[0.271,50.747],[0.308,50.781],[0.342,50.795],[0.37,50.819],[0.407,50.829],[0.624,50.859],[0.664,50.87],[0.762,50.931],[0.802,50.939],[0.87,50.925],[0.945,50.909],[0.98,50.918],[0.969,50.957],[0.966,50.983],[1.028,51.042],[1.067,51.064],[1.107,51.076],[1.172,51.077],[1.192,51.083],[1.218,51.101],[1.263,51.103],[1.29,51.117],[1.357,51.131],[1.384,51.152],[1.405,51.184],[1.413,51.222],[1.404,51.261],[1.381,51.305],[1.383,51.33],[1.419,51.33],[1.439,51.35],[1.448,51.383],[1.424,51.392],[1.101,51.373],[0.977,51.349],[0.764,51.364],[0.739,51.388],[0.726,51.419],[0.7,51.41],[0.713,51.384],[0.672,51.391],[0.586,51.391],[0.555,51.412],[0.609,51.425],[0.641,51.444],[0.692,51.44],[0.713,51.441],[0.722,51.456],[0.695,51.477],[0.535,51.492],[0.512,51.488],[0.47,51.48],[0.448,51.46],[0.385,51.453],[0.428,51.467],[0.442,51.477],[0.456,51.506],[0.525,51.517],[0.547,51.518],[0.569,51.508],[0.582,51.517],[0.623,51.522],[0.647,51.535],[0.692,51.536],[0.771,51.528],[0.828,51.542],[0.873,51.559],[0.924,51.588],[0.952,51.617],[0.938,51.625],[0.938,51.664],[0.952,51.678],[0.938,51.706],[0.947,51.725],[0.93,51.744],[0.912,51.742],[0.884,51.727],[0.853,51.719],[0.789,51.71],[0.761,51.693],[0.749,51.708],[0.699,51.72],[0.767,51.739],[0.792,51.741],[0.823,51.734],[0.874,51.747],[0.887,51.782],[0.925,51.803],[0.962,51.814],[0.989,51.83],[1.021,51.803],[1.037,51.782],[1.065,51.775],[1.135,51.782],[1.168,51.79],[1.219,51.812],[1.276,51.845],[1.288,51.861],[1.228,51.867],[1.2,51.878],[1.278,51.928],[1.262,51.939],[1.095,51.946],[1.079,51.951],[1.143,51.966],[1.165,51.967],[1.206,51.953],[1.251,51.96],[1.271,51.956],[1.275,51.977],[1.26,51.985],[1.214,51.991],[1.158,52.022],[1.185,52.025],[1.235,52],[1.264,51.994],[1.332,51.94],[1.425,52.002],[1.464,52.035],[1.504,52.061],[1.582,52.081],[1.604,52.128],[1.607,52.146],[1.631,52.2],[1.631,52.27],[1.684,52.325],[1.728,52.396],[1.729,52.416],[1.754,52.467],[1.771,52.486],[1.748,52.533],[1.747,52.589],[1.741,52.604],[1.747,52.625],[1.716,52.684],[1.697,52.731],[1.673,52.756],[1.644,52.776],[1.396,52.891],[1.275,52.929],[0.966,52.974],[1.014,52.96],[0.968,52.947],[0.921,52.955],[0.875,52.968],[0.836,52.974],[0.75,52.974],[0.685,52.986],[0.672,52.974],[0.623,52.976],[0.57,52.969],[0.52,52.955],[0.486,52.933],[0.457,52.892],[0.439,52.841],[0.379,52.791],[0.37,52.773],[0.342,52.797],[0.326,52.803],[0.279,52.805],[0.247,52.796],[0.222,52.814],[0.171,52.862],[0.093,52.893],[0.041,52.885],[0.01,52.886],[0.022,52.913],[0.061,52.925],[0.082,52.939],[0.161,53.009],[0.193,53.02],[0.282,53.075],[0.33,53.086],[0.357,53.146],[0.356,53.189],[0.342,53.226],[0.26,53.361],[0.245,53.391],[0.219,53.42],[0.176,53.438],[0.168,53.465],[0.152,53.476],[0.096,53.488],[0.022,53.525],[0,53.535],[-0.047,53.57],[-0.096,53.577],[-0.144,53.607],[-0.189,53.62],[-0.198,53.63],[-0.279,53.707],[-0.307,53.714],[-0.486,53.694],[-0.53,53.678],[-0.596,53.708],[-0.65,53.711],[-0.699,53.691],[-0.726,53.701],[-0.658,53.728],[-0.637,53.732],[-0.579,53.728],[-0.544,53.709],[-0.51,53.714],[-0.45,53.714],[-0.431,53.714],[-0.305,53.74],[-0.296,53.739],[-0.26,53.735],[-0.225,53.72],[-0.13,53.646],[-0.092,53.631],[-0.045,53.626],[0.015,53.643],[0.056,53.641],[0.099,53.622],[0.149,53.61],[0.133,53.643],[-0.045,53.801],[-0.151,53.899],[-0.169,53.929],[-0.197,53.995],[-0.219,54.023],[-0.195,54.062],[-0.164,54.083],[-0.076,54.112],[-0.111,54.132],[-0.2,54.152],[-0.234,54.16],[-0.26,54.177],[-0.277,54.218],[-0.322,54.236],[-0.363,54.242],[-0.398,54.269],[-0.391,54.284],[-0.418,54.304],[-0.418,54.324],[-0.431,54.349],[-0.463,54.389],[-0.52,54.42],[-0.523,54.447],[-0.535,54.461],[-0.563,54.477],[-0.779,54.557],[-0.788,54.561],[-0.993,54.598],[-1.042,54.617],[-1.104,54.625],[-1.138,54.647],[-1.147,54.618],[-1.172,54.626],[-1.193,54.62],[-1.206,54.633],[-1.182,54.639],[-1.165,54.653],[-1.179,54.665],[-1.193,54.694],[-1.172,54.701],[-1.225,54.715],[-1.245,54.725],[-1.275,54.748],[-1.297,54.78],[-1.341,54.873],[-1.36,54.917],[-1.363,54.965],[-1.37,54.976],[-1.413,55],[-1.429,55.033],[-1.456,55.07],[-1.48,55.085],[-1.496,55.135],[-1.522,55.167],[-1.508,55.195],[-1.529,55.216],[-1.521,55.229],[-1.556,55.255],[-1.57,55.286],[-1.556,55.311],[-1.559,55.329],[-1.583,55.355],[-1.589,55.377],[-1.581,55.417],[-1.585,55.484],[-1.611,55.508],[-1.603,55.524],[-1.631,55.537],[-1.617,55.55],[-1.635,55.564],[-1.631,55.585],[-1.699,55.613],[-1.748,55.619],[-1.769,55.642],[-1.793,55.647],[-1.822,55.636],[-1.832,55.651],[-1.853,55.659],[-1.878,55.695],[-2.01,55.791],[-2.023,55.805],[-2.078,55.79],[-2.092,55.757],[-2.117,55.742],[-2.163,55.723],[-2.181,55.702],[-2.243,55.65],[-2.307,55.645],[-2.328,55.638],[-2.327,55.625],[-2.301,55.612],[-2.279,55.589],[-2.257,55.549],[-2.217,55.509],[-2.213,55.49],[-2.183,55.462],[-2.211,55.433],[-2.244,55.422],[-2.272,55.419],[-2.296,55.406],[-2.325,55.398],[-2.359,55.363],[-2.388,55.355],[-2.427,55.366],[-2.463,55.36],[-2.552,55.314],[-2.626,55.263],[-2.619,55.245],[-2.631,55.223],[-2.661,55.213],[-2.685,55.191],[-2.719,55.167],[-2.747,55.156],[-2.822,55.135],[-2.85,55.111],[-2.883,55.084],[-2.922,55.072],[-2.954,55.041],[-2.977,55.04],[-3.015,55.052],[-3.03,55.046],[-3.033,55.015],[-3.05,54.982],[-3.041,54.972],[-3.091,54.954],[-3.04,54.947],[-3.123,54.933],[-3.18,54.941],[-3.214,54.954],[-3.277,54.943],[-3.317,54.92],[-3.255,54.9],[-3.296,54.887],[-3.323,54.89],[-3.345,54.903],[-3.364,54.9],[-3.388,54.883],[-3.408,54.856],[-3.44,54.797],[-3.431,54.78],[-3.44,54.761],[-3.468,54.735],[-3.501,54.726],[-3.516,54.713],[-3.53,54.688],[-3.564,54.643],[-3.59,54.565],[-3.612,54.53],[-3.634,54.513],[-3.613,54.492],[-3.592,54.483],[-3.498,54.406],[-3.474,54.394],[-3.44,54.352],[-3.416,54.345],[-3.404,54.319],[-3.413,54.294],[-3.407,54.278],[-3.364,54.242],[-3.329,54.205],[-3.307,54.192],[-3.232,54.203],[-3.241,54.222],[-3.223,54.258],[-3.207,54.263],[-3.207,54.209],[-3.215,54.18],[-3.248,54.174],[-3.233,54.159],[-3.241,54.112],[-3.22,54.101],[-3.19,54.098],[-3.145,54.064],[-3.145,54.1],[-3.118,54.109],[-3.091,54.139],[-3.061,54.162],[-3.045,54.208],[-3.024,54.222],[-3.008,54.2],[-3.011,54.174],[-2.984,54.153],[-2.939,54.155],[-2.92,54.162],[-2.905,54.188],[-2.821,54.222],[-2.81,54.212],[-2.854,54.194],[-2.836,54.168],[-2.796,54.125],[-2.827,54.089],[-2.859,54.081],[-2.892,54.05],[-2.918,54.034],[-2.895,54.002],[-2.865,54.004],[-2.834,54],[-2.869,53.979],[-2.858,53.968],[-2.882,53.957],[-2.926,53.953],[-3.018,53.932],[-3.041,53.924],[-3.057,53.906],[-3.045,53.878],[-3.056,53.803],[-3.049,53.77],[-3.021,53.746],[-2.985,53.736],[-2.899,53.735],[-2.948,53.709],[-3.022,53.653],[-3.088,53.588],[-3.099,53.572],[-3.097,53.544],[-3.048,53.481],[-2.981,53.393],[-2.957,53.371],[-2.925,53.35],[-2.876,53.331],[-2.81,53.322],[-2.782,53.326],[-2.764,53.345],[-2.751,53.332],[-2.748,53.31],[-2.776,53.3],[-2.806,53.297],[-2.829,53.302],[-2.851,53.289],[-2.881,53.288],[-2.926,53.305],[-2.953,53.324],[-3.012,53.417],[-3.036,53.434],[-3.058,53.435],[-3.094,53.417],[-3.157,53.409],[-3.186,53.393],[-3.185,53.377],[-3.135,53.334],[-3.096,53.287],[-3.085,53.259],[-3.02,53.247],[-2.956,53.216],[-2.914,53.183],[-2.915,53.167],[-2.952,53.153],[-2.957,53.145],[-2.897,53.102],[-2.871,53.066],[-2.851,53.017],[-2.806,52.985],[-2.769,52.982],[-2.728,52.967],[-2.716,52.942],[-2.722,52.918],[-2.779,52.901],[-2.795,52.904],[-2.848,52.937],[-2.878,52.941],[-2.933,52.934],[-2.958,52.95],[-3.004,52.95],[-3.08,52.918],[-3.1,52.897],[-3.128,52.88],[-3.122,52.855],[-3.152,52.83],[-3.14,52.796],[-3.113,52.785],[-3.082,52.783],[-3.058,52.766],[-2.999,52.756],[-2.961,52.734],[-2.967,52.72],[-3.01,52.711],[-3.028,52.687],[-3.036,52.649],[-3.066,52.634],[-3.074,52.607],[-3.116,52.586],[-3.124,52.567],[-3.108,52.545],[-3.111,52.527],[-3.087,52.529],[-3.067,52.545],[-3.02,52.567],[-3.005,52.567],[-2.98,52.55],[-2.976,52.538],[-3.015,52.513],[-3.031,52.497],[-3.108,52.494],[-3.144,52.48],[-3.19,52.469],[-3.213,52.45],[-3.215,52.438],[-3.199,52.413],[-3.165,52.399],[-3.104,52.368],[-3.071,52.347],[-2.957,52.341],[-2.964,52.323],[-2.991,52.31],[-2.999,52.296],[-2.989,52.276],[-2.964,52.272],[-2.968,52.258],[-3.003,52.257],[-3.054,52.23],[-3.067,52.209],[-3.108,52.173],[-3.087,52.141],[-3.122,52.132],[-3.101,52.113],[-3.124,52.076],[-3.088,52.052],[-3.08,52.017],[-3.051,51.984],[-3.028,51.963],[-2.999,51.947],[-2.982,51.923],[-2.953,51.909],[-2.924,51.912],[-2.895,51.926],[-2.874,51.929],[-2.776,51.875],[-2.729,51.838],[-2.696,51.836],[-2.659,51.818],[-2.649,51.821],[-2.676,51.787],[-2.681,51.765],[-2.67,51.75],[-2.684,51.726],[-2.662,51.676],[-2.683,51.659],[-2.673,51.647],[-2.665,51.617]]],[[[0.911,51.412],[0.891,51.421],[0.767,51.448],[0.747,51.44],[0.734,51.412],[0.758,51.386],[0.795,51.371],[0.911,51.364],[0.936,51.371],[0.942,51.383],[0.911,51.412]]],[[[-0.96,50.808],[-0.948,50.818],[-0.973,50.83],[-0.999,50.801],[-1.021,50.788],[-0.939,50.781],[-0.96,50.808]]],[[[-1.083,50.713],[-1.098,50.716],[-1.109,50.733],[-1.144,50.734],[-1.296,50.773],[-1.319,50.772],[-1.343,50.761],[-1.378,50.734],[-1.401,50.722],[-1.419,50.734],[-1.506,50.708],[-1.545,50.686],[-1.535,50.669],[-1.497,50.672],[-1.316,50.589],[-1.279,50.583],[-1.168,50.603],[-1.165,50.641],[-1.129,50.666],[-1.075,50.679],[-1.062,50.693],[-1.083,50.713]]]]}},{"type":"Feature","properties":{"id":"gb-nir"},"geometry":{"type":"MultiPolygon","coordinates":[[[[-7.416,54.944],[-7.437,54.938],[-7.449,54.92],[-7.445,54.884],[-7.471,54.845],[-7.543,54.793],[-7.552,54.755],[-7.567,54.739],[-7.585,54.745],[-7.615,54.739],[-7.65,54.745],[-7.702,54.719],[-7.737,54.707],[-7.771,54.706],[-7.846,54.731],[-7.88,54.711],[-7.93,54.697],[-7.907,54.687],[-7.907,54.661],[-7.864,54.649],[-7.838,54.631],[-7.815,54.639],[-7.754,54.614],[-7.721,54.626],[-7.708,54.605],[-7.749,54.596],[-7.849,54.541],[-7.887,54.532],[-7.926,54.533],[-8.002,54.543],[-8.023,54.53],[-8.056,54.498],[-8.097,54.479],[-8.15,54.469],[-8.161,54.455],[-8.156,54.439],[-8.08,54.38],[-8.031,54.358],[-8.002,54.358],[-7.981,54.327],[-7.951,54.301],[-7.895,54.294],[-7.874,54.271],[-7.87,54.227],[-7.856,54.211],[-7.837,54.204],[-7.782,54.2],[-7.705,54.2],[-7.633,54.169],[-7.621,54.145],[-7.609,54.14],[-7.502,54.125],[-7.481,54.128],[-7.44,54.147],[-7.415,54.146],[-7.39,54.121],[-7.375,54.123],[-7.327,54.114],[-7.31,54.115],[-7.333,54.143],[-7.326,54.155],[-7.296,54.165],[-7.297,54.126],[-7.28,54.126],[-7.264,54.141],[-7.265,54.161],[-7.246,54.167],[-7.261,54.181],[-7.249,54.197],[-7.23,54.208],[-7.175,54.216],[-7.153,54.224],[-7.16,54.241],[-7.146,54.252],[-7.181,54.27],[-7.175,54.284],[-7.209,54.293],[-7.185,54.317],[-7.189,54.336],[-7.16,54.335],[-7.127,54.35],[-7.079,54.395],[-7.049,54.412],[-7.018,54.413],[-6.984,54.403],[-6.922,54.373],[-6.906,54.349],[-6.88,54.342],[-6.87,54.326],[-6.857,54.293],[-6.882,54.277],[-6.838,54.261],[-6.824,54.232],[-6.788,54.203],[-6.745,54.184],[-6.707,54.199],[-6.684,54.194],[-6.648,54.174],[-6.635,54.15],[-6.644,54.132],[-6.666,54.115],[-6.657,54.092],[-6.673,54.068],[-6.616,54.037],[-6.595,54.052],[-6.564,54.049],[-6.479,54.068],[-6.451,54.068],[-6.434,54.055],[-6.378,54.063],[-6.367,54.075],[-6.368,54.097],[-6.355,54.111],[-6.327,54.098],[-6.285,54.105],[-6.213,54.098],[-6.186,54.093],[-6.174,54.074],[-6.085,54.057],[-6.113,54.044],[-6.08,54.035],[-6.041,54.036],[-5.985,54.059],[-5.954,54.079],[-5.912,54.091],[-5.883,54.121],[-5.869,54.161],[-5.866,54.184],[-5.868,54.218],[-5.862,54.231],[-5.779,54.247],[-5.737,54.249],[-5.679,54.246],[-5.656,54.23],[-5.64,54.235],[-5.633,54.256],[-5.613,54.256],[-5.579,54.276],[-5.553,54.299],[-5.541,54.327],[-5.551,54.365],[-5.58,54.384],[-5.622,54.377],[-5.668,54.361],[-5.661,54.38],[-5.626,54.441],[-5.638,54.464],[-5.64,54.496],[-5.674,54.524],[-5.706,54.543],[-5.695,54.561],[-5.702,54.578],[-5.672,54.577],[-5.645,54.568],[-5.575,54.529],[-5.558,54.512],[-5.547,54.489],[-5.544,54.458],[-5.549,54.443],[-5.572,54.426],[-5.577,54.403],[-5.547,54.379],[-5.528,54.345],[-5.502,54.34],[-5.489,54.37],[-5.461,54.392],[-5.464,54.425],[-5.433,54.466],[-5.437,54.488],[-5.469,54.516],[-5.479,54.569],[-5.514,54.598],[-5.537,54.657],[-5.565,54.672],[-5.575,54.68],[-5.695,54.669],[-5.748,54.68],[-5.839,54.65],[-5.87,54.623],[-5.895,54.605],[-5.907,54.606],[-5.914,54.647],[-5.878,54.682],[-5.845,54.701],[-5.818,54.71],[-5.759,54.72],[-5.729,54.729],[-5.707,54.743],[-5.692,54.77],[-5.69,54.793],[-5.702,54.825],[-5.721,54.841],[-5.752,54.857],[-5.782,54.862],[-5.798,54.845],[-5.734,54.805],[-5.775,54.812],[-5.801,54.821],[-5.814,54.863],[-5.83,54.885],[-5.869,54.91],[-5.886,54.941],[-5.93,54.971],[-5.988,54.989],[-5.97,55.026],[-5.968,55.044],[-5.981,55.056],[-6.004,55.063],[-6.054,55.065],[-6.062,55.074],[-6.041,55.112],[-6.037,55.168],[-6.047,55.179],[-6.101,55.212],[-6.16,55.222],[-6.218,55.21],[-6.256,55.211],[-6.353,55.243],[-6.378,55.246],[-6.416,55.232],[-6.476,55.249],[-6.52,55.241],[-6.546,55.225],[-6.571,55.211],[-6.64,55.208],[-6.755,55.178],[-6.838,55.175],[-6.884,55.174],[-6.947,55.195],[-6.969,55.181],[-6.975,55.135],[-6.998,55.119],[-7.018,55.084],[-7.017,55.071],[-7.065,55.044],[-7.099,55.041],[-7.15,55.049],[-7.195,55.058],[-7.257,55.051],[-7.267,55.065],[-7.291,55.047],[-7.355,55.041],[-7.377,55.029],[-7.405,55.004],[-7.413,54.985],[-7.407,54.959],[-7.416,54.944]]],[[[-6.236,55.311],[-6.261,55.308],[-6.261,55.295],[-6.211,55.295],[-6.178,55.281],[-6.172,55.293],[-6.185,55.307],[-6.236,55.311]]]]}},{"type":"Feature","properties":{"id":"gb-sct"},"geometry":{"type":"MultiPolygon","coordinates":[[[[-2.023,55.805],[-2.08,55.869],[-2.099,55.882],[-2.129,55.89],[-2.147,55.917],[-2.308,55.935],[-2.36,55.953],[-2.414,55.978],[-2.453,55.985],[-2.508,56.01],[-2.529,55.997],[-2.544,56.003],[-2.584,56.003],[-2.569,56.024],[-2.588,56.031],[-2.616,56.053],[-2.635,56.058],[-2.803,56.065],[-2.823,56.06],[-2.871,56.031],[-2.858,56.01],[-2.883,56.008],[-2.917,55.981],[-2.94,55.969],[-3.016,55.951],[-3.061,55.948],[-3.078,55.947],[-3.091,55.948],[-3.122,55.969],[-3.303,55.978],[-3.331,55.994],[-3.358,55.99],[-3.405,55.99],[-3.45,55.997],[-3.505,56.006],[-3.577,56.017],[-3.656,56.01],[-3.687,56.031],[-3.721,56.031],[-3.739,56.051],[-3.778,56.083],[-3.837,56.107],[-3.817,56.112],[-3.746,56.073],[-3.71,56.058],[-3.671,56.051],[-3.583,56.052],[-3.421,56.025],[-3.382,56.023],[-3.343,56.027],[-3.248,56.056],[-3.178,56.058],[-3.152,56.079],[-3.138,56.112],[-3.128,56.123],[-3.091,56.132],[-3.036,56.168],[-2.982,56.189],[-2.964,56.206],[-2.892,56.209],[-2.831,56.191],[-2.784,56.192],[-2.72,56.216],[-2.648,56.229],[-2.63,56.249],[-2.577,56.278],[-2.577,56.284],[-2.655,56.322],[-2.677,56.328],[-2.769,56.332],[-2.803,56.345],[-2.822,56.376],[-2.801,56.409],[-2.815,56.44],[-2.85,56.442],[-2.885,56.458],[-2.931,56.448],[-2.95,56.432],[-3.15,56.376],[-3.188,56.37],[-3.231,56.356],[-3.262,56.353],[-3.134,56.427],[-3.099,56.442],[-3.056,56.452],[-2.819,56.471],[-2.765,56.476],[-2.728,56.47],[-2.7,56.504],[-2.641,56.522],[-2.624,56.543],[-2.53,56.581],[-2.481,56.627],[-2.487,56.654],[-2.452,56.691],[-2.436,56.74],[-2.392,56.771],[-2.336,56.791],[-2.269,56.846],[-2.22,56.873],[-2.21,56.896],[-2.186,56.915],[-2.2,56.949],[-2.187,56.985],[-2.156,57.021],[-2.065,57.101],[-2.049,57.119],[-2.071,57.136],[-2.069,57.175],[-2.045,57.227],[-1.98,57.319],[-1.954,57.341],[-1.85,57.394],[-1.83,57.426],[-1.759,57.474],[-1.781,57.48],[-1.775,57.497],[-1.8,57.526],[-1.796,57.545],[-1.811,57.56],[-1.829,57.613],[-1.914,57.665],[-1.932,57.682],[-1.973,57.676],[-1.998,57.703],[-2.108,57.705],[-2.124,57.703],[-2.184,57.678],[-2.21,57.676],[-2.274,57.694],[-2.313,57.69],[-2.329,57.674],[-2.361,57.682],[-2.398,57.668],[-2.433,57.668],[-2.498,57.682],[-2.526,57.669],[-2.542,57.682],[-2.573,57.681],[-2.659,57.697],[-2.693,57.689],[-2.731,57.689],[-2.758,57.703],[-2.821,57.703],[-2.916,57.703],[-2.994,57.676],[-3.035,57.669],[-3.079,57.669],[-3.21,57.694],[-3.285,57.72],[-3.409,57.723],[-3.461,57.71],[-3.492,57.713],[-3.505,57.679],[-3.536,57.662],[-3.575,57.661],[-3.612,57.668],[-3.591,57.641],[-3.632,57.636],[-3.646,57.641],[-3.625,57.662],[-3.685,57.654],[-3.755,57.626],[-3.837,57.593],[-3.868,57.588],[-3.964,57.593],[-4.056,57.585],[-4.035,57.557],[-4.067,57.55],[-4.116,57.522],[-4.149,57.518],[-4.174,57.497],[-4.195,57.492],[-4.249,57.497],[-4.208,57.538],[-4.208,57.552],[-4.151,57.577],[-4.105,57.579],[-4.119,57.593],[-4.083,57.623],[-4.054,57.636],[-4.005,57.676],[-4.025,57.687],[-4.097,57.658],[-4.169,57.664],[-4.202,57.675],[-4.245,57.663],[-4.283,57.641],[-4.329,57.626],[-4.38,57.589],[-4.428,57.578],[-4.403,57.61],[-4.338,57.645],[-4.309,57.655],[-4.295,57.68],[-4.259,57.679],[-4.155,57.693],[-4.078,57.73],[-4.043,57.737],[-4.016,57.723],[-4.024,57.698],[-3.988,57.696],[-3.949,57.725],[-3.926,57.735],[-3.79,57.831],[-3.779,57.856],[-3.798,57.867],[-3.842,57.835],[-3.878,57.817],[-3.915,57.808],[-3.947,57.813],[-3.934,57.826],[-3.951,57.838],[-3.984,57.842],[-4.04,57.818],[-4.075,57.823],[-4.139,57.847],[-4.133,57.83],[-4.173,57.839],[-4.208,57.859],[-4.269,57.847],[-4.308,57.851],[-4.34,57.866],[-4.392,57.908],[-4.353,57.895],[-4.321,57.871],[-4.299,57.863],[-4.218,57.874],[-4.133,57.854],[-4.105,57.854],[-4.07,57.874],[-4.025,57.868],[-3.988,57.908],[-4.016,57.932],[-4.063,57.937],[-4.086,57.952],[-4.03,57.953],[-4.001,57.946],[-3.991,57.96],[-3.917,57.987],[-3.861,57.999],[-3.846,58.011],[-3.828,58.042],[-3.809,58.052],[-3.735,58.072],[-3.515,58.168],[-3.473,58.193],[-3.438,58.236],[-3.385,58.265],[-3.35,58.276],[-3.262,58.293],[-3.221,58.306],[-3.183,58.328],[-3.13,58.369],[-3.086,58.414],[-3.077,58.45],[-3.053,58.466],[-3.064,58.483],[-3.098,58.477],[-3.119,58.484],[-3.129,58.513],[-3.111,58.539],[-3.085,58.552],[-3.049,58.587],[-3.019,58.64],[-3.053,58.648],[-3.119,58.641],[-3.152,58.641],[-3.204,58.661],[-3.244,58.659],[-3.31,58.648],[-3.348,58.652],[-3.358,58.675],[-3.39,58.672],[-3.413,58.656],[-3.386,58.632],[-3.351,58.621],[-3.364,58.601],[-3.391,58.601],[-3.447,58.614],[-3.504,58.603],[-3.532,58.602],[-3.565,58.627],[-3.598,58.627],[-3.66,58.621],[-3.698,58.611],[-3.767,58.584],[-3.81,58.573],[-3.896,58.566],[-3.981,58.573],[-4.004,58.571],[-4.028,58.593],[-4.049,58.59],[-4.081,58.562],[-4.111,58.566],[-4.161,58.563],[-4.177,58.546],[-4.21,58.553],[-4.228,58.548],[-4.257,58.528],[-4.287,58.543],[-4.317,58.546],[-4.382,58.525],[-4.426,58.499],[-4.434,58.484],[-4.461,58.462],[-4.495,58.45],[-4.45,58.51],[-4.427,58.525],[-4.427,58.546],[-4.475,58.566],[-4.517,58.576],[-4.561,58.58],[-4.585,58.574],[-4.612,58.525],[-4.667,58.503],[-4.683,58.485],[-4.742,58.45],[-4.761,58.448],[-4.714,58.506],[-4.667,58.532],[-4.66,58.556],[-4.728,58.577],[-4.759,58.599],[-4.786,58.577],[-4.805,58.548],[-4.818,58.593],[-4.859,58.613],[-4.988,58.628],[-5.005,58.618],[-5.028,58.544],[-5.104,58.514],[-5.106,58.487],[-5.05,58.454],[-5.106,58.437],[-5.076,58.414],[-5.016,58.388],[-5.058,58.387],[-5.116,58.409],[-5.147,58.412],[-5.146,58.395],[-5.173,58.354],[-5.16,58.327],[-5.096,58.277],[-5.05,58.26],[-5.029,58.26],[-5.01,58.271],[-4.927,58.265],[-4.982,58.251],[-5.068,58.251],[-5.112,58.268],[-5.152,58.265],[-5.173,58.251],[-5.194,58.26],[-5.237,58.258],[-5.277,58.243],[-5.311,58.243],[-5.376,58.264],[-5.393,58.245],[-5.347,58.207],[-5.324,58.203],[-5.331,58.182],[-5.275,58.155],[-5.291,58.121],[-5.277,58.086],[-5.301,58.07],[-5.344,58.076],[-5.366,58.066],[-5.39,58.092],[-5.428,58.098],[-5.447,58.084],[-5.414,58.052],[-5.428,58.031],[-5.367,58.029],[-5.293,57.981],[-5.204,57.96],[-5.194,57.936],[-5.197,57.918],[-5.097,57.871],[-5.12,57.868],[-5.162,57.878],[-5.199,57.898],[-5.256,57.915],[-5.297,57.908],[-5.319,57.915],[-5.347,57.937],[-5.366,57.943],[-5.397,57.929],[-5.385,57.914],[-5.321,57.899],[-5.277,57.874],[-5.248,57.867],[-5.222,57.847],[-5.294,57.862],[-5.328,57.873],[-5.369,57.898],[-5.415,57.908],[-5.437,57.898],[-5.449,57.869],[-5.487,57.856],[-5.528,57.868],[-5.556,57.888],[-5.551,57.915],[-5.587,57.915],[-5.613,57.929],[-5.654,57.895],[-5.638,57.866],[-5.599,57.847],[-5.585,57.831],[-5.591,57.804],[-5.618,57.78],[-5.651,57.782],[-5.675,57.827],[-5.674,57.861],[-5.725,57.874],[-5.751,57.873],[-5.79,57.862],[-5.807,57.844],[-5.81,57.821],[-5.801,57.8],[-5.804,57.744],[-5.721,57.733],[-5.685,57.711],[-5.705,57.69],[-5.734,57.708],[-5.791,57.696],[-5.785,57.68],[-5.805,57.667],[-5.806,57.643],[-5.763,57.634],[-5.714,57.583],[-5.681,57.579],[-5.694,57.566],[-5.66,57.545],[-5.633,57.558],[-5.588,57.561],[-5.543,57.555],[-5.517,57.535],[-5.582,57.538],[-5.654,57.532],[-5.651,57.513],[-5.69,57.528],[-5.707,57.542],[-5.733,57.545],[-5.786,57.575],[-5.821,57.583],[-5.839,57.579],[-5.832,57.559],[-5.851,57.551],[-5.852,57.524],[-5.87,57.501],[-5.871,57.481],[-5.859,57.453],[-5.811,57.442],[-5.825,57.429],[-5.811,57.401],[-5.825,57.394],[-5.808,57.355],[-5.785,57.349],[-5.732,57.353],[-5.707,57.36],[-5.64,57.408],[-5.609,57.398],[-5.611,57.371],[-5.563,57.363],[-5.538,57.374],[-5.492,57.409],[-5.465,57.424],[-5.448,57.422],[-5.457,57.394],[-5.501,57.371],[-5.613,57.342],[-5.637,57.34],[-5.654,57.354],[-5.702,57.332],[-5.729,57.298],[-5.721,57.284],[-5.657,57.291],[-5.599,57.279],[-5.558,57.281],[-5.506,57.298],[-5.465,57.325],[-5.441,57.319],[-5.489,57.292],[-5.502,57.278],[-5.449,57.242],[-5.407,57.237],[-5.446,57.223],[-5.48,57.237],[-5.512,57.258],[-5.544,57.271],[-5.578,57.267],[-5.62,57.252],[-5.644,57.233],[-5.626,57.216],[-5.674,57.175],[-5.681,57.158],[-5.668,57.148],[-5.585,57.134],[-5.541,57.106],[-5.504,57.113],[-5.447,57.11],[-5.46,57.1],[-5.558,57.1],[-5.621,57.124],[-5.646,57.129],[-5.674,57.119],[-5.716,57.12],[-5.776,57.076],[-5.791,57.059],[-5.753,57.041],[-5.702,57.045],[-5.68,57.036],[-5.686,57.01],[-5.607,56.989],[-5.585,56.997],[-5.571,56.984],[-5.626,56.977],[-5.659,56.979],[-5.688,56.99],[-5.729,57.024],[-5.755,57.027],[-5.786,57.021],[-5.832,56.997],[-5.863,56.934],[-5.88,56.922],[-5.852,56.908],[-5.888,56.899],[-5.875,56.887],[-5.781,56.899],[-5.736,56.894],[-5.784,56.86],[-5.724,56.854],[-5.734,56.845],[-5.837,56.837],[-5.851,56.818],[-5.802,56.792],[-5.839,56.777],[-5.868,56.776],[-5.861,56.751],[-5.914,56.764],[-5.948,56.783],[-5.98,56.782],[-6.027,56.764],[-6.181,56.755],[-6.215,56.73],[-6.234,56.729],[-6.223,56.695],[-6.187,56.681],[-6.162,56.678],[-6.124,56.696],[-6.099,56.697],[-6.025,56.686],[-5.956,56.689],[-5.897,56.675],[-5.859,56.681],[-5.75,56.715],[-5.709,56.709],[-5.659,56.691],[-5.673,56.684],[-5.736,56.702],[-5.76,56.701],[-5.866,56.661],[-5.867,56.642],[-5.934,56.655],[-5.984,56.653],[-6.008,56.642],[-6.003,56.619],[-5.854,56.55],[-5.77,56.538],[-5.741,56.523],[-5.695,56.514],[-5.667,56.498],[-5.6,56.529],[-5.533,56.573],[-5.493,56.606],[-5.449,56.625],[-5.434,56.643],[-5.388,56.655],[-5.34,56.693],[-5.31,56.706],[-5.268,56.713],[-5.242,56.736],[-5.233,56.761],[-5.202,56.769],[-5.179,56.789],[-5.12,56.818],[-5.155,56.782],[-5.222,56.742],[-5.238,56.717],[-5.161,56.696],[-5.093,56.699],[-5.153,56.681],[-5.219,56.689],[-5.248,56.674],[-5.287,56.675],[-5.318,56.661],[-5.305,56.64],[-5.352,56.613],[-5.411,56.552],[-5.384,56.533],[-5.36,56.532],[-5.311,56.552],[-5.291,56.545],[-5.338,56.524],[-5.379,56.519],[-5.433,56.524],[-5.469,56.476],[-5.455,56.47],[-5.436,56.491],[-5.411,56.504],[-5.394,56.465],[-5.378,56.459],[-5.35,56.473],[-5.244,56.459],[-5.201,56.462],[-5.167,56.49],[-5.119,56.508],[-5.182,56.46],[-5.209,56.447],[-5.242,56.442],[-5.323,56.455],[-5.424,56.45],[-5.457,56.441],[-5.482,56.421],[-5.478,56.413],[-5.51,56.401],[-5.538,56.36],[-5.573,56.328],[-5.598,56.259],[-5.582,56.249],[-5.554,56.263],[-5.513,56.271],[-5.495,56.253],[-5.547,56.24],[-5.559,56.23],[-5.551,56.216],[-5.586,56.181],[-5.599,56.161],[-5.583,56.151],[-5.54,56.183],[-5.51,56.188],[-5.523,56.166],[-5.559,56.131],[-5.551,56.106],[-5.585,56.085],[-5.66,56.023],[-5.696,55.982],[-5.708,55.943],[-5.694,55.935],[-5.674,55.956],[-5.675,55.978],[-5.632,56.006],[-5.626,56.024],[-5.584,56.041],[-5.571,56.038],[-5.587,56.012],[-5.696,55.916],[-5.681,55.887],[-5.628,55.905],[-5.632,55.882],[-5.674,55.846],[-5.668,55.811],[-5.647,55.788],[-5.606,55.777],[-5.587,55.767],[-5.552,55.784],[-5.455,55.846],[-5.473,55.816],[-5.505,55.789],[-5.539,55.771],[-5.581,55.758],[-5.613,55.726],[-5.627,55.701],[-5.681,55.674],[-5.669,55.661],[-5.673,55.641],[-5.722,55.565],[-5.708,55.543],[-5.722,55.514],[-5.716,55.448],[-5.763,55.412],[-5.791,55.399],[-5.795,55.356],[-5.783,55.314],[-5.772,55.301],[-5.726,55.297],[-5.669,55.311],[-5.64,55.304],[-5.594,55.313],[-5.558,55.332],[-5.525,55.359],[-5.515,55.374],[-5.544,55.407],[-5.562,55.42],[-5.562,55.436],[-5.546,55.449],[-5.523,55.483],[-5.511,55.484],[-5.511,55.511],[-5.482,55.55],[-5.489,55.569],[-5.461,55.579],[-5.455,55.592],[-5.484,55.61],[-5.49,55.645],[-5.469,55.654],[-5.461,55.688],[-5.433,55.721],[-5.388,55.75],[-5.339,55.763],[-5.318,55.783],[-5.327,55.809],[-5.352,55.832],[-5.407,55.866],[-5.4,55.893],[-5.413,55.9],[-5.431,55.948],[-5.455,55.956],[-5.448,56.009],[-5.39,56.006],[-5.369,56.009],[-5.35,56.032],[-5.346,56.051],[-5.311,56.058],[-5.228,56.129],[-5.109,56.175],[-5.065,56.229],[-5.033,56.241],[-4.94,56.251],[-4.975,56.237],[-5.043,56.216],[-5.059,56.203],[-5.095,56.157],[-5.146,56.133],[-5.204,56.119],[-5.314,56.012],[-5.338,55.997],[-5.326,55.967],[-5.338,55.931],[-5.335,55.897],[-5.313,55.885],[-5.307,55.86],[-5.219,55.831],[-5.201,55.831],[-5.218,55.865],[-5.242,55.893],[-5.213,55.917],[-5.191,55.962],[-5.172,55.936],[-5.106,55.905],[-5.078,55.911],[-5.086,55.932],[-5.124,55.986],[-5.111,55.989],[-5.071,55.959],[-5.057,55.91],[-5.042,55.885],[-5.026,55.874],[-4.983,55.871],[-4.959,55.89],[-4.947,55.921],[-4.917,55.947],[-4.914,55.962],[-4.929,55.981],[-4.906,55.986],[-4.898,56.001],[-4.904,56.054],[-4.886,56.08],[-4.895,56.115],[-4.921,56.168],[-4.894,56.174],[-4.879,56.151],[-4.881,56.12],[-4.852,56.113],[-4.837,56.124],[-4.78,56.191],[-4.755,56.188],[-4.826,56.124],[-4.865,56.067],[-4.862,56.002],[-4.852,55.988],[-4.828,55.982],[-4.785,55.984],[-4.79,56.01],[-4.838,56.051],[-4.844,56.063],[-4.824,56.079],[-4.811,56.044],[-4.765,56.007],[-4.725,55.998],[-4.673,55.962],[-4.63,55.946],[-4.591,55.942],[-4.489,55.926],[-4.506,55.919],[-4.627,55.93],[-4.673,55.934],[-4.694,55.941],[-4.722,55.94],[-4.786,55.957],[-4.818,55.956],[-4.872,55.937],[-4.886,55.92],[-4.893,55.893],[-4.889,55.865],[-4.883,55.821],[-4.865,55.79],[-4.861,55.757],[-4.876,55.735],[-4.921,55.709],[-4.901,55.692],[-4.869,55.676],[-4.811,55.654],[-4.818,55.637],[-4.777,55.633],[-4.722,55.619],[-4.693,55.605],[-4.671,55.584],[-4.666,55.562],[-4.687,55.544],[-4.651,55.537],[-4.627,55.52],[-4.618,55.496],[-4.626,55.468],[-4.651,55.448],[-4.717,55.43],[-4.749,55.414],[-4.773,55.369],[-4.833,55.331],[-4.84,55.316],[-4.842,55.275],[-4.865,55.241],[-4.867,55.222],[-4.882,55.219],[-4.947,55.168],[-5.008,55.141],[-5.019,55.102],[-5.05,55.049],[-5.047,55.015],[-5.033,54.994],[-5.024,54.976],[-4.988,54.935],[-5.013,54.91],[-5.031,54.911],[-5.061,54.931],[-5.065,54.976],[-5.105,55.026],[-5.171,55.009],[-5.181,54.954],[-5.176,54.915],[-5.157,54.879],[-5.128,54.849],[-5.033,54.782],[-5.003,54.771],[-4.988,54.735],[-4.955,54.729],[-4.959,54.714],[-4.947,54.701],[-4.96,54.676],[-4.944,54.653],[-4.881,54.636],[-4.872,54.649],[-4.867,54.69],[-4.896,54.705],[-4.93,54.763],[-4.948,54.777],[-4.954,54.81],[-4.941,54.825],[-4.906,54.85],[-4.859,54.866],[-4.821,54.867],[-4.8,54.861],[-4.781,54.833],[-4.714,54.818],[-4.597,54.775],[-4.564,54.756],[-4.506,54.705],[-4.461,54.701],[-4.405,54.682],[-4.372,54.682],[-4.348,54.702],[-4.357,54.742],[-4.344,54.756],[-4.358,54.771],[-4.344,54.795],[-4.348,54.807],[-4.372,54.822],[-4.403,54.825],[-4.427,54.869],[-4.409,54.903],[-4.387,54.905],[-4.366,54.873],[-4.345,54.86],[-4.271,54.839],[-4.24,54.843],[-4.201,54.866],[-4.209,54.826],[-4.174,54.792],[-4.123,54.773],[-4.084,54.777],[-4.093,54.793],[-4.079,54.824],[-4.05,54.823],[-4.05,54.79],[-4.043,54.769],[-3.964,54.772],[-3.886,54.806],[-3.824,54.825],[-3.858,54.845],[-3.837,54.852],[-3.844,54.866],[-3.81,54.866],[-3.739,54.86],[-3.718,54.881],[-3.692,54.883],[-3.598,54.878],[-3.571,54.9],[-3.571,54.938],[-3.584,54.968],[-3.571,54.995],[-3.542,54.981],[-3.509,54.982],[-3.501,54.992],[-3.454,54.982],[-3.135,54.968],[-3.05,54.982],[-3.033,55.015],[-3.03,55.046],[-3.015,55.052],[-2.977,55.04],[-2.954,55.041],[-2.922,55.072],[-2.883,55.084],[-2.85,55.111],[-2.822,55.135],[-2.747,55.156],[-2.719,55.167],[-2.685,55.191],[-2.661,55.213],[-2.631,55.223],[-2.619,55.245],[-2.626,55.263],[-2.552,55.314],[-2.463,55.36],[-2.427,55.366],[-2.388,55.355],[-2.359,55.363],[-2.325,55.398],[-2.296,55.406],[-2.272,55.419],[-2.244,55.422],[-2.211,55.433],[-2.183,55.462],[-2.213,55.49],[-2.217,55.509],[-2.257,55.549],[-2.279,55.589],[-2.301,55.612],[-2.327,55.625],[-2.328,55.638],[-2.307,55.645],[-2.243,55.65],[-2.181,55.702],[-2.163,55.723],[-2.117,55.742],[-2.092,55.757],[-2.078,55.79],[-2.023,55.805]]],[[[-5.071,55.509],[-5.12,55.524],[-5.125,55.537],[-5.092,55.544],[-5.094,55.567],[-5.137,55.592],[-5.126,55.606],[-5.146,55.655],[-5.16,55.676],[-5.198,55.704],[-5.263,55.723],[-5.297,55.723],[-5.291,55.709],[-5.324,55.705],[-5.355,55.69],[-5.379,55.668],[-5.393,55.647],[-5.398,55.614],[-5.389,55.59],[-5.346,55.55],[-5.359,55.537],[-5.346,55.483],[-5.305,55.462],[-5.263,55.447],[-5.217,55.438],[-5.164,55.435],[-5.118,55.44],[-5.078,55.455],[-5.093,55.5],[-5.071,55.509]]],[[[-5.03,55.749],[-5.011,55.774],[-5.022,55.806],[-5.05,55.846],[-5.075,55.857],[-5.081,55.88],[-5.106,55.887],[-5.167,55.921],[-5.2,55.911],[-5.201,55.895],[-5.174,55.855],[-5.14,55.842],[-5.126,55.801],[-5.116,55.784],[-5.05,55.749],[-5.029,55.723],[-5.011,55.738],[-5.03,55.749]]],[[[-6.03,55.729],[-6.058,55.743],[-6.05,55.766],[-6.079,55.781],[-6.099,55.801],[-6.102,55.831],[-6.116,55.887],[-6.12,55.929],[-6.14,55.941],[-6.162,55.928],[-6.204,55.917],[-6.229,55.897],[-6.265,55.885],[-6.297,55.867],[-6.331,55.828],[-6.338,55.852],[-6.326,55.88],[-6.354,55.877],[-6.409,55.864],[-6.453,55.841],[-6.461,55.803],[-6.482,55.79],[-6.449,55.777],[-6.493,55.739],[-6.504,55.723],[-6.49,55.715],[-6.504,55.681],[-6.491,55.672],[-6.463,55.674],[-6.419,55.71],[-6.387,55.722],[-6.349,55.773],[-6.329,55.783],[-6.3,55.786],[-6.25,55.777],[-6.296,55.752],[-6.321,55.733],[-6.325,55.715],[-6.277,55.704],[-6.265,55.696],[-6.243,55.66],[-6.297,55.642],[-6.319,55.628],[-6.325,55.606],[-6.311,55.583],[-6.287,55.578],[-6.262,55.584],[-6.223,55.606],[-6.215,55.627],[-6.203,55.631],[-6.16,55.627],[-6.105,55.64],[-6.064,55.668],[-6.024,55.682],[-6.03,55.729]]],[[[-6.206,56.103],[-6.233,56.082],[-6.254,56.045],[-6.249,56.031],[-6.194,56.035],[-6.174,56.044],[-6.177,56.061],[-6.166,56.081],[-6.133,56.113],[-6.138,56.125],[-6.182,56.119],[-6.174,56.106],[-6.206,56.103]]],[[[-5.798,56.113],[-5.874,56.07],[-5.924,56.056],[-5.955,56.035],[-5.983,56.009],[-5.996,55.986],[-5.981,55.97],[-5.91,55.977],[-5.919,55.96],[-5.997,55.952],[-6.043,55.928],[-6.075,55.916],[-6.087,55.883],[-6.078,55.835],[-6.062,55.809],[-6.027,55.796],[-5.988,55.795],[-5.962,55.805],[-5.945,55.859],[-5.897,55.889],[-5.886,55.887],[-5.864,55.927],[-5.78,56.021],[-5.74,56.076],[-5.689,56.112],[-5.694,56.147],[-5.716,56.153],[-5.746,56.142],[-5.798,56.113]]],[[[-5.688,56.202],[-5.738,56.177],[-5.749,56.161],[-5.694,56.169],[-5.674,56.179],[-5.688,56.202]]],[[[-5.633,56.263],[-5.645,56.256],[-5.667,56.222],[-5.648,56.195],[-5.611,56.249],[-5.633,56.263]]],[[[-5.633,56.319],[-5.647,56.299],[-5.64,56.283],[-5.622,56.276],[-5.599,56.284],[-5.605,56.297],[-5.59,56.314],[-5.598,56.322],[-5.633,56.319]]],[[[-5.558,56.414],[-5.585,56.387],[-5.558,56.386],[-5.518,56.404],[-5.527,56.414],[-5.558,56.414]]],[[[-6.16,56.47],[-6.171,56.481],[-6.215,56.504],[-6.242,56.5],[-6.264,56.483],[-6.237,56.47],[-6.16,56.47]]],[[[-6.819,56.538],[-6.841,56.535],[-6.901,56.517],[-6.968,56.51],[-6.99,56.504],[-6.965,56.46],[-6.902,56.444],[-6.869,56.48],[-6.826,56.487],[-6.806,56.497],[-6.804,56.514],[-6.743,56.518],[-6.729,56.53],[-6.742,56.548],[-6.767,56.549],[-6.819,56.538]]],[[[-5.688,56.435],[-5.654,56.428],[-5.648,56.448],[-5.681,56.452],[-5.697,56.476],[-5.722,56.49],[-5.765,56.494],[-5.787,56.514],[-5.829,56.511],[-5.852,56.524],[-5.952,56.524],[-6.009,56.599],[-6.034,56.619],[-6.064,56.62],[-6.058,56.64],[-6.119,56.654],[-6.191,56.645],[-6.22,56.632],[-6.223,56.613],[-6.256,56.62],[-6.288,56.608],[-6.325,56.606],[-6.319,56.594],[-6.29,56.572],[-6.338,56.552],[-6.288,56.532],[-6.195,56.523],[-6.162,56.509],[-6.127,56.474],[-6.017,56.504],[-6.004,56.48],[-6.022,56.464],[-6.082,56.448],[-6.117,56.45],[-6.135,56.442],[-6.157,56.407],[-6.189,56.398],[-6.203,56.38],[-6.179,56.36],[-6.154,56.359],[-6.105,56.366],[-6.047,56.384],[-6.04,56.371],[-6.085,56.353],[-6.154,56.345],[-6.187,56.331],[-6.232,56.337],[-6.229,56.319],[-6.247,56.312],[-6.29,56.345],[-6.335,56.345],[-6.357,56.336],[-6.366,56.322],[-6.36,56.304],[-6.328,56.277],[-6.267,56.263],[-6.24,56.284],[-6.147,56.284],[-6.102,56.298],[-6.066,56.289],[-6.037,56.305],[-5.958,56.328],[-5.915,56.336],[-5.897,56.353],[-5.86,56.358],[-5.854,56.344],[-5.88,56.326],[-5.848,56.314],[-5.809,56.319],[-5.72,56.353],[-5.696,56.375],[-5.712,56.38],[-5.784,56.373],[-5.716,56.408],[-5.703,56.393],[-5.658,56.4],[-5.688,56.435]]],[[[-6.459,56.678],[-6.462,56.691],[-6.506,56.685],[-6.536,56.671],[-6.591,56.652],[-6.648,56.603],[-6.674,56.588],[-6.702,56.586],[-6.687,56.564],[-6.669,56.578],[-6.616,56.575],[-6.564,56.599],[-6.527,56.627],[-6.49,56.64],[-6.459,56.678]]],[[[-6.325,57.059],[-6.364,57.056],[-6.395,57.042],[-6.455,57.004],[-6.405,56.981],[-6.376,56.971],[-6.36,56.947],[-6.342,56.942],[-6.304,56.944],[-6.276,56.953],[-6.257,56.974],[-6.243,57.01],[-6.251,57.027],[-6.273,57.04],[-6.325,57.059]]],[[[-6.606,57.052],[-6.548,57.048],[-6.49,57.059],[-6.537,57.073],[-6.556,57.07],[-6.606,57.052]]],[[[-5.959,57.284],[-5.925,57.292],[-5.929,57.307],[-5.956,57.322],[-5.99,57.326],[-6.014,57.317],[-6.008,57.304],[-5.959,57.284]]],[[[-6.064,57.347],[-6.055,57.326],[-5.989,57.347],[-5.995,57.364],[-6.017,57.388],[-6.018,57.418],[-5.987,57.482],[-6.016,57.497],[-6.037,57.49],[-6.017,57.469],[-6.062,57.453],[-6.069,57.436],[-6.077,57.372],[-6.064,57.347]]],[[[-6.564,57.347],[-6.573,57.376],[-6.562,57.395],[-6.521,57.408],[-6.519,57.39],[-6.476,57.401],[-6.479,57.382],[-6.449,57.36],[-6.451,57.347],[-6.406,57.352],[-6.324,57.311],[-6.338,57.302],[-6.394,57.332],[-6.416,57.335],[-6.482,57.312],[-6.455,57.278],[-6.408,57.243],[-6.346,57.243],[-6.38,57.223],[-6.346,57.188],[-6.313,57.2],[-6.277,57.196],[-6.318,57.161],[-6.177,57.181],[-6.113,57.188],[-6.101,57.135],[-6.074,57.132],[-6.044,57.161],[-6.024,57.196],[-6.035,57.211],[-6.019,57.218],[-5.996,57.196],[-5.986,57.175],[-5.901,57.176],[-5.962,57.142],[-6.003,57.1],[-6,57.084],[-6.027,57.062],[-6.03,57.045],[-6.007,57.028],[-5.953,57.034],[-5.919,57.05],[-5.843,57.108],[-5.8,57.124],[-5.782,57.166],[-5.742,57.168],[-5.691,57.19],[-5.659,57.222],[-5.664,57.24],[-5.647,57.265],[-5.722,57.265],[-5.739,57.277],[-5.796,57.272],[-5.824,57.256],[-5.866,57.257],[-5.901,57.243],[-5.923,57.267],[-5.977,57.27],[-6.008,57.287],[-6.051,57.279],[-6.045,57.308],[-6.068,57.312],[-6.154,57.306],[-6.107,57.323],[-6.106,57.34],[-6.135,57.357],[-6.14,57.374],[-6.118,57.398],[-6.152,57.418],[-6.136,57.461],[-6.135,57.49],[-6.145,57.52],[-6.154,57.59],[-6.188,57.621],[-6.233,57.641],[-6.26,57.669],[-6.314,57.699],[-6.338,57.699],[-6.36,57.668],[-6.416,57.646],[-6.396,57.613],[-6.4,57.6],[-6.372,57.592],[-6.372,57.573],[-6.39,57.552],[-6.373,57.532],[-6.325,57.497],[-6.325,57.483],[-6.387,57.517],[-6.4,57.521],[-6.465,57.513],[-6.501,57.536],[-6.564,57.559],[-6.572,57.583],[-6.62,57.607],[-6.631,57.577],[-6.655,57.552],[-6.599,57.538],[-6.574,57.522],[-6.564,57.504],[-6.611,57.512],[-6.631,57.494],[-6.599,57.469],[-6.62,57.446],[-6.706,57.511],[-6.726,57.511],[-6.747,57.488],[-6.745,57.476],[-6.722,57.456],[-6.784,57.456],[-6.773,57.434],[-6.732,57.417],[-6.715,57.377],[-6.672,57.356],[-6.581,57.339],[-6.564,57.347]]],[[[-7.394,57.01],[-7.435,57.024],[-7.414,57.045],[-7.449,57.059],[-7.457,57.032],[-7.524,57.01],[-7.514,57.003],[-7.517,56.981],[-7.545,56.972],[-7.557,56.953],[-7.477,56.942],[-7.445,56.947],[-7.442,56.963],[-7.402,56.983],[-7.382,56.988],[-7.394,57.01]]],[[[-7.244,57.326],[-7.29,57.328],[-7.322,57.347],[-7.37,57.355],[-7.394,57.381],[-7.371,57.388],[-7.332,57.361],[-7.25,57.332],[-7.223,57.34],[-7.276,57.365],[-7.264,57.374],[-7.353,57.408],[-7.428,57.388],[-7.402,57.342],[-7.39,57.312],[-7.41,57.296],[-7.435,57.252],[-7.455,57.237],[-7.414,57.216],[-7.417,57.182],[-7.391,57.129],[-7.353,57.1],[-7.322,57.11],[-7.239,57.101],[-7.216,57.114],[-7.236,57.121],[-7.271,57.148],[-7.258,57.18],[-7.271,57.216],[-7.289,57.226],[-7.353,57.237],[-7.353,57.243],[-7.276,57.232],[-7.257,57.237],[-7.233,57.274],[-7.2,57.291],[-7.244,57.326]]],[[[-7.264,57.483],[-7.298,57.49],[-7.322,57.483],[-7.37,57.489],[-7.389,57.48],[-7.408,57.446],[-7.396,57.434],[-7.318,57.408],[-7.292,57.405],[-7.205,57.419],[-7.212,57.432],[-7.25,57.435],[-7.245,57.45],[-7.222,57.461],[-7.236,57.476],[-7.264,57.483]]],[[[-7.129,57.653],[-7.165,57.67],[-7.182,57.689],[-7.209,57.686],[-7.256,57.667],[-7.278,57.65],[-7.333,57.662],[-7.367,57.651],[-7.397,57.635],[-7.414,57.648],[-7.477,57.662],[-7.522,57.608],[-7.545,57.593],[-7.471,57.567],[-7.442,57.579],[-7.412,57.575],[-7.351,57.554],[-7.318,57.517],[-7.287,57.509],[-7.158,57.511],[-7.134,57.538],[-7.144,57.549],[-7.181,57.554],[-7.24,57.545],[-7.312,57.545],[-7.312,57.552],[-7.257,57.572],[-7.243,57.556],[-7.15,57.562],[-7.126,57.571],[-7.106,57.593],[-7.154,57.587],[-7.164,57.61],[-7.202,57.613],[-7.197,57.631],[-7.171,57.641],[-7.099,57.607],[-7.065,57.634],[-7.093,57.652],[-7.129,57.653]]],[[[-7.223,57.71],[-7.199,57.708],[-7.152,57.726],[-7.18,57.735],[-7.223,57.71]]],[[[-8.621,57.833],[-8.611,57.813],[-8.591,57.805],[-8.552,57.819],[-8.605,57.826],[-8.621,57.833]]],[[[-7.045,57.902],[-7.009,57.89],[-6.997,57.894],[-6.997,57.915],[-7.038,57.916],[-7.079,57.895],[-7.055,57.884],[-7.045,57.902]]],[[[-6.873,58.217],[-6.873,58.21],[-6.791,58.21],[-6.802,58.226],[-6.829,58.234],[-6.861,58.253],[-6.886,58.248],[-6.873,58.217]]],[[[-6.955,57.744],[-6.894,57.767],[-6.888,57.785],[-6.839,57.813],[-6.806,57.815],[-6.791,57.826],[-6.756,57.826],[-6.737,57.839],[-6.764,57.868],[-6.806,57.88],[-6.778,57.902],[-6.743,57.891],[-6.661,57.88],[-6.668,57.908],[-6.689,57.915],[-6.674,57.929],[-6.705,57.953],[-6.73,57.963],[-6.764,58.004],[-6.716,58.025],[-6.693,58.041],[-6.688,58.059],[-6.592,58.059],[-6.666,58.045],[-6.695,58.03],[-6.709,58.004],[-6.7,57.976],[-6.651,57.924],[-6.578,57.917],[-6.537,57.921],[-6.551,57.943],[-6.508,57.936],[-6.49,57.943],[-6.455,57.977],[-6.47,57.987],[-6.505,57.992],[-6.518,58.013],[-6.424,58.004],[-6.401,58.007],[-6.352,58.039],[-6.391,58.046],[-6.366,58.059],[-6.394,58.102],[-6.421,58.106],[-6.451,58.096],[-6.581,58.079],[-6.524,58.107],[-6.499,58.1],[-6.475,58.105],[-6.441,58.127],[-6.391,58.134],[-6.373,58.141],[-6.366,58.162],[-6.4,58.21],[-6.338,58.196],[-6.294,58.199],[-6.247,58.185],[-6.215,58.189],[-6.186,58.21],[-6.16,58.217],[-6.167,58.23],[-6.154,58.245],[-6.161,58.259],[-6.195,58.251],[-6.243,58.223],[-6.271,58.216],[-6.311,58.215],[-6.348,58.221],[-6.338,58.238],[-6.318,58.245],[-6.318,58.268],[-6.288,58.275],[-6.279,58.289],[-6.254,58.293],[-6.25,58.313],[-6.189,58.341],[-6.196,58.356],[-6.215,58.368],[-6.192,58.409],[-6.167,58.42],[-6.188,58.446],[-6.205,58.481],[-6.243,58.511],[-6.267,58.512],[-6.296,58.497],[-6.346,58.463],[-6.523,58.391],[-6.557,58.369],[-6.621,58.351],[-6.681,58.347],[-6.716,58.34],[-6.737,58.324],[-6.819,58.285],[-6.791,58.271],[-6.812,58.265],[-6.784,58.23],[-6.753,58.225],[-6.743,58.203],[-6.709,58.189],[-6.737,58.168],[-6.749,58.183],[-6.798,58.202],[-6.869,58.189],[-6.888,58.168],[-6.86,58.135],[-6.873,58.117],[-6.898,58.157],[-6.897,58.172],[-6.93,58.197],[-6.937,58.211],[-6.907,58.217],[-6.962,58.23],[-6.977,58.227],[-7.031,58.245],[-7.056,58.226],[-7.054,58.201],[-7.038,58.185],[-7.113,58.182],[-7.093,58.168],[-7.113,58.155],[-7.126,58.124],[-7.108,58.112],[-7.113,58.1],[-7.076,58.062],[-7.035,58.066],[-7.058,58.039],[-7.072,58.012],[-7.113,57.99],[-7.036,57.961],[-7.01,57.955],[-6.952,57.957],[-6.897,57.936],[-6.839,57.936],[-6.839,57.929],[-6.882,57.914],[-6.912,57.911],[-6.963,57.895],[-6.963,57.888],[-6.914,57.868],[-6.962,57.869],[-7.079,57.813],[-7.089,57.833],[-7.125,57.837],[-7.102,57.811],[-7.041,57.77],[-6.981,57.735],[-6.955,57.744]]],[[[-2.953,58.84],[-2.997,58.835],[-3.036,58.82],[-3.004,58.808],[-2.974,58.772],[-2.988,58.757],[-2.94,58.731],[-2.911,58.749],[-2.926,58.779],[-2.914,58.81],[-2.885,58.82],[-2.884,58.832],[-2.907,58.838],[-2.953,58.84]]],[[[-3.248,58.792],[-3.215,58.814],[-3.173,58.82],[-3.193,58.854],[-3.246,58.896],[-3.288,58.906],[-3.322,58.924],[-3.349,58.929],[-3.393,58.92],[-3.416,58.908],[-3.433,58.885],[-3.43,58.875],[-3.374,58.868],[-3.379,58.854],[-3.358,58.833],[-3.328,58.818],[-3.299,58.779],[-3.206,58.779],[-3.156,58.787],[-3.132,58.806],[-3.16,58.808],[-3.218,58.793],[-3.248,58.792]]],[[[-2.728,58.971],[-2.796,58.957],[-2.775,58.929],[-2.812,58.929],[-2.838,58.95],[-2.782,58.974],[-2.79,58.992],[-2.831,58.988],[-2.865,58.975],[-2.933,59.011],[-2.974,58.999],[-3.012,59.017],[-3.06,58.991],[-3.117,58.998],[-3.054,59.047],[-2.994,59.06],[-2.994,59.073],[-3.051,59.09],[-3.049,59.108],[-3.085,59.128],[-3.122,59.124],[-3.156,59.142],[-3.231,59.148],[-3.279,59.144],[-3.324,59.127],[-3.35,59.098],[-3.344,59.053],[-3.367,59.016],[-3.353,58.983],[-3.323,58.957],[-3.289,58.957],[-3.257,58.978],[-3.267,59.007],[-3.241,59.011],[-3.246,59.031],[-3.228,59.039],[-3.207,59.005],[-3.235,58.973],[-3.239,58.951],[-3.228,58.929],[-3.203,58.916],[-3.143,58.921],[-3.118,58.916],[-3.101,58.93],[-3.07,58.929],[-3.053,58.939],[-3.024,58.94],[-2.994,58.959],[-2.974,58.954],[-2.937,58.913],[-2.915,58.899],[-2.839,58.883],[-2.808,58.888],[-2.785,58.911],[-2.734,58.92],[-2.707,58.932],[-2.708,58.959],[-2.728,58.971]]],[[[-2.542,59.121],[-2.584,59.121],[-2.595,59.13],[-2.578,59.147],[-2.618,59.148],[-2.626,59.162],[-2.666,59.155],[-2.624,59.134],[-2.622,59.116],[-2.666,59.108],[-2.686,59.089],[-2.649,59.086],[-2.652,59.101],[-2.614,59.107],[-2.576,59.08],[-2.533,59.084],[-2.515,59.094],[-2.542,59.103],[-2.542,59.121]]],[[[-3.005,59.128],[-2.975,59.134],[-2.977,59.163],[-2.953,59.183],[-2.981,59.187],[-3.022,59.182],[-3.049,59.197],[-3.102,59.19],[-3.12,59.177],[-3.115,59.158],[-3.066,59.134],[-3.005,59.128]]],[[[-2.83,59.197],[-2.83,59.176],[-2.802,59.168],[-2.781,59.141],[-2.734,59.148],[-2.759,59.164],[-2.761,59.193],[-2.728,59.224],[-2.777,59.253],[-2.792,59.237],[-2.786,59.197],[-2.83,59.197]]],[[[-2.446,59.293],[-2.492,59.289],[-2.519,59.274],[-2.566,59.269],[-2.547,59.306],[-2.588,59.293],[-2.596,59.265],[-2.625,59.258],[-2.659,59.23],[-2.688,59.218],[-2.662,59.207],[-2.604,59.245],[-2.569,59.238],[-2.516,59.252],[-2.497,59.239],[-2.459,59.279],[-2.392,59.285],[-2.405,59.316],[-2.446,59.293]]],[[[-3.049,59.32],[-3.02,59.28],[-2.99,59.267],[-2.947,59.291],[-2.871,59.271],[-2.895,59.303],[-2.988,59.32],[-2.96,59.327],[-2.98,59.355],[-3.008,59.334],[-3.049,59.32]]],[[[-1.651,59.529],[-1.645,59.514],[-1.597,59.532],[-1.644,59.546],[-1.651,59.529]]],[[[-0.785,60.615],[-0.811,60.612],[-0.822,60.629],[-0.939,60.629],[-0.939,60.621],[-0.905,60.587],[-0.842,60.588],[-0.785,60.576],[-0.761,60.588],[-0.758,60.608],[-0.785,60.615]]],[[[-1.097,60.416],[-1.14,60.399],[-1.165,60.412],[-1.224,60.411],[-1.158,60.444],[-1.186,60.482],[-1.218,60.498],[-1.26,60.465],[-1.234,60.444],[-1.297,60.438],[-1.352,60.418],[-1.295,60.492],[-1.336,60.485],[-1.316,60.519],[-1.336,60.533],[-1.301,60.565],[-1.309,60.588],[-1.294,60.593],[-1.291,60.623],[-1.324,60.621],[-1.316,60.594],[-1.367,60.612],[-1.419,60.608],[-1.425,60.588],[-1.411,60.58],[-1.458,60.564],[-1.48,60.539],[-1.436,60.519],[-1.396,60.517],[-1.417,60.502],[-1.455,60.509],[-1.488,60.526],[-1.501,60.547],[-1.527,60.557],[-1.548,60.539],[-1.562,60.511],[-1.595,60.507],[-1.609,60.483],[-1.572,60.477],[-1.5,60.485],[-1.496,60.461],[-1.459,60.473],[-1.438,60.461],[-1.439,60.431],[-1.395,60.409],[-1.395,60.39],[-1.284,60.364],[-1.343,60.348],[-1.364,60.321],[-1.336,60.307],[-1.364,60.286],[-1.374,60.308],[-1.396,60.322],[-1.446,60.321],[-1.528,60.313],[-1.556,60.307],[-1.565,60.293],[-1.603,60.313],[-1.657,60.306],[-1.69,60.285],[-1.67,60.24],[-1.633,60.23],[-1.615,60.216],[-1.548,60.23],[-1.527,60.193],[-1.494,60.17],[-1.455,60.156],[-1.438,60.163],[-1.431,60.185],[-1.398,60.193],[-1.385,60.211],[-1.35,60.211],[-1.376,60.238],[-1.358,60.244],[-1.329,60.204],[-1.287,60.246],[-1.268,60.245],[-1.295,60.215],[-1.312,60.181],[-1.268,60.142],[-1.263,60.115],[-1.288,60.076],[-1.303,60.028],[-1.329,59.996],[-1.323,59.978],[-1.35,59.971],[-1.323,59.957],[-1.364,59.937],[-1.358,59.922],[-1.376,59.909],[-1.348,59.892],[-1.316,59.896],[-1.275,59.854],[-1.261,59.866],[-1.275,59.882],[-1.263,59.907],[-1.268,59.923],[-1.254,59.937],[-1.243,59.977],[-1.193,59.998],[-1.215,60.026],[-1.204,60.037],[-1.17,60.046],[-1.174,60.06],[-1.202,60.083],[-1.185,60.094],[-1.195,60.109],[-1.182,60.129],[-1.152,60.15],[-1.124,60.156],[-1.158,60.17],[-1.144,60.188],[-1.187,60.191],[-1.158,60.225],[-1.219,60.238],[-1.185,60.251],[-1.13,60.253],[-1.09,60.273],[-1.122,60.279],[-1.138,60.291],[-1.075,60.321],[-1.101,60.331],[-1.152,60.337],[-1.157,60.351],[-1.079,60.355],[-1.062,60.385],[-1.068,60.396],[-1.119,60.391],[-1.049,60.433],[-1.073,60.445],[-1.097,60.416]]],[[[-0.987,60.698],[-1.001,60.704],[-0.993,60.731],[-1.058,60.73],[-1.092,60.735],[-1.114,60.715],[-1.12,60.697],[-1.111,60.681],[-1.124,60.66],[-1.103,60.615],[-1.13,60.619],[-1.138,60.649],[-1.171,60.646],[-1.18,60.625],[-1.168,60.53],[-1.154,60.508],[-1.131,60.496],[-1.097,60.492],[-1.08,60.505],[-1.032,60.501],[-1.021,60.516],[-1.042,60.553],[-1.023,60.556],[-1.011,60.578],[-1.064,60.604],[-1.014,60.615],[-1.051,60.656],[-1.026,60.654],[-0.993,60.636],[-0.98,60.657],[-0.997,60.676],[-0.987,60.698]]],[[[-0.905,60.684],[-0.87,60.684],[-0.846,60.676],[-0.822,60.685],[-0.85,60.718],[-0.802,60.745],[-0.808,60.779],[-0.761,60.8],[-0.772,60.833],[-0.795,60.841],[-0.86,60.838],[-0.881,60.845],[-0.904,60.814],[-0.939,60.8],[-0.926,60.785],[-0.936,60.756],[-0.952,60.752],[-0.943,60.726],[-0.962,60.718],[-0.966,60.69],[-0.935,60.682],[-0.905,60.684]]],[[[-1.315,60.094],[-1.316,60.115],[-1.346,60.109],[-1.348,60.083],[-1.327,60.051],[-1.305,60.087],[-1.315,60.094]]],[[[-2.053,60.156],[-2.088,60.155],[-2.112,60.138],[-2.063,60.118],[-2.048,60.129],[-2.053,60.156]]],[[[-1.063,60.164],[-1.075,60.183],[-1.098,60.176],[-1.135,60.179],[-1.119,60.156],[-1.122,60.123],[-1.074,60.108],[-1.053,60.148],[-1.063,60.164]]],[[[-0.919,60.386],[-0.968,60.381],[-1.006,60.369],[-1.034,60.34],[-1.015,60.334],[-0.976,60.34],[-0.911,60.382],[-0.919,60.386]]]]}},{"type":"Feature","properties":{"id":"gb-wls"},"geometry":{"type":"MultiPolygon","coordinates":[[[[-3.085,53.259],[-3.095,53.239],[-3.122,53.262],[-3.251,53.313],[-3.271,53.331],[-3.33,53.352],[-3.36,53.351],[-3.372,53.351],[-3.513,53.309],[-3.562,53.294],[-3.602,53.289],[-3.716,53.287],[-3.732,53.293],[-3.769,53.319],[-3.791,53.323],[-3.81,53.317],[-3.841,53.333],[-3.871,53.326],[-3.841,53.307],[-3.831,53.289],[-3.865,53.289],[-3.975,53.262],[-4,53.249],[-4.067,53.229],[-4.091,53.235],[-4.152,53.228],[-4.178,53.218],[-4.201,53.201],[-4.235,53.164],[-4.264,53.155],[-4.304,53.125],[-4.312,53.109],[-4.341,53.113],[-4.346,53.059],[-4.358,53.028],[-4.424,53.003],[-4.443,52.982],[-4.524,52.944],[-4.596,52.928],[-4.735,52.83],[-4.755,52.809],[-4.747,52.783],[-4.704,52.803],[-4.649,52.8],[-4.626,52.803],[-4.607,52.815],[-4.583,52.815],[-4.516,52.789],[-4.489,52.803],[-4.501,52.827],[-4.482,52.851],[-4.446,52.876],[-4.407,52.893],[-4.337,52.892],[-4.301,52.906],[-4.229,52.919],[-4.172,52.913],[-4.144,52.915],[-4.119,52.927],[-4.1,52.914],[-4.078,52.927],[-4.064,52.919],[-4.13,52.889],[-4.132,52.868],[-4.117,52.831],[-4.146,52.82],[-4.144,52.803],[-4.125,52.778],[-4.049,52.722],[-4.015,52.732],[-4.001,52.724],[-4.057,52.701],[-4.064,52.683],[-4.085,52.673],[-4.106,52.654],[-4.122,52.629],[-4.125,52.604],[-4.114,52.589],[-4.068,52.55],[-4.053,52.542],[-3.974,52.557],[-3.947,52.551],[-3.999,52.526],[-4.016,52.522],[-4.048,52.53],[-4.063,52.521],[-4.057,52.488],[-4.079,52.453],[-4.096,52.388],[-4.11,52.365],[-4.139,52.33],[-4.197,52.279],[-4.316,52.216],[-4.371,52.209],[-4.415,52.182],[-4.455,52.162],[-4.484,52.156],[-4.514,52.136],[-4.638,52.138],[-4.676,52.127],[-4.673,52.097],[-4.694,52.107],[-4.72,52.113],[-4.778,52.065],[-4.797,52.056],[-4.83,52.053],[-4.838,52.04],[-4.832,52.019],[-4.863,52.017],[-4.902,52.026],[-4.914,52.015],[-4.962,52.008],[-5.015,52.025],[-5.07,52.026],[-5.083,52.014],[-5.088,51.976],[-5.12,51.959],[-5.204,51.942],[-5.234,51.923],[-5.289,51.917],[-5.298,51.911],[-5.291,51.892],[-5.303,51.885],[-5.291,51.864],[-5.236,51.871],[-5.164,51.867],[-5.126,51.856],[-5.118,51.844],[-5.107,51.788],[-5.126,51.769],[-5.177,51.76],[-5.203,51.741],[-5.23,51.73],[-5.181,51.706],[-5.149,51.718],[-5.01,51.706],[-4.988,51.707],[-4.911,51.718],[-4.892,51.739],[-4.906,51.747],[-4.901,51.762],[-4.921,51.78],[-4.865,51.783],[-4.879,51.762],[-4.873,51.738],[-4.845,51.72],[-4.893,51.706],[-4.941,51.7],[-4.988,51.686],[-5.029,51.693],[-5.037,51.678],[-5.113,51.685],[-5.1,51.665],[-5.051,51.657],[-5.037,51.637],[-5.046,51.627],[-5.022,51.616],[-4.956,51.603],[-4.941,51.597],[-4.905,51.614],[-4.879,51.637],[-4.848,51.646],[-4.759,51.645],[-4.735,51.659],[-4.712,51.65],[-4.68,51.693],[-4.678,51.717],[-4.639,51.733],[-4.574,51.741],[-4.499,51.735],[-4.461,51.736],[-4.427,51.747],[-4.449,51.766],[-4.427,51.775],[-4.393,51.764],[-4.371,51.786],[-4.358,51.773],[-4.372,51.755],[-4.363,51.743],[-4.329,51.733],[-4.338,51.723],[-4.379,51.727],[-4.366,51.708],[-4.342,51.691],[-4.294,51.672],[-4.215,51.68],[-4.201,51.686],[-4.146,51.667],[-4.095,51.665],[-4.071,51.676],[-4.07,51.662],[-4.091,51.64],[-4.139,51.632],[-4.19,51.63],[-4.221,51.624],[-4.235,51.631],[-4.29,51.617],[-4.278,51.578],[-4.297,51.569],[-4.272,51.555],[-4.213,51.539],[-4.197,51.549],[-4.166,51.543],[-4.122,51.566],[-4.066,51.558],[-4.053,51.569],[-4.032,51.563],[-3.975,51.563],[-4,51.591],[-3.99,51.607],[-3.962,51.616],[-3.887,51.621],[-3.855,51.624],[-3.833,51.616],[-3.808,51.589],[-3.782,51.577],[-3.752,51.533],[-3.742,51.508],[-3.748,51.501],[-3.718,51.479],[-3.695,51.472],[-3.663,51.476],[-3.605,51.446],[-3.575,51.42],[-3.539,51.399],[-3.289,51.384],[-3.219,51.403],[-3.185,51.398],[-3.167,51.41],[-3.16,51.432],[-3.173,51.453],[-3.141,51.465],[-3.132,51.48],[-3.106,51.497],[-3.077,51.508],[-3.016,51.532],[-2.975,51.563],[-2.943,51.543],[-2.859,51.546],[-2.798,51.563],[-2.76,51.58],[-2.713,51.587],[-2.665,51.617],[-2.673,51.647],[-2.683,51.659],[-2.662,51.676],[-2.684,51.726],[-2.67,51.75],[-2.681,51.765],[-2.676,51.787],[-2.649,51.821],[-2.659,51.818],[-2.696,51.836],[-2.729,51.838],[-2.776,51.875],[-2.874,51.929],[-2.895,51.926],[-2.924,51.912],[-2.953,51.909],[-2.982,51.923],[-2.999,51.947],[-3.028,51.963],[-3.051,51.984],[-3.08,52.017],[-3.088,52.052],[-3.124,52.076],[-3.101,52.113],[-3.122,52.132],[-3.087,52.141],[-3.108,52.173],[-3.067,52.209],[-3.054,52.23],[-3.003,52.257],[-2.968,52.258],[-2.964,52.272],[-2.989,52.276],[-2.999,52.296],[-2.991,52.31],[-2.964,52.323],[-2.957,52.341],[-3.071,52.347],[-3.104,52.368],[-3.165,52.399],[-3.199,52.413],[-3.215,52.438],[-3.213,52.45],[-3.19,52.469],[-3.144,52.48],[-3.108,52.494],[-3.031,52.497],[-3.015,52.513],[-2.976,52.538],[-2.98,52.55],[-3.005,52.567],[-3.02,52.567],[-3.067,52.545],[-3.087,52.529],[-3.111,52.527],[-3.108,52.545],[-3.124,52.567],[-3.116,52.586],[-3.074,52.607],[-3.066,52.634],[-3.036,52.649],[-3.028,52.687],[-3.01,52.711],[-2.967,52.72],[-2.961,52.734],[-2.999,52.756],[-3.058,52.766],[-3.082,52.783],[-3.113,52.785],[-3.14,52.796],[-3.152,52.83],[-3.122,52.855],[-3.128,52.88],[-3.1,52.897],[-3.08,52.918],[-3.004,52.95],[-2.958,52.95],[-2.933,52.934],[-2.878,52.941],[-2.848,52.937],[-2.795,52.904],[-2.779,52.901],[-2.722,52.918],[-2.716,52.942],[-2.728,52.967],[-2.769,52.982],[-2.806,52.985],[-2.851,53.017],[-2.871,53.066],[-2.897,53.102],[-2.957,53.145],[-2.952,53.153],[-2.915,53.167],[-2.914,53.183],[-2.956,53.216],[-3.02,53.247],[-3.085,53.259]]],[[[-4.577,53.272],[-4.581,53.285],[-4.604,53.308],[-4.626,53.321],[-4.667,53.324],[-4.694,53.31],[-4.677,53.285],[-4.641,53.284],[-4.623,53.276],[-4.602,53.253],[-4.582,53.242],[-4.558,53.253],[-4.577,53.272]]],[[[-4.098,53.31],[-4.128,53.315],[-4.137,53.305],[-4.178,53.298],[-4.203,53.298],[-4.215,53.324],[-4.235,53.34],[-4.234,53.353],[-4.267,53.369],[-4.277,53.401],[-4.325,53.42],[-4.425,53.427],[-4.553,53.401],[-4.571,53.393],[-4.559,53.363],[-4.565,53.293],[-4.571,53.275],[-4.553,53.262],[-4.52,53.223],[-4.5,53.211],[-4.496,53.183],[-4.449,53.163],[-4.433,53.163],[-4.411,53.182],[-4.39,53.173],[-4.412,53.156],[-4.413,53.132],[-4.392,53.138],[-4.344,53.132],[-4.28,53.155],[-4.229,53.182],[-4.22,53.201],[-4.196,53.22],[-4.147,53.239],[-4.098,53.25],[-4.063,53.289],[-4.043,53.303],[-4.069,53.31],[-4.098,53.31]]]]}}]}