{"type":"FeatureCollection","features":[{"type":"Feature","properties":{"id":"it-21"},"geometry":{"type":"Polygon","coordinates":[[[7.075,45.466],[7.097,45.435],[7.161,45.411],[7.16,45.398],[7.13,45.357],[7.093,45.324],[7.098,45.295],[7.108,45.275],[7.108,45.259],[7.081,45.243],[7.062,45.219],[7.05,45.215],[7.03,45.228],[6.994,45.221],[6.959,45.21],[6.928,45.18],[6.914,45.17],[6.881,45.168],[6.868,45.157],[6.877,45.141],[6.844,45.13],[6.808,45.139],[6.771,45.153],[6.736,45.157],[6.694,45.14],[6.667,45.14],[6.633,45.126],[6.603,45.103],[6.637,45.074],[6.64,45.05],[6.662,45.029],[6.697,45.027],[6.723,45.013],[6.73,44.985],[6.728,44.929],[6.745,44.908],[6.778,44.888],[6.847,44.859],[6.866,44.856],[6.915,44.863],[6.933,44.862],[6.983,44.847],[7.007,44.822],[6.998,44.794],[7.01,44.772],[7.019,44.739],[7.039,44.712],[7.055,44.685],[7.037,44.685],[7.001,44.692],[6.983,44.692],[6.96,44.683],[6.941,44.667],[6.934,44.647],[6.946,44.625],[6.932,44.618],[6.897,44.575],[6.846,44.547],[6.836,44.534],[6.839,44.503],[6.861,44.475],[6.918,44.436],[6.884,44.423],[6.877,44.414],[6.866,44.372],[6.874,44.358],[6.896,44.34],[6.921,44.302],[6.959,44.277],[6.973,44.249],[6.996,44.238],[7.033,44.243],[7.105,44.218],[7.145,44.207],[7.251,44.16],[7.309,44.147],[7.322,44.132],[7.341,44.124],[7.381,44.123],[7.555,44.159],[7.584,44.161],[7.625,44.18],[7.656,44.176],[7.642,44.144],[7.654,44.125],[7.676,44.109],[7.688,44.091],[7.709,44.092],[7.738,44.099],[7.729,44.115],[7.74,44.134],[7.758,44.144],[7.774,44.143],[7.807,44.129],[7.834,44.125],[7.9,44.123],[7.918,44.119],[7.988,44.113],[8.002,44.118],[8.002,44.127],[7.982,44.142],[7.986,44.152],[8.007,44.165],[8.04,44.158],[8.058,44.164],[8.078,44.186],[8.079,44.21],[8.069,44.226],[8.07,44.256],[8.078,44.288],[8.072,44.311],[8.097,44.323],[8.141,44.357],[8.148,44.377],[8.169,44.404],[8.188,44.408],[8.206,44.422],[8.211,44.446],[8.194,44.47],[8.221,44.518],[8.236,44.532],[8.25,44.535],[8.265,44.522],[8.313,44.497],[8.36,44.481],[8.371,44.486],[8.39,44.507],[8.414,44.516],[8.438,44.512],[8.476,44.518],[8.564,44.516],[8.582,44.525],[8.601,44.549],[8.597,44.562],[8.613,44.588],[8.632,44.589],[8.711,44.583],[8.725,44.579],[8.765,44.53],[8.766,44.505],[8.776,44.503],[8.794,44.522],[8.808,44.53],[8.824,44.556],[8.833,44.561],[8.89,44.559],[8.909,44.574],[8.908,44.604],[8.902,44.618],[8.88,44.629],[8.878,44.64],[8.906,44.659],[8.923,44.683],[8.959,44.683],[8.968,44.672],[9.013,44.653],[9.041,44.632],[9.089,44.619],[9.106,44.61],[9.116,44.589],[9.149,44.581],[9.17,44.584],[9.199,44.599],[9.203,44.614],[9.201,44.682],[9.206,44.721],[9.189,44.746],[9.171,44.786],[9.153,44.81],[9.141,44.816],[9.094,44.818],[9.076,44.825],[9.048,44.849],[9.055,44.871],[9.05,44.883],[8.996,44.918],[8.97,44.944],[8.97,44.967],[8.957,44.981],[8.912,44.988],[8.882,45.001],[8.876,45.022],[8.878,45.054],[8.85,45.058],[8.774,45.028],[8.713,45.025],[8.682,45.031],[8.669,45.025],[8.646,45.041],[8.632,45.061],[8.608,45.108],[8.573,45.137],[8.557,45.165],[8.551,45.179],[8.559,45.193],[8.534,45.218],[8.535,45.238],[8.519,45.252],[8.516,45.277],[8.5,45.288],[8.513,45.313],[8.524,45.323],[8.546,45.364],[8.572,45.367],[8.616,45.359],[8.633,45.353],[8.659,45.316],[8.671,45.309],[8.703,45.305],[8.712,45.33],[8.752,45.352],[8.757,45.36],[8.735,45.375],[8.765,45.391],[8.832,45.408],[8.811,45.428],[8.786,45.476],[8.772,45.494],[8.748,45.5],[8.717,45.523],[8.705,45.557],[8.696,45.58],[8.695,45.607],[8.668,45.629],[8.682,45.644],[8.677,45.673],[8.655,45.677],[8.646,45.689],[8.651,45.712],[8.646,45.721],[8.617,45.728],[8.598,45.746],[8.576,45.776],[8.565,45.799],[8.598,45.826],[8.603,45.839],[8.589,45.91],[8.593,45.918],[8.721,46.012],[8.734,46.047],[8.729,46.108],[8.695,46.095],[8.677,46.096],[8.631,46.115],[8.602,46.123],[8.539,46.188],[8.51,46.208],[8.457,46.225],[8.438,46.235],[8.427,46.251],[8.423,46.276],[8.427,46.302],[8.443,46.353],[8.446,46.382],[8.442,46.435],[8.428,46.449],[8.399,46.452],[8.343,46.444],[8.316,46.434],[8.287,46.405],[8.297,46.398],[8.291,46.378],[8.27,46.364],[8.242,46.354],[8.193,46.309],[8.172,46.299],[8.128,46.292],[8.107,46.286],[8.077,46.262],[8.077,46.25],[8.1,46.236],[8.13,46.196],[8.132,46.159],[8.111,46.127],[8.067,46.101],[8.035,46.097],[8.018,46.081],[8.011,46.03],[7.986,45.999],[7.969,45.993],[7.898,45.982],[7.873,45.959],[7.87,45.94],[7.85,45.94],[7.856,45.919],[7.848,45.908],[7.86,45.851],[7.864,45.806],[7.875,45.763],[7.882,45.753],[7.915,45.738],[7.916,45.73],[7.911,45.684],[7.912,45.662],[7.92,45.649],[7.913,45.636],[7.88,45.603],[7.784,45.581],[7.749,45.564],[7.731,45.562],[7.673,45.564],[7.642,45.575],[7.546,45.59],[7.498,45.577],[7.465,45.574],[7.426,45.546],[7.385,45.524],[7.212,45.484],[7.146,45.492],[7.132,45.51],[7.075,45.466]]]}},{"type":"Feature","properties":{"id":"it-23"},"geometry":{"type":"Polygon","coordinates":[[[7.85,45.94],[7.844,45.919],[7.831,45.914],[7.78,45.918],[7.732,45.93],[7.694,45.929],[7.674,45.95],[7.643,45.966],[7.541,45.984],[7.524,45.978],[7.504,45.957],[7.453,45.946],[7.394,45.916],[7.362,45.908],[7.287,45.913],[7.245,45.898],[7.184,45.88],[7.121,45.876],[7.09,45.881],[7.067,45.89],[7.022,45.925],[6.997,45.911],[6.969,45.87],[6.949,45.858],[6.905,45.845],[6.873,45.845],[6.871,45.828],[6.843,45.839],[6.801,45.826],[6.783,45.795],[6.785,45.76],[6.796,45.718],[6.816,45.697],[6.843,45.683],[6.883,45.676],[6.919,45.653],[6.963,45.641],[6.969,45.626],[6.956,45.603],[6.955,45.586],[6.97,45.567],[6.975,45.526],[6.983,45.511],[7.028,45.493],[7.075,45.466],[7.132,45.51],[7.146,45.492],[7.212,45.484],[7.385,45.524],[7.426,45.546],[7.465,45.574],[7.498,45.577],[7.546,45.59],[7.642,45.575],[7.673,45.564],[7.731,45.562],[7.749,45.564],[7.784,45.581],[7.88,45.603],[7.913,45.636],[7.92,45.649],[7.912,45.662],[7.911,45.684],[7.916,45.73],[7.915,45.738],[7.882,45.753],[7.875,45.763],[7.864,45.806],[7.86,45.851],[7.848,45.908],[7.856,45.919],[7.85,45.94]]]}},{"type":"Feature","properties":{"id":"it-25"},"geometry":{"type":"Polygon","coordinates":[[[9.201,44.682],[9.233,44.679],[9.242,44.683],[9.245,44.708],[9.275,44.696],[9.309,44.696],[9.323,44.716],[9.306,44.759],[9.318,44.78],[9.355,44.827],[9.358,44.852],[9.351,44.869],[9.313,44.884],[9.303,44.896],[9.306,44.925],[9.32,44.942],[9.383,45.045],[9.414,45.081],[9.425,45.101],[9.512,45.101],[9.532,45.088],[9.546,45.097],[9.539,45.124],[9.546,45.133],[9.561,45.129],[9.573,45.115],[9.59,45.113],[9.615,45.126],[9.64,45.126],[9.637,45.094],[9.681,45.075],[9.722,45.072],[9.752,45.082],[9.752,45.108],[9.775,45.102],[9.812,45.085],[9.824,45.069],[9.84,45.074],[9.839,45.099],[9.881,45.092],[9.9,45.099],[9.885,45.118],[9.883,45.134],[9.904,45.138],[9.923,45.13],[9.916,45.108],[9.987,45.129],[10.022,45.11],[10.046,45.066],[10.072,45.038],[10.105,45.035],[10.143,45.043],[10.184,45.047],[10.224,45.038],[10.327,44.991],[10.35,44.984],[10.399,44.991],[10.414,44.985],[10.43,44.951],[10.444,44.937],[10.478,44.923],[10.502,44.919],[10.565,44.916],[10.601,44.922],[10.633,44.939],[10.663,44.965],[10.68,44.987],[10.737,44.986],[10.763,44.965],[10.764,44.944],[10.86,44.927],[10.888,44.914],[10.945,44.931],[10.975,44.936],[10.999,44.953],[11.083,44.962],[11.145,44.946],[11.163,44.932],[11.185,44.932],[11.257,44.947],[11.275,44.942],[11.303,44.96],[11.371,44.958],[11.422,44.95],[11.419,44.967],[11.389,44.974],[11.305,45.013],[11.273,45.034],[11.273,45.06],[11.213,45.059],[11.196,45.063],[11.191,45.088],[11.21,45.104],[11.204,45.112],[11.155,45.119],[11.138,45.113],[11.109,45.111],[11.091,45.099],[11.077,45.099],[11.052,45.117],[11.048,45.13],[11.054,45.147],[11.044,45.154],[11.013,45.152],[10.999,45.162],[11.005,45.18],[10.993,45.194],[10.946,45.21],[10.849,45.263],[10.836,45.281],[10.804,45.303],[10.787,45.309],[10.757,45.294],[10.74,45.316],[10.697,45.32],[10.706,45.329],[10.707,45.354],[10.718,45.367],[10.705,45.374],[10.702,45.423],[10.662,45.419],[10.643,45.448],[10.65,45.461],[10.65,45.498],[10.641,45.563],[10.644,45.61],[10.783,45.756],[10.803,45.789],[10.845,45.834],[10.812,45.845],[10.767,45.842],[10.729,45.849],[10.677,45.839],[10.665,45.811],[10.621,45.809],[10.598,45.797],[10.579,45.795],[10.556,45.807],[10.559,45.824],[10.533,45.832],[10.523,45.841],[10.507,45.877],[10.519,45.917],[10.508,45.933],[10.496,45.969],[10.46,45.982],[10.469,46.012],[10.491,46.027],[10.515,46.082],[10.552,46.107],[10.559,46.118],[10.567,46.194],[10.59,46.233],[10.58,46.272],[10.578,46.313],[10.567,46.322],[10.528,46.343],[10.534,46.353],[10.563,46.367],[10.587,46.366],[10.619,46.375],[10.636,46.391],[10.639,46.411],[10.625,46.454],[10.569,46.481],[10.541,46.489],[10.494,46.494],[10.468,46.519],[10.452,46.547],[10.426,46.535],[10.354,46.548],[10.319,46.546],[10.295,46.551],[10.276,46.566],[10.235,46.575],[10.23,46.586],[10.234,46.618],[10.218,46.627],[10.192,46.627],[10.097,46.608],[10.083,46.597],[10.071,46.564],[10.033,46.533],[10.03,46.477],[10.044,46.467],[10.026,46.446],[10.042,46.433],[10.071,46.425],[10.133,46.414],[10.141,46.403],[10.133,46.381],[10.105,46.361],[10.092,46.329],[10.105,46.309],[10.146,46.28],[10.159,46.262],[10.146,46.243],[10.118,46.231],[10.076,46.22],[10.043,46.22],[10.042,46.243],[10.032,46.26],[9.992,46.284],[9.978,46.298],[9.971,46.34],[9.964,46.356],[9.939,46.367],[9.899,46.372],[9.855,46.367],[9.789,46.343],[9.768,46.339],[9.731,46.351],[9.709,46.342],[9.708,46.312],[9.693,46.297],[9.674,46.292],[9.56,46.293],[9.515,46.309],[9.503,46.321],[9.483,46.357],[9.452,46.37],[9.442,46.381],[9.444,46.396],[9.438,46.492],[9.411,46.489],[9.395,46.469],[9.377,46.469],[9.352,46.485],[9.351,46.498],[9.331,46.502],[9.282,46.497],[9.263,46.485],[9.246,46.461],[9.238,46.437],[9.261,46.417],[9.26,46.38],[9.274,46.344],[9.269,46.309],[9.24,46.267],[9.225,46.231],[9.204,46.214],[9.181,46.204],[9.163,46.172],[9.091,46.138],[9.072,46.119],[9.07,46.083],[9.059,46.062],[9.028,46.053],[9.002,46.039],[8.998,46.028],[9.016,45.993],[8.983,45.972],[9.002,45.936],[9.021,45.923],[9.052,45.916],[9.063,45.899],[9.059,45.882],[9.034,45.848],[9.002,45.821],[8.972,45.825],[8.94,45.835],[8.909,45.828],[8.904,45.842],[8.914,45.866],[8.912,45.883],[8.898,45.91],[8.871,45.947],[8.858,45.957],[8.8,45.979],[8.768,45.983],[8.791,46.019],[8.82,46.043],[8.834,46.066],[8.809,46.09],[8.794,46.093],[8.747,46.094],[8.729,46.108],[8.734,46.047],[8.721,46.012],[8.593,45.918],[8.589,45.91],[8.603,45.839],[8.598,45.826],[8.565,45.799],[8.576,45.776],[8.598,45.746],[8.617,45.728],[8.646,45.721],[8.651,45.712],[8.646,45.689],[8.655,45.677],[8.677,45.673],[8.682,45.644],[8.668,45.629],[8.695,45.607],[8.696,45.58],[8.705,45.557],[8.717,45.523],[8.748,45.5],[8.772,45.494],[8.786,45.476],[8.811,45.428],[8.832,45.408],[8.765,45.391],[8.735,45.375],[8.757,45.36],[8.752,45.352],[8.712,45.33],[8.703,45.305],[8.671,45.309],[8.659,45.316],[8.633,45.353],[8.616,45.359],[8.572,45.367],[8.546,45.364],[8.524,45.323],[8.513,45.313],[8.5,45.288],[8.516,45.277],[8.519,45.252],[8.535,45.238],[8.534,45.218],[8.559,45.193],[8.551,45.179],[8.557,45.165],[8.573,45.137],[8.608,45.108],[8.632,45.061],[8.646,45.041],[8.669,45.025],[8.682,45.031],[8.713,45.025],[8.774,45.028],[8.85,45.058],[8.878,45.054],[8.876,45.022],[8.882,45.001],[8.912,44.988],[8.957,44.981],[8.97,44.967],[8.97,44.944],[8.996,44.918],[9.05,44.883],[9.055,44.871],[9.048,44.849],[9.076,44.825],[9.094,44.818],[9.141,44.816],[9.153,44.81],[9.171,44.786],[9.189,44.746],[9.206,44.721],[9.201,44.682]]]}},{"type":"Feature","properties":{"id":"it-32"},"geometry":{"type":"Polygon","coordinates":[[[10.845,45.834],[10.885,45.817],[10.9,45.784],[10.879,45.761],[10.871,45.731],[10.877,45.716],[10.903,45.708],[10.932,45.682],[10.962,45.695],[10.979,45.692],[11.007,45.713],[11.064,45.713],[11.113,45.7],[11.131,45.7],[11.148,45.711],[11.185,45.755],[11.183,45.778],[11.199,45.788],[11.201,45.811],[11.258,45.884],[11.279,45.919],[11.315,45.939],[11.341,45.924],[11.359,45.923],[11.383,45.945],[11.38,45.968],[11.393,45.981],[11.441,45.988],[11.495,46.012],[11.541,46.016],[11.564,46.014],[11.579,46.006],[11.599,45.979],[11.614,45.976],[11.654,45.975],[11.685,45.984],[11.681,46.004],[11.684,46.03],[11.705,46.053],[11.699,46.087],[11.712,46.101],[11.744,46.105],[11.8,46.106],[11.896,46.133],[11.932,46.169],[11.967,46.185],[11.969,46.196],[11.933,46.213],[11.92,46.223],[11.927,46.251],[11.888,46.273],[11.853,46.274],[11.85,46.305],[11.841,46.316],[11.804,46.345],[11.803,46.366],[11.85,46.385],[11.856,46.414],[11.867,46.432],[11.896,46.455],[11.888,46.467],[11.834,46.484],[11.832,46.504],[11.852,46.514],[12.006,46.535],[12.022,46.539],[12.042,46.575],[12.055,46.587],[12.071,46.613],[12.08,46.65],[12.099,46.668],[12.139,46.644],[12.178,46.635],[12.214,46.596],[12.253,46.611],[12.302,46.615],[12.348,46.629],[12.365,46.621],[12.392,46.622],[12.399,46.64],[12.424,46.649],[12.445,46.665],[12.47,46.676],[12.446,46.679],[12.405,46.69],[12.37,46.711],[12.343,46.765],[12.326,46.772],[12.284,46.78],[12.269,46.789],[12.267,46.808],[12.276,46.834],[12.267,46.868],[12.251,46.876],[12.195,46.88],[12.172,46.899],[12.127,46.909],[12.142,46.928],[12.128,46.949],[12.111,46.993],[12.122,47.011],[12.182,47.034],[12.204,47.053],[12.204,47.08],[12.181,47.085],[12.116,47.077],[12.015,47.04],[11.944,47.038],[11.9,47.028],[11.857,47.012],[11.823,46.993],[11.777,46.988],[11.746,46.972],[11.716,46.975],[11.684,46.992],[11.65,46.993],[11.596,47],[11.573,46.999],[11.534,46.99],[11.515,46.989],[11.489,47.004],[11.472,47.007],[11.453,47.001],[11.411,46.97],[11.381,46.972],[11.349,46.982],[11.314,46.987],[11.244,46.979],[11.174,46.964],[11.157,46.957],[11.092,46.912],[11.084,46.9],[11.073,46.865],[11.054,46.834],[11.055,46.82],[11.033,46.806],[11.011,46.779],[10.997,46.769],[10.931,46.774],[10.88,46.765],[10.86,46.767],[10.824,46.78],[10.795,46.777],[10.755,46.791],[10.723,46.786],[10.717,46.795],[10.744,46.813],[10.739,46.83],[10.662,46.861],[10.629,46.862],[10.528,46.843],[10.486,46.846],[10.454,46.864],[10.449,46.832],[10.439,46.817],[10.417,46.799],[10.429,46.756],[10.4,46.736],[10.394,46.701],[10.369,46.672],[10.378,46.653],[10.396,46.639],[10.438,46.636],[10.459,46.624],[10.467,46.604],[10.466,46.578],[10.452,46.547],[10.468,46.519],[10.494,46.494],[10.541,46.489],[10.569,46.481],[10.625,46.454],[10.639,46.411],[10.636,46.391],[10.619,46.375],[10.587,46.366],[10.563,46.367],[10.534,46.353],[10.528,46.343],[10.567,46.322],[10.578,46.313],[10.58,46.272],[10.59,46.233],[10.567,46.194],[10.559,46.118],[10.552,46.107],[10.515,46.082],[10.491,46.027],[10.469,46.012],[10.46,45.982],[10.496,45.969],[10.508,45.933],[10.519,45.917],[10.507,45.877],[10.523,45.841],[10.533,45.832],[10.559,45.824],[10.556,45.807],[10.579,45.795],[10.598,45.797],[10.621,45.809],[10.665,45.811],[10.677,45.839],[10.729,45.849],[10.767,45.842],[10.812,45.845],[10.845,45.834]]]}},{"type":"Feature","properties":{"id":"it-34"},"geometry":{"type":"MultiPolygon","coordinates":[[[[11.422,44.95],[11.432,44.938],[11.489,44.944],[11.525,44.94],[11.553,44.929],[11.606,44.899],[11.64,44.898],[11.678,44.922],[11.736,44.939],[11.739,44.95],[11.756,44.961],[11.784,44.964],[11.797,44.978],[11.822,44.978],[11.87,44.985],[11.93,44.978],[11.968,44.985],[11.991,44.984],[12.087,44.97],[12.116,44.959],[12.135,44.937],[12.17,44.937],[12.223,44.926],[12.272,44.936],[12.295,44.927],[12.285,44.909],[12.293,44.865],[12.327,44.853],[12.344,44.84],[12.345,44.824],[12.363,44.809],[12.393,44.793],[12.416,44.803],[12.424,44.821],[12.397,44.827],[12.417,44.851],[12.392,44.859],[12.407,44.891],[12.427,44.905],[12.443,44.89],[12.424,44.855],[12.445,44.821],[12.474,44.846],[12.493,44.878],[12.495,44.91],[12.513,44.922],[12.527,44.943],[12.534,44.97],[12.517,44.988],[12.465,44.992],[12.445,45.011],[12.41,45.032],[12.413,45.043],[12.383,45.056],[12.384,45.026],[12.369,45.011],[12.355,45.025],[12.376,45.039],[12.341,45.081],[12.307,45.079],[12.297,45.089],[12.297,45.106],[12.328,45.101],[12.322,45.139],[12.321,45.165],[12.315,45.186],[12.304,45.201],[12.296,45.227],[12.247,45.197],[12.221,45.216],[12.225,45.251],[12.217,45.294],[12.202,45.288],[12.199,45.275],[12.192,45.263],[12.169,45.262],[12.16,45.283],[12.149,45.292],[12.154,45.313],[12.188,45.306],[12.209,45.309],[12.232,45.341],[12.224,45.354],[12.245,45.361],[12.249,45.385],[12.259,45.395],[12.246,45.411],[12.253,45.436],[12.273,45.464],[12.31,45.489],[12.35,45.505],[12.383,45.504],[12.381,45.495],[12.412,45.493],[12.424,45.504],[12.39,45.514],[12.418,45.524],[12.435,45.512],[12.442,45.53],[12.459,45.548],[12.507,45.573],[12.511,45.559],[12.537,45.536],[12.57,45.549],[12.563,45.532],[12.53,45.526],[12.521,45.519],[12.515,45.493],[12.479,45.491],[12.458,45.498],[12.418,45.451],[12.424,45.438],[12.451,45.45],[12.488,45.457],[12.513,45.47],[12.612,45.496],[12.781,45.554],[12.944,45.629],[12.982,45.635],[13.061,45.637],[13.085,45.642],[13.096,45.652],[13.075,45.674],[13.052,45.719],[13.029,45.743],[13.026,45.76],[13.002,45.782],[12.997,45.802],[12.999,45.825],[12.973,45.843],[12.952,45.821],[12.94,45.819],[12.895,45.826],[12.886,45.839],[12.87,45.847],[12.846,45.839],[12.827,45.824],[12.813,45.844],[12.792,45.856],[12.765,45.836],[12.731,45.827],[12.699,45.804],[12.673,45.802],[12.666,45.815],[12.634,45.833],[12.603,45.826],[12.568,45.839],[12.532,45.903],[12.522,45.924],[12.494,45.934],[12.473,45.95],[12.453,45.956],[12.445,45.966],[12.44,45.998],[12.422,46.043],[12.419,46.051],[12.441,46.08],[12.455,46.089],[12.479,46.094],[12.502,46.111],[12.498,46.147],[12.491,46.161],[12.461,46.181],[12.456,46.206],[12.431,46.212],[12.415,46.227],[12.383,46.23],[12.343,46.258],[12.336,46.269],[12.344,46.282],[12.37,46.306],[12.437,46.332],[12.465,46.356],[12.5,46.404],[12.52,46.442],[12.551,46.457],[12.593,46.464],[12.641,46.464],[12.666,46.458],[12.667,46.481],[12.645,46.489],[12.646,46.502],[12.664,46.517],[12.691,46.527],[12.757,46.534],[12.761,46.573],[12.755,46.593],[12.748,46.641],[12.697,46.641],[12.67,46.653],[12.62,46.656],[12.562,46.651],[12.531,46.658],[12.5,46.672],[12.47,46.676],[12.445,46.665],[12.424,46.649],[12.399,46.64],[12.392,46.622],[12.365,46.621],[12.348,46.629],[12.302,46.615],[12.253,46.611],[12.214,46.596],[12.178,46.635],[12.139,46.644],[12.099,46.668],[12.08,46.65],[12.071,46.613],[12.055,46.587],[12.042,46.575],[12.022,46.539],[12.006,46.535],[11.852,46.514],[11.832,46.504],[11.834,46.484],[11.888,46.467],[11.896,46.455],[11.867,46.432],[11.856,46.414],[11.85,46.385],[11.803,46.366],[11.804,46.345],[11.841,46.316],[11.85,46.305],[11.853,46.274],[11.888,46.273],[11.927,46.251],[11.92,46.223],[11.933,46.213],[11.969,46.196],[11.967,46.185],[11.932,46.169],[11.896,46.133],[11.8,46.106],[11.744,46.105],[11.712,46.101],[11.699,46.087],[11.705,46.053],[11.684,46.03],[11.681,46.004],[11.685,45.984],[11.654,45.975],[11.614,45.976],[11.599,45.979],[11.579,46.006],[11.564,46.014],[11.541,46.016],[11.495,46.012],[11.441,45.988],[11.393,45.981],[11.38,45.968],[11.383,45.945],[11.359,45.923],[11.341,45.924],[11.315,45.939],[11.279,45.919],[11.258,45.884],[11.201,45.811],[11.199,45.788],[11.183,45.778],[11.185,45.755],[11.148,45.711],[11.131,45.7],[11.113,45.7],[11.064,45.713],[11.007,45.713],[10.979,45.692],[10.962,45.695],[10.932,45.682],[10.903,45.708],[10.877,45.716],[10.871,45.731],[10.879,45.761],[10.9,45.784],[10.885,45.817],[10.845,45.834],[10.803,45.789],[10.783,45.756],[10.644,45.61],[10.641,45.563],[10.65,45.498],[10.65,45.461],[10.643,45.448],[10.662,45.419],[10.702,45.423],[10.705,45.374],[10.718,45.367],[10.707,45.354],[10.706,45.329],[10.697,45.32],[10.74,45.316],[10.757,45.294],[10.787,45.309],[10.804,45.303],[10.836,45.281],[10.849,45.263],[10.946,45.21],[10.993,45.194],[11.005,45.18],[10.999,45.162],[11.013,45.152],[11.044,45.154],[11.054,45.147],[11.048,45.13],[11.052,45.117],[11.077,45.099],[11.091,45.099],[11.109,45.111],[11.138,45.113],[11.155,45.119],[11.204,45.112],[11.21,45.104],[11.191,45.088],[11.196,45.063],[11.213,45.059],[11.273,45.06],[11.273,45.034],[11.305,45.013],[11.389,44.974],[11.419,44.967],[11.422,44.95]]],[[[12.352,45.405],[12.328,45.372],[12.321,45.348],[12.376,45.423],[12.352,45.405]]],[[[12.33,45.459],[12.317,45.443],[12.321,45.43],[12.337,45.427],[12.362,45.438],[12.364,45.45],[12.347,45.459],[12.33,45.459]]]]}},{"type":"Feature","properties":{"id":"it-36"},"geometry":{"type":"Polygon","coordinates":[[[13.096,45.652],[13.103,45.669],[13.138,45.689],[13.091,45.689],[13.075,45.697],[13.07,45.714],[13.081,45.728],[13.101,45.736],[13.112,45.749],[13.111,45.768],[13.131,45.769],[13.14,45.755],[13.158,45.755],[13.169,45.769],[13.205,45.778],[13.222,45.776],[13.255,45.756],[13.352,45.74],[13.369,45.745],[13.382,45.73],[13.423,45.724],[13.431,45.707],[13.409,45.691],[13.428,45.681],[13.469,45.707],[13.508,45.714],[13.528,45.741],[13.524,45.76],[13.534,45.782],[13.551,45.792],[13.583,45.787],[13.629,45.773],[13.647,45.762],[13.726,45.704],[13.754,45.672],[13.758,45.655],[13.739,45.649],[13.777,45.635],[13.796,45.617],[13.787,45.611],[13.73,45.613],[13.712,45.593],[13.761,45.596],[13.801,45.581],[13.848,45.585],[13.887,45.619],[13.895,45.632],[13.858,45.649],[13.779,45.743],[13.709,45.765],[13.66,45.792],[13.609,45.799],[13.589,45.806],[13.566,45.83],[13.569,45.865],[13.608,45.927],[13.623,45.966],[13.606,45.985],[13.572,45.98],[13.539,45.969],[13.509,45.967],[13.462,46.006],[13.482,46.018],[13.493,46.032],[13.482,46.045],[13.505,46.066],[13.616,46.125],[13.645,46.162],[13.637,46.18],[13.614,46.184],[13.559,46.184],[13.51,46.214],[13.468,46.223],[13.438,46.225],[13.437,46.211],[13.41,46.208],[13.398,46.231],[13.385,46.243],[13.379,46.268],[13.365,46.29],[13.391,46.302],[13.423,46.345],[13.434,46.354],[13.46,46.359],[13.484,46.371],[13.53,46.388],[13.576,46.427],[13.6,46.443],[13.659,46.445],[13.677,46.452],[13.688,46.468],[13.69,46.493],[13.701,46.52],[13.67,46.519],[13.549,46.546],[13.507,46.547],[13.478,46.564],[13.417,46.56],[13.373,46.566],[13.271,46.551],[13.231,46.552],[13.21,46.558],[13.146,46.585],[13.065,46.598],[12.83,46.61],[12.774,46.635],[12.748,46.641],[12.755,46.593],[12.761,46.573],[12.757,46.534],[12.691,46.527],[12.664,46.517],[12.646,46.502],[12.645,46.489],[12.667,46.481],[12.666,46.458],[12.641,46.464],[12.593,46.464],[12.551,46.457],[12.52,46.442],[12.5,46.404],[12.465,46.356],[12.437,46.332],[12.37,46.306],[12.344,46.282],[12.336,46.269],[12.343,46.258],[12.383,46.23],[12.415,46.227],[12.431,46.212],[12.456,46.206],[12.461,46.181],[12.491,46.161],[12.498,46.147],[12.502,46.111],[12.479,46.094],[12.455,46.089],[12.441,46.08],[12.419,46.051],[12.422,46.043],[12.44,45.998],[12.445,45.966],[12.453,45.956],[12.473,45.95],[12.494,45.934],[12.522,45.924],[12.532,45.903],[12.568,45.839],[12.603,45.826],[12.634,45.833],[12.666,45.815],[12.673,45.802],[12.699,45.804],[12.731,45.827],[12.765,45.836],[12.792,45.856],[12.813,45.844],[12.827,45.824],[12.846,45.839],[12.87,45.847],[12.886,45.839],[12.895,45.826],[12.94,45.819],[12.952,45.821],[12.973,45.843],[12.999,45.825],[12.997,45.802],[13.002,45.782],[13.026,45.76],[13.029,45.743],[13.052,45.719],[13.075,45.674],[13.096,45.652]]]}},{"type":"Feature","properties":{"id":"it-42"},"geometry":{"type":"Polygon","coordinates":[[[7.688,44.091],[7.69,44.067],[7.653,44.04],[7.631,43.994],[7.609,43.976],[7.557,43.944],[7.537,43.921],[7.493,43.886],[7.478,43.866],[7.483,43.84],[7.502,43.792],[7.531,43.784],[7.572,43.791],[7.695,43.791],[7.737,43.798],[7.786,43.822],[7.96,43.853],[8.031,43.888],[8.068,43.897],[8.089,43.92],[8.115,43.928],[8.13,43.94],[8.145,43.953],[8.168,43.956],[8.153,43.983],[8.169,44.007],[8.216,44.045],[8.23,44.072],[8.233,44.104],[8.257,44.128],[8.285,44.148],[8.313,44.16],[8.369,44.174],[8.395,44.182],[8.408,44.194],[8.412,44.227],[8.435,44.24],[8.45,44.264],[8.445,44.284],[8.466,44.304],[8.54,44.34],[8.565,44.357],[8.594,44.363],[8.631,44.382],[8.655,44.395],[8.679,44.395],[8.725,44.424],[8.762,44.432],[8.827,44.428],[8.845,44.413],[8.868,44.41],[8.924,44.412],[8.953,44.4],[9.001,44.387],[9.102,44.374],[9.13,44.363],[9.149,44.34],[9.147,44.329],[9.165,44.318],[9.211,44.305],[9.214,44.333],[9.231,44.354],[9.263,44.336],[9.368,44.294],[9.375,44.272],[9.422,44.257],[9.437,44.239],[9.454,44.238],[9.484,44.244],[9.49,44.231],[9.511,44.215],[9.556,44.2],[9.573,44.192],[9.621,44.148],[9.643,44.142],[9.673,44.141],[9.721,44.113],[9.772,44.079],[9.82,44.063],[9.833,44.052],[9.848,44.072],[9.831,44.079],[9.82,44.093],[9.845,44.109],[9.877,44.088],[9.888,44.093],[9.904,44.08],[9.963,44.045],[9.989,44.06],[10.028,44.049],[10.036,44.066],[10.057,44.094],[10.027,44.114],[9.995,44.115],[9.982,44.131],[9.981,44.15],[9.954,44.164],[9.92,44.163],[9.897,44.169],[9.908,44.191],[9.902,44.2],[9.88,44.203],[9.859,44.188],[9.859,44.21],[9.852,44.253],[9.838,44.263],[9.752,44.306],[9.716,44.33],[9.69,44.358],[9.674,44.37],[9.651,44.406],[9.599,44.427],[9.556,44.429],[9.506,44.428],[9.476,44.412],[9.44,44.412],[9.436,44.42],[9.451,44.469],[9.476,44.486],[9.494,44.512],[9.491,44.551],[9.48,44.563],[9.441,44.573],[9.414,44.594],[9.4,44.594],[9.378,44.582],[9.352,44.583],[9.302,44.606],[9.282,44.61],[9.254,44.606],[9.225,44.62],[9.203,44.614],[9.199,44.599],[9.17,44.584],[9.149,44.581],[9.116,44.589],[9.106,44.61],[9.089,44.619],[9.041,44.632],[9.013,44.653],[8.968,44.672],[8.959,44.683],[8.923,44.683],[8.906,44.659],[8.878,44.64],[8.88,44.629],[8.902,44.618],[8.908,44.604],[8.909,44.574],[8.89,44.559],[8.833,44.561],[8.824,44.556],[8.808,44.53],[8.794,44.522],[8.776,44.503],[8.766,44.505],[8.765,44.53],[8.725,44.579],[8.711,44.583],[8.632,44.589],[8.613,44.588],[8.597,44.562],[8.601,44.549],[8.582,44.525],[8.564,44.516],[8.476,44.518],[8.438,44.512],[8.414,44.516],[8.39,44.507],[8.371,44.486],[8.36,44.481],[8.313,44.497],[8.265,44.522],[8.25,44.535],[8.236,44.532],[8.221,44.518],[8.194,44.47],[8.211,44.446],[8.206,44.422],[8.188,44.408],[8.169,44.404],[8.148,44.377],[8.141,44.357],[8.097,44.323],[8.072,44.311],[8.078,44.288],[8.07,44.256],[8.069,44.226],[8.079,44.21],[8.078,44.186],[8.058,44.164],[8.04,44.158],[8.007,44.165],[7.986,44.152],[7.982,44.142],[8.002,44.127],[8.002,44.118],[7.988,44.113],[7.918,44.119],[7.9,44.123],[7.834,44.125],[7.807,44.129],[7.774,44.143],[7.758,44.144],[7.74,44.134],[7.729,44.115],[7.738,44.099],[7.709,44.092],[7.688,44.091]]]}},{"type":"Feature","properties":{"id":"it-45"},"geometry":{"type":"Polygon","coordinates":[[[9.203,44.614],[9.225,44.62],[9.254,44.606],[9.282,44.61],[9.302,44.606],[9.352,44.583],[9.378,44.582],[9.4,44.594],[9.414,44.594],[9.441,44.573],[9.48,44.563],[9.491,44.551],[9.494,44.512],[9.476,44.486],[9.451,44.469],[9.436,44.42],[9.44,44.412],[9.476,44.412],[9.506,44.428],[9.556,44.429],[9.599,44.427],[9.651,44.406],[9.674,44.37],[9.69,44.358],[9.691,44.373],[9.744,44.386],[9.762,44.409],[9.836,44.476],[9.866,44.483],[9.897,44.48],[9.936,44.47],[9.99,44.448],[10,44.426],[9.987,44.419],[9.991,44.407],[10.052,44.369],[10.073,44.352],[10.122,44.348],[10.136,44.342],[10.169,44.326],[10.199,44.318],[10.229,44.281],[10.254,44.271],[10.288,44.282],[10.351,44.275],[10.371,44.264],[10.4,44.236],[10.416,44.231],[10.471,44.225],[10.484,44.187],[10.522,44.155],[10.57,44.126],[10.611,44.126],[10.63,44.149],[10.65,44.158],[10.707,44.162],[10.734,44.155],[10.801,44.118],[10.816,44.114],[10.835,44.108],[10.89,44.079],[10.923,44.068],[10.985,44.126],[10.991,44.14],[11.01,44.14],[11.015,44.128],[11.001,44.113],[11.008,44.104],[11.048,44.092],[11.2,44.105],[11.229,44.103],[11.254,44.112],[11.248,44.123],[11.206,44.136],[11.196,44.15],[11.204,44.159],[11.291,44.171],[11.342,44.209],[11.376,44.212],[11.392,44.232],[11.403,44.235],[11.432,44.227],[11.449,44.204],[11.496,44.166],[11.526,44.162],[11.551,44.163],[11.572,44.174],[11.604,44.163],[11.611,44.152],[11.59,44.135],[11.603,44.123],[11.634,44.118],[11.654,44.119],[11.692,44.131],[11.72,44.132],[11.746,44.13],[11.747,44.122],[11.731,44.096],[11.72,44.07],[11.695,44.038],[11.677,44.023],[11.656,44.021],[11.651,43.991],[11.683,43.966],[11.688,43.935],[11.709,43.92],[11.709,43.885],[11.716,43.879],[11.733,43.869],[11.785,43.847],[11.809,43.826],[11.83,43.821],[11.876,43.817],[11.919,43.804],[11.969,43.773],[12.068,43.754],[12.102,43.759],[12.125,43.764],[12.151,43.759],[12.175,43.745],[12.197,43.748],[12.224,43.764],[12.245,43.761],[12.268,43.771],[12.286,43.769],[12.285,43.795],[12.322,43.814],[12.346,43.847],[12.351,43.87],[12.391,43.883],[12.405,43.874],[12.42,43.878],[12.421,43.895],[12.4,43.903],[12.386,43.925],[12.396,43.948],[12.421,43.967],[12.453,43.979],[12.482,43.983],[12.492,43.956],[12.483,43.929],[12.537,43.907],[12.548,43.885],[12.559,43.875],[12.572,43.89],[12.591,43.893],[12.608,43.873],[12.616,43.853],[12.633,43.843],[12.68,43.845],[12.694,43.863],[12.731,43.882],[12.742,43.905],[12.737,43.922],[12.739,43.939],[12.754,43.972],[12.71,43.983],[12.661,44.008],[12.631,44.03],[12.574,44.086],[12.547,44.093],[12.511,44.115],[12.479,44.139],[12.458,44.166],[12.417,44.195],[12.386,44.228],[12.369,44.251],[12.35,44.288],[12.342,44.329],[12.318,44.361],[12.314,44.387],[12.284,44.488],[12.28,44.532],[12.286,44.603],[12.27,44.63],[12.253,44.668],[12.247,44.712],[12.254,44.751],[12.28,44.821],[12.266,44.827],[12.292,44.843],[12.321,44.833],[12.376,44.792],[12.393,44.793],[12.363,44.809],[12.345,44.824],[12.344,44.84],[12.327,44.853],[12.293,44.865],[12.285,44.909],[12.295,44.927],[12.272,44.936],[12.223,44.926],[12.17,44.937],[12.135,44.937],[12.116,44.959],[12.087,44.97],[11.991,44.984],[11.968,44.985],[11.93,44.978],[11.87,44.985],[11.822,44.978],[11.797,44.978],[11.784,44.964],[11.756,44.961],[11.739,44.95],[11.736,44.939],[11.678,44.922],[11.64,44.898],[11.606,44.899],[11.553,44.929],[11.525,44.94],[11.489,44.944],[11.432,44.938],[11.422,44.95],[11.371,44.958],[11.303,44.96],[11.275,44.942],[11.257,44.947],[11.185,44.932],[11.163,44.932],[11.145,44.946],[11.083,44.962],[10.999,44.953],[10.975,44.936],[10.945,44.931],[10.888,44.914],[10.86,44.927],[10.764,44.944],[10.763,44.965],[10.737,44.986],[10.68,44.987],[10.663,44.965],[10.633,44.939],[10.601,44.922],[10.565,44.916],[10.502,44.919],[10.478,44.923],[10.444,44.937],[10.43,44.951],[10.414,44.985],[10.399,44.991],[10.35,44.984],[10.327,44.991],[10.224,45.038],[10.184,45.047],[10.143,45.043],[10.105,45.035],[10.072,45.038],[10.046,45.066],[10.022,45.11],[9.987,45.129],[9.916,45.108],[9.923,45.13],[9.904,45.138],[9.883,45.134],[9.885,45.118],[9.9,45.099],[9.881,45.092],[9.839,45.099],[9.84,45.074],[9.824,45.069],[9.812,45.085],[9.775,45.102],[9.752,45.108],[9.752,45.082],[9.722,45.072],[9.681,45.075],[9.637,45.094],[9.64,45.126],[9.615,45.126],[9.59,45.113],[9.573,45.115],[9.561,45.129],[9.546,45.133],[9.539,45.124],[9.546,45.097],[9.532,45.088],[9.512,45.101],[9.425,45.101],[9.414,45.081],[9.383,45.045],[9.32,44.942],[9.306,44.925],[9.303,44.896],[9.313,44.884],[9.351,44.869],[9.358,44.852],[9.355,44.827],[9.318,44.78],[9.306,44.759],[9.323,44.716],[9.309,44.696],[9.275,44.696],[9.245,44.708],[9.242,44.683],[9.233,44.679],[9.201,44.682],[9.203,44.614]],[[12.199,43.78],[12.182,43.789],[12.171,43.805],[12.184,43.818],[12.227,43.814],[12.239,43.799],[12.199,43.78]]]}},{"type":"Feature","properties":{"id":"it-52"},"geometry":{"type":"MultiPolygon","coordinates":[[[[10.028,44.049],[10.106,44.017],[10.136,43.979],[10.143,43.975],[10.181,43.955],[10.21,43.92],[10.252,43.847],[10.262,43.816],[10.264,43.809],[10.293,43.579],[10.295,43.569],[10.317,43.493],[10.326,43.477],[10.359,43.465],[10.373,43.453],[10.437,43.389],[10.517,43.267],[10.528,43.247],[10.533,43.226],[10.534,43.185],[10.547,43.147],[10.536,43.113],[10.539,43.079],[10.517,43.024],[10.503,43.006],[10.478,42.99],[10.5,42.94],[10.519,42.925],[10.547,42.935],[10.539,42.949],[10.583,42.96],[10.632,42.958],[10.681,42.949],[10.705,42.941],[10.751,42.925],[10.773,42.908],[10.778,42.895],[10.766,42.877],[10.765,42.835],[10.755,42.819],[10.731,42.804],[10.891,42.764],[10.944,42.743],[10.99,42.71],[11.006,42.668],[11.053,42.647],[11.078,42.632],[11.081,42.613],[11.097,42.607],[11.116,42.572],[11.129,42.558],[11.158,42.564],[11.166,42.546],[11.187,42.521],[11.188,42.48],[11.18,42.456],[11.164,42.44],[11.142,42.439],[11.113,42.446],[11.099,42.443],[11.087,42.429],[11.094,42.403],[11.107,42.391],[11.135,42.384],[11.156,42.366],[11.175,42.369],[11.201,42.395],[11.211,42.419],[11.259,42.421],[11.333,42.401],[11.362,42.4],[11.377,42.407],[11.396,42.393],[11.451,42.374],[11.472,42.419],[11.498,42.434],[11.59,42.442],[11.602,42.447],[11.61,42.475],[11.608,42.487],[11.571,42.511],[11.571,42.525],[11.586,42.536],[11.588,42.566],[11.606,42.568],[11.621,42.56],[11.671,42.577],[11.694,42.598],[11.735,42.616],[11.756,42.645],[11.787,42.651],[11.79,42.671],[11.787,42.7],[11.792,42.718],[11.808,42.738],[11.786,42.76],[11.774,42.781],[11.747,42.798],[11.765,42.819],[11.808,42.813],[11.833,42.833],[11.889,42.85],[11.932,42.872],[11.951,42.893],[11.932,42.927],[11.952,42.99],[11.969,43.011],[11.978,43.046],[11.969,43.069],[11.958,43.075],[11.942,43.064],[11.928,43.076],[11.918,43.122],[11.923,43.138],[11.953,43.174],[11.993,43.186],[12.012,43.2],[12.023,43.242],[12.05,43.256],[12.092,43.245],[12.127,43.261],[12.158,43.263],[12.213,43.291],[12.215,43.3],[12.203,43.318],[12.188,43.314],[12.177,43.299],[12.152,43.296],[12.139,43.3],[12.133,43.357],[12.081,43.372],[12.074,43.38],[12.074,43.411],[12.037,43.417],[12.057,43.437],[12.078,43.443],[12.103,43.465],[12.128,43.475],[12.134,43.489],[12.123,43.501],[12.098,43.511],[12.101,43.523],[12.137,43.532],[12.154,43.548],[12.205,43.617],[12.193,43.644],[12.196,43.653],[12.227,43.665],[12.25,43.682],[12.278,43.69],[12.297,43.724],[12.31,43.724],[12.314,43.692],[12.334,43.689],[12.354,43.711],[12.358,43.723],[12.306,43.759],[12.286,43.769],[12.268,43.771],[12.245,43.761],[12.224,43.764],[12.197,43.748],[12.175,43.745],[12.151,43.759],[12.125,43.764],[12.102,43.759],[12.068,43.754],[11.969,43.773],[11.919,43.804],[11.876,43.817],[11.83,43.821],[11.809,43.826],[11.785,43.847],[11.733,43.869],[11.716,43.879],[11.709,43.885],[11.709,43.92],[11.688,43.935],[11.683,43.966],[11.651,43.991],[11.656,44.021],[11.677,44.023],[11.695,44.038],[11.72,44.07],[11.731,44.096],[11.747,44.122],[11.746,44.13],[11.72,44.132],[11.692,44.131],[11.654,44.119],[11.634,44.118],[11.603,44.123],[11.59,44.135],[11.611,44.152],[11.604,44.163],[11.572,44.174],[11.551,44.163],[11.526,44.162],[11.496,44.166],[11.449,44.204],[11.432,44.227],[11.403,44.235],[11.392,44.232],[11.376,44.212],[11.342,44.209],[11.291,44.171],[11.204,44.159],[11.196,44.15],[11.206,44.136],[11.248,44.123],[11.254,44.112],[11.229,44.103],[11.2,44.105],[11.048,44.092],[11.008,44.104],[11.001,44.113],[11.015,44.128],[11.01,44.14],[10.991,44.14],[10.985,44.126],[10.923,44.068],[10.89,44.079],[10.835,44.108],[10.816,44.114],[10.801,44.118],[10.734,44.155],[10.707,44.162],[10.65,44.158],[10.63,44.149],[10.611,44.126],[10.57,44.126],[10.522,44.155],[10.484,44.187],[10.471,44.225],[10.416,44.231],[10.4,44.236],[10.371,44.264],[10.351,44.275],[10.288,44.282],[10.254,44.271],[10.229,44.281],[10.199,44.318],[10.169,44.326],[10.136,44.342],[10.122,44.348],[10.073,44.352],[10.052,44.369],[9.991,44.407],[9.987,44.419],[10,44.426],[9.99,44.448],[9.936,44.47],[9.897,44.48],[9.866,44.483],[9.836,44.476],[9.762,44.409],[9.744,44.386],[9.691,44.373],[9.69,44.358],[9.716,44.33],[9.752,44.306],[9.838,44.263],[9.852,44.253],[9.859,44.21],[9.859,44.188],[9.88,44.203],[9.902,44.2],[9.908,44.191],[9.897,44.169],[9.92,44.163],[9.954,44.164],[9.981,44.15],[9.982,44.131],[9.995,44.115],[10.027,44.114],[10.057,44.094],[10.036,44.066],[10.028,44.049]]],[[[12.199,43.78],[12.239,43.799],[12.227,43.814],[12.184,43.818],[12.171,43.805],[12.182,43.789],[12.199,43.78]]],[[[10.896,42.387],[10.876,42.387],[10.876,42.374],[10.862,42.366],[10.872,42.354],[10.909,42.325],[10.923,42.319],[10.94,42.331],[10.913,42.375],[10.896,42.387]]],[[[10.443,42.845],[10.431,42.864],[10.412,42.873],[10.4,42.869],[10.381,42.832],[10.358,42.818],[10.355,42.808],[10.333,42.806],[10.322,42.812],[10.327,42.826],[10.272,42.827],[10.266,42.804],[10.224,42.804],[10.19,42.817],[10.158,42.817],[10.133,42.812],[10.112,42.801],[10.101,42.784],[10.107,42.757],[10.125,42.743],[10.147,42.737],[10.23,42.735],[10.245,42.757],[10.265,42.745],[10.305,42.76],[10.338,42.765],[10.364,42.75],[10.381,42.723],[10.411,42.718],[10.431,42.722],[10.425,42.741],[10.408,42.757],[10.389,42.763],[10.42,42.776],[10.437,42.804],[10.431,42.828],[10.443,42.845]]],[[[9.84,43.065],[9.826,43.075],[9.807,43.066],[9.785,43.028],[9.801,43.008],[9.823,43.008],[9.842,43.025],[9.855,43.044],[9.84,43.065]]],[[[10.297,42.345],[10.294,42.328],[10.313,42.324],[10.316,42.341],[10.297,42.345]]],[[[10.092,42.596],[10.084,42.615],[10.05,42.582],[10.086,42.572],[10.095,42.577],[10.092,42.596]]]]}},{"type":"Feature","properties":{"id":"it-55"},"geometry":{"type":"MultiPolygon","coordinates":[[[[12.205,43.617],[12.154,43.548],[12.137,43.532],[12.101,43.523],[12.098,43.511],[12.123,43.501],[12.134,43.489],[12.128,43.475],[12.103,43.465],[12.078,43.443],[12.057,43.437],[12.037,43.417],[12.074,43.411],[12.074,43.38],[12.081,43.372],[12.133,43.357],[12.139,43.3],[12.152,43.296],[12.177,43.299],[12.188,43.314],[12.203,43.318],[12.215,43.3],[12.213,43.291],[12.158,43.263],[12.127,43.261],[12.092,43.245],[12.05,43.256],[12.023,43.242],[12.012,43.2],[11.993,43.186],[11.953,43.174],[11.923,43.138],[11.918,43.122],[11.928,43.076],[11.942,43.064],[11.958,43.075],[11.969,43.069],[11.978,43.046],[11.969,43.011],[11.952,42.99],[11.932,42.927],[11.951,42.893],[11.932,42.872],[11.889,42.85],[11.933,42.791],[11.948,42.776],[11.97,42.765],[11.974,42.756],[11.957,42.737],[11.938,42.729],[11.93,42.709],[11.96,42.685],[11.986,42.675],[12.02,42.648],[12.034,42.646],[12.064,42.656],[12.099,42.661],[12.129,42.657],[12.157,42.675],[12.205,42.655],[12.236,42.648],[12.245,42.62],[12.245,42.586],[12.259,42.566],[12.272,42.566],[12.28,42.51],[12.301,42.49],[12.319,42.498],[12.343,42.492],[12.394,42.463],[12.417,42.441],[12.417,42.431],[12.452,42.421],[12.431,42.393],[12.465,42.387],[12.504,42.391],[12.516,42.387],[12.528,42.37],[12.576,42.39],[12.593,42.401],[12.612,42.434],[12.612,42.463],[12.63,42.462],[12.643,42.446],[12.666,42.443],[12.722,42.454],[12.728,42.463],[12.716,42.49],[12.721,42.496],[12.755,42.5],[12.78,42.527],[12.88,42.565],[12.879,42.59],[12.902,42.61],[12.988,42.608],[13.004,42.612],[13.018,42.632],[13.059,42.624],[13.091,42.631],[13.112,42.644],[13.154,42.645],[13.189,42.694],[13.183,42.715],[13.194,42.735],[13.203,42.76],[13.238,42.762],[13.249,42.768],[13.256,42.802],[13.247,42.826],[13.224,42.848],[13.167,42.825],[13.15,42.824],[13.137,42.849],[13.091,42.888],[13.049,42.918],[12.995,42.917],[12.992,42.897],[12.972,42.889],[12.962,42.929],[12.936,42.943],[12.913,42.963],[12.896,43.007],[12.898,43.023],[12.891,43.053],[12.895,43.087],[12.875,43.116],[12.837,43.132],[12.835,43.149],[12.857,43.176],[12.852,43.206],[12.796,43.278],[12.796,43.299],[12.789,43.324],[12.754,43.365],[12.746,43.379],[12.753,43.407],[12.758,43.461],[12.732,43.461],[12.713,43.454],[12.691,43.434],[12.645,43.444],[12.614,43.429],[12.605,43.43],[12.51,43.512],[12.488,43.522],[12.432,43.538],[12.403,43.524],[12.382,43.525],[12.32,43.546],[12.307,43.555],[12.31,43.567],[12.348,43.568],[12.357,43.584],[12.36,43.61],[12.351,43.62],[12.311,43.609],[12.286,43.592],[12.236,43.608],[12.213,43.609],[12.205,43.617]]],[[[12.421,43.59],[12.445,43.601],[12.443,43.62],[12.43,43.631],[12.41,43.621],[12.409,43.601],[12.421,43.59]]]]}},{"type":"Feature","properties":{"id":"it-57"},"geometry":{"type":"Polygon","coordinates":[[[12.286,43.769],[12.306,43.759],[12.358,43.723],[12.354,43.711],[12.334,43.689],[12.314,43.692],[12.31,43.724],[12.297,43.724],[12.278,43.69],[12.25,43.682],[12.227,43.665],[12.196,43.653],[12.193,43.644],[12.205,43.617],[12.213,43.609],[12.236,43.608],[12.286,43.592],[12.311,43.609],[12.351,43.62],[12.36,43.61],[12.357,43.584],[12.348,43.568],[12.31,43.567],[12.307,43.555],[12.32,43.546],[12.382,43.525],[12.403,43.524],[12.432,43.538],[12.488,43.522],[12.51,43.512],[12.605,43.43],[12.614,43.429],[12.645,43.444],[12.691,43.434],[12.713,43.454],[12.732,43.461],[12.758,43.461],[12.753,43.407],[12.746,43.379],[12.754,43.365],[12.789,43.324],[12.796,43.299],[12.796,43.278],[12.852,43.206],[12.857,43.176],[12.835,43.149],[12.837,43.132],[12.875,43.116],[12.895,43.087],[12.891,43.053],[12.898,43.023],[12.896,43.007],[12.913,42.963],[12.936,42.943],[12.962,42.929],[12.972,42.889],[12.992,42.897],[12.995,42.917],[13.049,42.918],[13.091,42.888],[13.137,42.849],[13.15,42.824],[13.167,42.825],[13.224,42.848],[13.247,42.826],[13.256,42.802],[13.249,42.768],[13.238,42.762],[13.203,42.76],[13.194,42.735],[13.242,42.736],[13.268,42.745],[13.282,42.74],[13.312,42.719],[13.338,42.688],[13.412,42.695],[13.43,42.702],[13.444,42.729],[13.49,42.744],[13.496,42.764],[13.53,42.807],[13.542,42.813],[13.565,42.802],[13.611,42.812],[13.638,42.807],[13.682,42.817],[13.696,42.83],[13.698,42.843],[13.713,42.86],[13.761,42.869],[13.817,42.887],[13.906,42.902],[13.865,43.007],[13.853,43.067],[13.849,43.092],[13.835,43.127],[13.787,43.201],[13.78,43.237],[13.76,43.264],[13.745,43.292],[13.647,43.475],[13.617,43.531],[13.625,43.547],[13.616,43.56],[13.569,43.58],[13.543,43.613],[13.504,43.633],[13.473,43.612],[13.447,43.624],[13.4,43.636],[13.37,43.65],[13.253,43.703],[13.177,43.752],[12.947,43.898],[12.929,43.916],[12.862,43.935],[12.804,43.967],[12.754,43.972],[12.739,43.939],[12.737,43.922],[12.742,43.905],[12.731,43.882],[12.694,43.863],[12.68,43.845],[12.633,43.843],[12.616,43.853],[12.608,43.873],[12.591,43.893],[12.572,43.89],[12.559,43.875],[12.548,43.885],[12.537,43.907],[12.483,43.929],[12.46,43.895],[12.421,43.895],[12.42,43.878],[12.405,43.874],[12.391,43.883],[12.351,43.87],[12.346,43.847],[12.322,43.814],[12.285,43.795],[12.286,43.769]],[[12.421,43.59],[12.409,43.601],[12.41,43.621],[12.43,43.631],[12.443,43.62],[12.445,43.601],[12.421,43.59]]]}},{"type":"Feature","properties":{"id":"it-62"},"geometry":{"type":"Polygon","coordinates":[[[13.194,42.735],[13.183,42.715],[13.189,42.694],[13.154,42.645],[13.112,42.644],[13.091,42.631],[13.059,42.624],[13.018,42.632],[13.004,42.612],[12.988,42.608],[12.902,42.61],[12.879,42.59],[12.88,42.565],[12.78,42.527],[12.755,42.5],[12.721,42.496],[12.716,42.49],[12.728,42.463],[12.722,42.454],[12.666,42.443],[12.643,42.446],[12.63,42.462],[12.612,42.463],[12.612,42.434],[12.593,42.401],[12.576,42.39],[12.528,42.37],[12.516,42.387],[12.504,42.391],[12.465,42.387],[12.431,42.393],[12.452,42.421],[12.417,42.431],[12.417,42.441],[12.394,42.463],[12.343,42.492],[12.319,42.498],[12.301,42.49],[12.28,42.51],[12.272,42.566],[12.259,42.566],[12.245,42.586],[12.245,42.62],[12.236,42.648],[12.205,42.655],[12.157,42.675],[12.129,42.657],[12.099,42.661],[12.064,42.656],[12.034,42.646],[12.02,42.648],[11.986,42.675],[11.96,42.685],[11.93,42.709],[11.938,42.729],[11.957,42.737],[11.974,42.756],[11.97,42.765],[11.948,42.776],[11.933,42.791],[11.889,42.85],[11.833,42.833],[11.808,42.813],[11.765,42.819],[11.747,42.798],[11.774,42.781],[11.786,42.76],[11.808,42.738],[11.792,42.718],[11.787,42.7],[11.79,42.671],[11.787,42.651],[11.756,42.645],[11.735,42.616],[11.694,42.598],[11.671,42.577],[11.621,42.56],[11.606,42.568],[11.588,42.566],[11.586,42.536],[11.571,42.525],[11.571,42.511],[11.608,42.487],[11.61,42.475],[11.602,42.447],[11.59,42.442],[11.498,42.434],[11.472,42.419],[11.451,42.374],[11.489,42.359],[11.539,42.349],[11.658,42.279],[11.682,42.252],[11.736,42.169],[11.74,42.16],[11.75,42.128],[11.772,42.106],[11.78,42.093],[11.809,42.066],[11.827,42.034],[11.84,42.036],[11.917,42.038],[11.935,42.031],[11.969,42.011],[11.982,42],[12.02,41.993],[12.03,41.973],[12.147,41.903],[12.17,41.88],[12.206,41.827],[12.215,41.768],[12.223,41.751],[12.239,41.736],[12.285,41.727],[12.301,41.717],[12.327,41.711],[12.343,41.702],[12.448,41.631],[12.546,41.544],[12.619,41.459],[12.635,41.447],[12.654,41.466],[12.679,41.458],[12.749,41.424],[12.774,41.421],[12.842,41.418],[12.862,41.414],[12.894,41.399],[12.924,41.38],[12.98,41.331],[12.993,41.316],[13.033,41.257],[13.045,41.228],[13.068,41.222],[13.091,41.227],[13.115,41.251],[13.151,41.26],[13.205,41.284],[13.286,41.296],[13.324,41.295],[13.48,41.239],[13.5,41.222],[13.514,41.23],[13.534,41.208],[13.575,41.208],[13.564,41.238],[13.594,41.253],[13.657,41.26],[13.663,41.251],[13.709,41.256],[13.744,41.238],[13.771,41.249],[13.805,41.254],[13.823,41.281],[13.847,41.288],[13.867,41.306],[13.873,41.335],[13.869,41.358],[13.875,41.394],[13.86,41.419],[13.866,41.428],[13.897,41.436],[13.938,41.464],[13.962,41.471],[13.982,41.487],[13.981,41.504],[14.006,41.519],[14.01,41.529],[14.006,41.563],[13.994,41.583],[13.993,41.628],[13.968,41.667],[13.946,41.688],[13.892,41.724],[13.873,41.731],[13.843,41.734],[13.794,41.754],[13.774,41.748],[13.744,41.755],[13.73,41.78],[13.715,41.795],[13.647,41.811],[13.632,41.803],[13.599,41.778],[13.579,41.77],[13.529,41.771],[13.501,41.796],[13.405,41.832],[13.367,41.828],[13.355,41.834],[13.355,41.872],[13.37,41.903],[13.353,41.919],[13.331,41.927],[13.317,41.941],[13.298,41.947],[13.28,41.947],[13.097,42.024],[13.082,42.019],[13.049,42.023],[13.028,42.032],[13.017,42.055],[13.012,42.099],[13.03,42.116],[13.073,42.141],[13.09,42.171],[13.099,42.174],[13.142,42.159],[13.173,42.153],[13.208,42.136],[13.234,42.129],[13.261,42.139],[13.285,42.131],[13.302,42.138],[13.305,42.167],[13.355,42.179],[13.362,42.19],[13.317,42.197],[13.3,42.222],[13.267,42.234],[13.25,42.257],[13.223,42.278],[13.215,42.307],[13.2,42.323],[13.163,42.339],[13.156,42.349],[13.159,42.367],[13.178,42.4],[13.142,42.415],[13.132,42.426],[13.132,42.455],[13.165,42.48],[13.163,42.512],[13.135,42.538],[13.146,42.549],[13.174,42.557],[13.186,42.587],[13.231,42.58],[13.259,42.58],[13.286,42.572],[13.338,42.575],[13.369,42.586],[13.376,42.604],[13.386,42.631],[13.386,42.644],[13.352,42.657],[13.338,42.67],[13.338,42.688],[13.312,42.719],[13.282,42.74],[13.268,42.745],[13.242,42.736],[13.194,42.735]]]}},{"type":"Feature","properties":{"id":"it-65"},"geometry":{"type":"Polygon","coordinates":[[[13.338,42.688],[13.338,42.67],[13.352,42.657],[13.386,42.644],[13.386,42.631],[13.376,42.604],[13.369,42.586],[13.338,42.575],[13.286,42.572],[13.259,42.58],[13.231,42.58],[13.186,42.587],[13.174,42.557],[13.146,42.549],[13.135,42.538],[13.163,42.512],[13.165,42.48],[13.132,42.455],[13.132,42.426],[13.142,42.415],[13.178,42.4],[13.159,42.367],[13.156,42.349],[13.163,42.339],[13.2,42.323],[13.215,42.307],[13.223,42.278],[13.25,42.257],[13.267,42.234],[13.3,42.222],[13.317,42.197],[13.362,42.19],[13.355,42.179],[13.305,42.167],[13.302,42.138],[13.285,42.131],[13.261,42.139],[13.234,42.129],[13.208,42.136],[13.173,42.153],[13.142,42.159],[13.099,42.174],[13.09,42.171],[13.073,42.141],[13.03,42.116],[13.012,42.099],[13.017,42.055],[13.028,42.032],[13.049,42.023],[13.082,42.019],[13.097,42.024],[13.28,41.947],[13.298,41.947],[13.317,41.941],[13.331,41.927],[13.353,41.919],[13.37,41.903],[13.355,41.872],[13.355,41.834],[13.367,41.828],[13.405,41.832],[13.501,41.796],[13.529,41.771],[13.579,41.77],[13.599,41.778],[13.632,41.803],[13.647,41.811],[13.715,41.795],[13.73,41.78],[13.744,41.755],[13.774,41.748],[13.794,41.754],[13.843,41.734],[13.873,41.731],[13.892,41.724],[13.946,41.688],[13.965,41.692],[13.995,41.687],[14.035,41.704],[14.063,41.729],[14.099,41.725],[14.139,41.749],[14.175,41.76],[14.186,41.77],[14.169,41.78],[14.143,41.815],[14.142,41.824],[14.161,41.842],[14.192,41.84],[14.212,41.855],[14.229,41.877],[14.272,41.904],[14.283,41.906],[14.319,41.887],[14.334,41.869],[14.358,41.863],[14.372,41.874],[14.422,41.847],[14.433,41.837],[14.432,41.814],[14.45,41.791],[14.447,41.771],[14.458,41.766],[14.49,41.776],[14.515,41.786],[14.557,41.832],[14.577,41.856],[14.61,41.888],[14.634,41.908],[14.648,41.925],[14.65,41.95],[14.673,41.959],[14.744,42.013],[14.749,42.042],[14.763,42.065],[14.763,42.078],[14.741,42.085],[14.723,42.119],[14.717,42.16],[14.709,42.175],[14.694,42.185],[14.653,42.191],[14.596,42.209],[14.56,42.226],[14.429,42.322],[14.387,42.373],[14.356,42.393],[14.284,42.428],[14.257,42.446],[14.221,42.47],[14.151,42.532],[14.075,42.599],[14.063,42.625],[14.001,42.698],[13.98,42.73],[13.945,42.798],[13.906,42.902],[13.817,42.887],[13.761,42.869],[13.713,42.86],[13.698,42.843],[13.696,42.83],[13.682,42.817],[13.638,42.807],[13.611,42.812],[13.565,42.802],[13.542,42.813],[13.53,42.807],[13.496,42.764],[13.49,42.744],[13.444,42.729],[13.43,42.702],[13.412,42.695],[13.338,42.688]]]}},{"type":"Feature","properties":{"id":"it-67"},"geometry":{"type":"Polygon","coordinates":[[[13.946,41.688],[13.968,41.667],[13.993,41.628],[13.994,41.583],[14.006,41.563],[14.01,41.529],[14.006,41.519],[13.981,41.504],[13.982,41.487],[13.962,41.471],[13.985,41.461],[14.026,41.404],[14.039,41.395],[14.088,41.389],[14.109,41.393],[14.106,41.419],[14.083,41.438],[14.083,41.455],[14.121,41.496],[14.164,41.491],[14.223,41.495],[14.266,41.485],[14.295,41.469],[14.329,41.457],[14.383,41.442],[14.434,41.426],[14.462,41.423],[14.475,41.415],[14.496,41.39],[14.514,41.389],[14.556,41.389],[14.578,41.373],[14.602,41.373],[14.666,41.404],[14.733,41.405],[14.759,41.416],[14.776,41.443],[14.793,41.443],[14.827,41.426],[14.881,41.442],[14.937,41.455],[14.995,41.482],[14.935,41.526],[14.939,41.563],[14.933,41.593],[14.934,41.62],[14.963,41.634],[15.008,41.62],[15.018,41.62],[15.054,41.647],[15.071,41.653],[15.113,41.686],[15.145,41.694],[15.152,41.709],[15.116,41.716],[15.107,41.727],[15.103,41.774],[15.112,41.797],[15.106,41.83],[15.11,41.841],[15.132,41.87],[15.144,41.931],[15.104,41.942],[15.063,41.964],[15.035,41.975],[14.994,42.011],[14.952,42.021],[14.871,42.032],[14.835,42.044],[14.8,42.066],[14.763,42.078],[14.763,42.065],[14.749,42.042],[14.744,42.013],[14.673,41.959],[14.65,41.95],[14.648,41.925],[14.634,41.908],[14.61,41.888],[14.577,41.856],[14.557,41.832],[14.515,41.786],[14.49,41.776],[14.458,41.766],[14.447,41.771],[14.45,41.791],[14.432,41.814],[14.433,41.837],[14.422,41.847],[14.372,41.874],[14.358,41.863],[14.334,41.869],[14.319,41.887],[14.283,41.906],[14.272,41.904],[14.229,41.877],[14.212,41.855],[14.192,41.84],[14.161,41.842],[14.142,41.824],[14.143,41.815],[14.169,41.78],[14.186,41.77],[14.175,41.76],[14.139,41.749],[14.099,41.725],[14.063,41.729],[14.035,41.704],[13.995,41.687],[13.965,41.692],[13.946,41.688]]]}},{"type":"Feature","properties":{"id":"it-72"},"geometry":{"type":"MultiPolygon","coordinates":[[[[13.962,41.471],[13.938,41.464],[13.897,41.436],[13.866,41.428],[13.86,41.419],[13.875,41.394],[13.869,41.358],[13.873,41.335],[13.867,41.306],[13.847,41.288],[13.823,41.281],[13.805,41.254],[13.771,41.249],[13.744,41.238],[13.79,41.206],[13.852,41.147],[13.884,41.105],[13.911,41.065],[13.918,41.024],[13.965,40.996],[14.01,40.937],[14.021,40.922],[14.044,40.874],[14.052,40.838],[14.041,40.796],[14.048,40.79],[14.075,40.786],[14.081,40.797],[14.076,40.822],[14.096,40.834],[14.135,40.819],[14.166,40.816],[14.182,40.801],[14.203,40.801],[14.224,40.831],[14.248,40.838],[14.294,40.839],[14.312,40.828],[14.367,40.78],[14.394,40.762],[14.421,40.751],[14.443,40.755],[14.474,40.73],[14.48,40.711],[14.476,40.695],[14.444,40.686],[14.405,40.656],[14.398,40.644],[14.38,40.634],[14.36,40.633],[14.338,40.624],[14.328,40.605],[14.33,40.584],[14.343,40.571],[14.356,40.584],[14.402,40.602],[14.422,40.616],[14.471,40.625],[14.487,40.633],[14.516,40.62],[14.544,40.614],[14.571,40.618],[14.613,40.646],[14.626,40.649],[14.678,40.647],[14.69,40.649],[14.72,40.667],[14.752,40.677],[14.782,40.67],[14.81,40.653],[14.862,40.607],[14.889,40.573],[14.976,40.431],[14.998,40.398],[15,40.369],[14.994,40.358],[14.973,40.352],[14.954,40.34],[14.932,40.334],[14.939,40.307],[14.932,40.286],[14.907,40.259],[14.911,40.242],[14.938,40.228],[14.957,40.232],[14.976,40.219],[15.003,40.21],[15.023,40.196],[15.035,40.175],[15.066,40.167],[15.113,40.175],[15.127,40.17],[15.19,40.119],[15.234,40.1],[15.263,40.074],[15.279,40.048],[15.261,40.036],[15.283,40.03],[15.314,40.034],[15.343,40.004],[15.361,39.999],[15.41,39.994],[15.43,40],[15.46,40.029],[15.495,40.047],[15.513,40.068],[15.535,40.078],[15.61,40.073],[15.647,40.047],[15.663,40.061],[15.65,40.081],[15.669,40.097],[15.693,40.131],[15.694,40.162],[15.724,40.191],[15.74,40.197],[15.775,40.22],[15.791,40.252],[15.785,40.269],[15.748,40.3],[15.717,40.318],[15.711,40.331],[15.706,40.374],[15.684,40.389],[15.656,40.394],[15.623,40.423],[15.592,40.433],[15.576,40.457],[15.551,40.471],[15.535,40.494],[15.54,40.52],[15.518,40.565],[15.483,40.59],[15.456,40.595],[15.446,40.606],[15.463,40.632],[15.481,40.641],[15.489,40.654],[15.48,40.665],[15.458,40.669],[15.435,40.679],[15.421,40.695],[15.396,40.709],[15.379,40.729],[15.372,40.769],[15.365,40.792],[15.369,40.802],[15.344,40.821],[15.366,40.844],[15.361,40.876],[15.369,40.899],[15.471,40.902],[15.524,40.924],[15.544,40.944],[15.555,40.972],[15.578,41.011],[15.576,41.027],[15.559,41.055],[15.455,41.079],[15.412,41.104],[15.383,41.097],[15.288,41.103],[15.275,41.106],[15.255,41.128],[15.209,41.149],[15.203,41.166],[15.248,41.202],[15.253,41.214],[15.246,41.229],[15.268,41.238],[15.252,41.259],[15.179,41.289],[15.167,41.279],[15.143,41.275],[15.128,41.308],[15.117,41.316],[15.091,41.321],[15.072,41.335],[15.067,41.358],[15.086,41.38],[15.102,41.391],[15.1,41.419],[15.094,41.43],[15.072,41.438],[15.051,41.461],[14.995,41.482],[14.937,41.455],[14.881,41.442],[14.827,41.426],[14.793,41.443],[14.776,41.443],[14.759,41.416],[14.733,41.405],[14.666,41.404],[14.602,41.373],[14.578,41.373],[14.556,41.389],[14.514,41.389],[14.496,41.39],[14.475,41.415],[14.462,41.423],[14.434,41.426],[14.383,41.442],[14.329,41.457],[14.295,41.469],[14.266,41.485],[14.223,41.495],[14.164,41.491],[14.121,41.496],[14.083,41.455],[14.083,41.438],[14.106,41.419],[14.109,41.393],[14.088,41.389],[14.039,41.395],[14.026,41.404],[13.985,41.461],[13.962,41.471]]],[[[13.945,40.702],[13.966,40.715],[13.966,40.735],[13.946,40.745],[13.883,40.762],[13.863,40.762],[13.862,40.744],[13.849,40.715],[13.89,40.694],[13.92,40.704],[13.945,40.702]]]]}},{"type":"Feature","properties":{"id":"it-75"},"geometry":{"type":"Polygon","coordinates":[[[14.995,41.482],[15.051,41.461],[15.072,41.438],[15.094,41.43],[15.1,41.419],[15.102,41.391],[15.086,41.38],[15.067,41.358],[15.072,41.335],[15.091,41.321],[15.117,41.316],[15.128,41.308],[15.143,41.275],[15.167,41.279],[15.179,41.289],[15.252,41.259],[15.268,41.238],[15.246,41.229],[15.253,41.214],[15.248,41.202],[15.203,41.166],[15.209,41.149],[15.255,41.128],[15.275,41.106],[15.288,41.103],[15.383,41.097],[15.412,41.104],[15.455,41.079],[15.559,41.055],[15.555,41.069],[15.562,41.086],[15.583,41.105],[15.596,41.109],[15.753,41.103],[15.771,41.105],[15.85,41.132],[15.858,41.137],[15.884,41.112],[15.9,41.101],[15.953,41.085],[16.025,41.025],[16.031,41.017],[16.016,40.98],[16.001,40.966],[15.985,40.965],[15.988,40.95],[16.095,40.911],[16.119,40.904],[16.141,40.919],[16.165,40.923],[16.197,40.911],[16.216,40.891],[16.227,40.86],[16.245,40.838],[16.34,40.752],[16.396,40.713],[16.42,40.703],[16.435,40.71],[16.498,40.758],[16.516,40.758],[16.535,40.734],[16.55,40.735],[16.536,40.755],[16.545,40.759],[16.569,40.749],[16.587,40.762],[16.621,40.758],[16.653,40.744],[16.695,40.734],[16.716,40.715],[16.715,40.706],[16.697,40.694],[16.712,40.685],[16.72,40.664],[16.711,40.637],[16.713,40.597],[16.711,40.552],[16.728,40.485],[16.741,40.468],[16.786,40.473],[16.797,40.463],[16.813,40.436],[16.831,40.422],[16.848,40.402],[16.863,40.391],[16.912,40.445],[16.976,40.493],[17.05,40.519],[17.125,40.515],[17.166,40.509],[17.182,40.485],[17.211,40.487],[17.247,40.503],[17.269,40.496],[17.323,40.498],[17.316,40.482],[17.296,40.473],[17.247,40.48],[17.228,40.474],[17.248,40.457],[17.243,40.441],[17.223,40.428],[17.2,40.42],[17.213,40.406],[17.24,40.395],[17.296,40.379],[17.351,40.355],[17.375,40.349],[17.399,40.331],[17.44,40.331],[17.494,40.307],[17.512,40.304],[17.764,40.293],[17.848,40.29],[17.863,40.286],[17.913,40.255],[17.92,40.191],[17.926,40.176],[17.967,40.146],[17.997,40.12],[18.011,40.096],[18.003,40.074],[17.967,40.057],[18.005,40.045],[18.016,40.036],[18.02,40.01],[17.995,39.995],[18.007,39.986],[18.072,39.912],[18.131,39.883],[18.162,39.861],[18.211,39.839],[18.266,39.838],[18.282,39.833],[18.33,39.803],[18.368,39.797],[18.384,39.814],[18.4,39.879],[18.393,39.916],[18.404,39.947],[18.411,39.979],[18.434,40.023],[18.47,40.043],[18.484,40.055],[18.492,40.085],[18.508,40.095],[18.517,40.114],[18.511,40.128],[18.516,40.139],[18.5,40.152],[18.437,40.268],[18.37,40.339],[18.344,40.352],[18.303,40.4],[18.259,40.431],[18.238,40.458],[18.212,40.465],[18.12,40.505],[18.099,40.518],[18.037,40.557],[18.043,40.602],[18.016,40.625],[18.007,40.651],[17.992,40.653],[17.955,40.647],[17.956,40.67],[17.922,40.683],[17.844,40.694],[17.748,40.748],[17.645,40.78],[17.635,40.785],[17.548,40.802],[17.512,40.82],[17.476,40.83],[17.414,40.881],[17.392,40.894],[17.348,40.912],[17.31,40.955],[17.276,40.98],[17.203,41.021],[17.057,41.082],[16.885,41.124],[16.864,41.14],[16.851,41.133],[16.831,41.146],[16.594,41.207],[16.544,41.235],[16.521,41.25],[16.46,41.263],[16.301,41.328],[16.114,41.393],[16.085,41.413],[16.022,41.428],[15.972,41.454],[15.934,41.479],[15.912,41.503],[15.896,41.536],[15.891,41.577],[15.9,41.615],[15.925,41.64],[16.028,41.68],[16.063,41.701],[16.107,41.738],[16.146,41.749],[16.167,41.763],[16.193,41.791],[16.192,41.821],[16.176,41.877],[16.179,41.893],[16.161,41.893],[16.14,41.92],[16.111,41.928],[16.027,41.944],[15.774,41.921],[15.611,41.928],[15.446,41.907],[15.401,41.908],[15.282,41.928],[15.165,41.928],[15.144,41.931],[15.132,41.87],[15.11,41.841],[15.106,41.83],[15.112,41.797],[15.103,41.774],[15.107,41.727],[15.116,41.716],[15.152,41.709],[15.145,41.694],[15.113,41.686],[15.071,41.653],[15.054,41.647],[15.018,41.62],[15.008,41.62],[14.963,41.634],[14.934,41.62],[14.933,41.593],[14.939,41.563],[14.935,41.526],[14.995,41.482]]]}},{"type":"Feature","properties":{"id":"it-77"},"geometry":{"type":"Polygon","coordinates":[[[15.559,41.055],[15.576,41.027],[15.578,41.011],[15.555,40.972],[15.544,40.944],[15.524,40.924],[15.471,40.902],[15.369,40.899],[15.361,40.876],[15.366,40.844],[15.344,40.821],[15.369,40.802],[15.365,40.792],[15.372,40.769],[15.379,40.729],[15.396,40.709],[15.421,40.695],[15.435,40.679],[15.458,40.669],[15.48,40.665],[15.489,40.654],[15.481,40.641],[15.463,40.632],[15.446,40.606],[15.456,40.595],[15.483,40.59],[15.518,40.565],[15.54,40.52],[15.535,40.494],[15.551,40.471],[15.576,40.457],[15.592,40.433],[15.623,40.423],[15.656,40.394],[15.684,40.389],[15.706,40.374],[15.711,40.331],[15.717,40.318],[15.748,40.3],[15.785,40.269],[15.791,40.252],[15.775,40.22],[15.74,40.197],[15.724,40.191],[15.694,40.162],[15.693,40.131],[15.669,40.097],[15.65,40.081],[15.663,40.061],[15.647,40.047],[15.679,40.009],[15.713,39.981],[15.728,39.964],[15.746,39.925],[15.777,39.965],[15.841,40.004],[15.858,40.008],[15.904,39.986],[15.92,40.004],[15.952,40.004],[15.977,39.981],[15.991,39.978],[16.016,39.987],[16.022,39.982],[16.011,39.962],[16.015,39.948],[16.05,39.916],[16.069,39.907],[16.197,39.915],[16.215,39.929],[16.263,39.942],[16.303,39.937],[16.331,39.921],[16.339,39.91],[16.36,39.905],[16.356,39.927],[16.345,39.933],[16.365,39.975],[16.384,39.993],[16.389,40.009],[16.388,40.036],[16.399,40.056],[16.407,40.071],[16.41,40.108],[16.418,40.129],[16.435,40.135],[16.45,40.124],[16.479,40.126],[16.527,40.121],[16.559,40.127],[16.621,40.123],[16.64,40.119],[16.679,40.146],[16.716,40.194],[16.738,40.211],[16.761,40.27],[16.783,40.302],[16.863,40.391],[16.848,40.402],[16.831,40.422],[16.813,40.436],[16.797,40.463],[16.786,40.473],[16.741,40.468],[16.728,40.485],[16.711,40.552],[16.713,40.597],[16.711,40.637],[16.72,40.664],[16.712,40.685],[16.697,40.694],[16.715,40.706],[16.716,40.715],[16.695,40.734],[16.653,40.744],[16.621,40.758],[16.587,40.762],[16.569,40.749],[16.545,40.759],[16.536,40.755],[16.55,40.735],[16.535,40.734],[16.516,40.758],[16.498,40.758],[16.435,40.71],[16.42,40.703],[16.396,40.713],[16.34,40.752],[16.245,40.838],[16.227,40.86],[16.216,40.891],[16.197,40.911],[16.165,40.923],[16.141,40.919],[16.119,40.904],[16.095,40.911],[15.988,40.95],[15.985,40.965],[16.001,40.966],[16.016,40.98],[16.031,41.017],[16.025,41.025],[15.953,41.085],[15.9,41.101],[15.884,41.112],[15.858,41.137],[15.85,41.132],[15.771,41.105],[15.753,41.103],[15.596,41.109],[15.583,41.105],[15.562,41.086],[15.555,41.069],[15.559,41.055]]]}},{"type":"Feature","properties":{"id":"it-78"},"geometry":{"type":"Polygon","coordinates":[[[15.746,39.925],[15.774,39.891],[15.782,39.869],[15.77,39.83],[15.789,39.797],[15.806,39.696],[15.837,39.653],[15.868,39.564],[15.876,39.551],[15.905,39.536],[15.933,39.514],[15.958,39.478],[15.995,39.439],[16.034,39.345],[16.042,39.311],[16.083,39.075],[16.097,39.05],[16.14,38.974],[16.154,38.955],[16.19,38.944],[16.205,38.934],[16.22,38.899],[16.222,38.857],[16.214,38.81],[16.201,38.776],[16.179,38.748],[16.153,38.731],[16.121,38.721],[16.049,38.728],[16.003,38.725],[15.968,38.713],[15.905,38.679],[15.844,38.66],[15.837,38.649],[15.835,38.628],[15.85,38.613],[15.871,38.604],[15.9,38.578],[15.916,38.55],[15.918,38.517],[15.914,38.506],[15.905,38.474],[15.83,38.351],[15.816,38.306],[15.786,38.278],[15.684,38.253],[15.651,38.241],[15.633,38.22],[15.638,38.186],[15.646,38.162],[15.648,38.143],[15.642,38.126],[15.627,38.107],[15.624,38.092],[15.633,38.074],[15.658,38.043],[15.638,38.028],[15.635,38.009],[15.646,37.988],[15.666,37.967],[15.708,37.941],[15.761,37.925],[15.942,37.933],[16.001,37.919],[16.016,37.925],[16.063,37.933],[16.09,37.949],[16.111,37.974],[16.125,38.005],[16.152,38.111],[16.169,38.143],[16.306,38.277],[16.34,38.301],[16.435,38.34],[16.467,38.349],[16.498,38.369],[16.561,38.416],[16.57,38.43],[16.573,38.467],[16.577,38.529],[16.559,38.596],[16.549,38.672],[16.549,38.69],[16.535,38.7],[16.539,38.723],[16.564,38.757],[16.574,38.785],[16.611,38.817],[16.671,38.841],[16.688,38.856],[16.728,38.879],[16.839,38.918],[16.892,38.93],[16.935,38.939],[16.981,38.937],[16.996,38.93],[17.022,38.906],[17.042,38.916],[17.071,38.923],[17.095,38.919],[17.104,38.899],[17.128,38.929],[17.172,38.961],[17.172,39.005],[17.177,39.012],[17.206,39.029],[17.158,39.04],[17.125,39.091],[17.122,39.121],[17.14,39.179],[17.146,39.211],[17.142,39.222],[17.118,39.256],[17.115,39.283],[17.122,39.338],[17.159,39.406],[17.124,39.409],[17.089,39.423],[17.057,39.442],[17.019,39.479],[16.995,39.493],[16.953,39.499],[16.906,39.53],[16.846,39.553],[16.816,39.591],[16.782,39.612],[16.75,39.62],[16.625,39.625],[16.591,39.637],[16.546,39.661],[16.516,39.69],[16.529,39.722],[16.502,39.747],[16.49,39.775],[16.492,39.805],[16.508,39.838],[16.542,39.885],[16.589,39.92],[16.605,39.943],[16.632,39.966],[16.614,39.997],[16.597,40.047],[16.605,40.084],[16.625,40.108],[16.64,40.119],[16.621,40.123],[16.559,40.127],[16.527,40.121],[16.479,40.126],[16.45,40.124],[16.435,40.135],[16.418,40.129],[16.41,40.108],[16.407,40.071],[16.399,40.056],[16.388,40.036],[16.389,40.009],[16.384,39.993],[16.365,39.975],[16.345,39.933],[16.356,39.927],[16.36,39.905],[16.339,39.91],[16.331,39.921],[16.303,39.937],[16.263,39.942],[16.215,39.929],[16.197,39.915],[16.069,39.907],[16.05,39.916],[16.015,39.948],[16.011,39.962],[16.022,39.982],[16.016,39.987],[15.991,39.978],[15.977,39.981],[15.952,40.004],[15.92,40.004],[15.904,39.986],[15.858,40.008],[15.841,40.004],[15.777,39.965],[15.746,39.925]]]}},{"type":"Feature","properties":{"id":"it-82"},"geometry":{"type":"MultiPolygon","coordinates":[[[[12,36.836],[11.987,36.824],[11.946,36.842],[11.922,36.828],[11.925,36.812],[11.937,36.789],[11.961,36.765],[11.996,36.745],[12.031,36.741],[12.053,36.768],[12.052,36.79],[12.038,36.807],[12,36.836]]],[[[12.273,37.94],[12.288,37.922],[12.314,37.925],[12.342,37.913],[12.358,37.914],[12.369,37.925],[12.337,37.933],[12.314,37.946],[12.287,37.939],[12.273,37.94]]],[[[12.894,37.573],[12.943,37.569],[12.974,37.557],[13,37.535],[13.01,37.507],[13.026,37.493],[13.052,37.501],[13.174,37.487],[13.189,37.47],[13.206,37.464],[13.225,37.446],[13.253,37.432],[13.278,37.394],[13.311,37.381],[13.33,37.366],[13.372,37.346],[13.422,37.314],[13.453,37.299],[13.489,37.288],[13.534,37.282],[13.569,37.274],[13.599,37.257],[13.683,37.189],[13.716,37.171],[13.752,37.159],[13.795,37.152],[13.833,37.14],[13.894,37.101],[13.938,37.096],[13.976,37.11],[14.039,37.114],[14.089,37.118],[14.126,37.112],[14.209,37.081],[14.279,37.044],[14.335,37.001],[14.37,36.973],[14.395,36.945],[14.476,36.805],[14.487,36.793],[14.566,36.778],[14.582,36.781],[14.6,36.772],[14.659,36.754],[14.685,36.726],[14.744,36.719],[14.761,36.706],[14.781,36.699],[14.847,36.726],[14.882,36.731],[14.919,36.72],[14.957,36.698],[14.982,36.689],[15,36.702],[15.021,36.699],[15.041,36.688],[15.074,36.659],[15.094,36.655],[15.115,36.66],[15.134,36.675],[15.135,36.688],[15.117,36.747],[15.099,36.779],[15.094,36.8],[15.107,36.809],[15.108,36.82],[15.158,36.924],[15.175,36.944],[15.212,36.956],[15.244,36.972],[15.268,36.973],[15.268,37],[15.303,37.016],[15.325,37.008],[15.329,37.028],[15.312,37.044],[15.292,37.042],[15.284,37.048],[15.288,37.069],[15.303,37.062],[15.308,37.087],[15.303,37.101],[15.289,37.108],[15.265,37.11],[15.247,37.118],[15.232,37.135],[15.229,37.15],[15.216,37.155],[15.195,37.176],[15.183,37.207],[15.199,37.228],[15.193,37.24],[15.216,37.245],[15.229,37.23],[15.252,37.258],[15.237,37.275],[15.217,37.285],[15.18,37.291],[15.111,37.322],[15.093,37.359],[15.09,37.459],[15.097,37.494],[15.116,37.522],[15.164,37.568],[15.197,37.655],[15.202,37.685],[15.216,37.697],[15.219,37.718],[15.207,37.748],[15.213,37.761],[15.241,37.796],[15.26,37.808],[15.283,37.833],[15.303,37.864],[15.393,37.976],[15.5,38.085],[15.527,38.137],[15.576,38.2],[15.56,38.2],[15.57,38.227],[15.584,38.24],[15.624,38.262],[15.642,38.262],[15.652,38.275],[15.616,38.28],[15.559,38.3],[15.529,38.303],[15.513,38.298],[15.473,38.268],[15.434,38.253],[15.4,38.233],[15.321,38.211],[15.292,38.207],[15.258,38.21],[15.245,38.217],[15.241,38.241],[15.203,38.183],[15.177,38.156],[15.123,38.141],[15.088,38.128],[15.069,38.131],[15.049,38.152],[15.007,38.152],[14.963,38.163],[14.945,38.182],[14.907,38.188],[14.874,38.176],[14.798,38.16],[14.745,38.161],[14.734,38.158],[14.696,38.121],[14.668,38.099],[14.635,38.081],[14.512,38.044],[14.464,38.037],[14.432,38.049],[14.385,38.03],[14.331,38.018],[14.273,38.015],[14.18,38.026],[14.151,38.029],[14.106,38.021],[14.063,38.03],[14.021,38.049],[14.007,38.038],[13.938,38.029],[13.898,38.004],[13.857,37.997],[13.813,37.978],[13.791,37.974],[13.727,37.981],[13.698,37.994],[13.651,38.001],[13.622,38.015],[13.587,38.039],[13.547,38.056],[13.539,38.077],[13.541,38.094],[13.514,38.111],[13.391,38.103],[13.373,38.141],[13.372,38.173],[13.366,38.18],[13.328,38.2],[13.323,38.218],[13.31,38.22],[13.254,38.203],[13.239,38.207],[13.23,38.185],[13.207,38.176],[13.157,38.18],[13.122,38.191],[13.101,38.19],[13.084,38.175],[13.089,38.166],[13.055,38.142],[13.066,38.123],[13.07,38.091],[13.027,38.062],[12.976,38.044],[12.944,38.033],[12.901,38.028],[12.87,38.043],[12.869,38.051],[12.829,38.07],[12.818,38.078],[12.791,38.117],[12.766,38.163],[12.761,38.181],[12.738,38.181],[12.72,38.175],[12.725,38.126],[12.705,38.111],[12.662,38.116],[12.652,38.091],[12.639,38.079],[12.608,38.062],[12.576,38.072],[12.55,38.055],[12.523,38.031],[12.493,38.021],[12.504,38.011],[12.503,37.997],[12.49,37.954],[12.464,37.913],[12.479,37.881],[12.46,37.819],[12.427,37.809],[12.427,37.797],[12.456,37.76],[12.465,37.72],[12.489,37.683],[12.506,37.666],[12.524,37.658],[12.563,37.658],[12.595,37.638],[12.636,37.582],[12.659,37.565],[12.698,37.563],[12.781,37.574],[12.862,37.576],[12.894,37.573]]],[[[12.072,37.968],[12.064,37.986],[12.054,37.992],[12.03,37.984],[12.048,37.961],[12.065,37.951],[12.072,37.968]]],[[[14.966,38.433],[14.945,38.412],[14.948,38.396],[14.987,38.364],[15.007,38.378],[14.994,38.403],[14.966,38.419],[14.966,38.433]]],[[[14.908,38.474],[14.949,38.451],[14.966,38.461],[14.953,38.481],[14.979,38.488],[14.959,38.502],[14.958,38.522],[14.925,38.522],[14.91,38.515],[14.901,38.499],[14.899,38.482],[14.908,38.474]]],[[[14.863,38.549],[14.877,38.57],[14.867,38.581],[14.851,38.585],[14.815,38.584],[14.794,38.572],[14.824,38.552],[14.862,38.539],[14.863,38.549]]],[[[14.576,38.577],[14.564,38.585],[14.542,38.587],[14.552,38.562],[14.585,38.557],[14.576,38.577]]],[[[15.228,38.81],[15.212,38.81],[15.187,38.789],[15.206,38.775],[15.225,38.777],[15.239,38.804],[15.228,38.81]]],[[[13.169,38.717],[13.158,38.71],[13.153,38.695],[13.177,38.693],[13.197,38.708],[13.186,38.718],[13.169,38.717]]],[[[12.86,35.872],[12.846,35.863],[12.857,35.852],[12.873,35.852],[12.874,35.866],[12.86,35.872]]],[[[12.622,35.51],[12.613,35.515],[12.534,35.522],[12.536,35.513],[12.611,35.489],[12.621,35.492],[12.622,35.51]]]]}},{"type":"Feature","properties":{"id":"it-88"},"geometry":{"type":"MultiPolygon","coordinates":[[[[8.456,39.074],[8.445,39.103],[8.418,39.107],[8.386,39.105],[8.36,39.118],[8.346,39.098],[8.354,39.091],[8.349,39.062],[8.365,39.029],[8.401,38.981],[8.41,38.962],[8.437,38.967],[8.447,38.994],[8.459,39.05],[8.47,39.066],[8.456,39.074]]],[[[8.306,39.193],[8.245,39.181],[8.23,39.173],[8.225,39.157],[8.233,39.144],[8.257,39.124],[8.255,39.107],[8.29,39.099],[8.306,39.105],[8.312,39.12],[8.306,39.161],[8.306,39.193]]],[[[8.61,38.955],[8.615,38.948],[8.615,38.923],[8.6,38.899],[8.633,38.896],[8.643,38.89],[8.635,38.871],[8.655,38.871],[8.652,38.892],[8.669,38.911],[8.695,38.925],[8.717,38.933],[8.74,38.931],[8.767,38.92],[8.791,38.904],[8.805,38.906],[8.841,38.881],[8.861,38.882],[8.872,38.896],[8.895,38.902],[8.996,38.983],[9.005,38.995],[9.018,38.995],[9.029,39.03],[9.045,39.051],[9.032,39.07],[9.019,39.104],[9.018,39.146],[9.026,39.165],[9.039,39.179],[9.079,39.212],[9.075,39.23],[9.05,39.226],[9.021,39.24],[9.026,39.256],[9.039,39.262],[9.064,39.243],[9.073,39.249],[9.114,39.211],[9.137,39.194],[9.166,39.187],[9.197,39.221],[9.216,39.228],[9.252,39.225],[9.285,39.214],[9.292,39.221],[9.312,39.208],[9.345,39.196],[9.383,39.169],[9.409,39.146],[9.45,39.124],[9.481,39.136],[9.523,39.125],[9.558,39.14],[9.566,39.149],[9.58,39.187],[9.566,39.205],[9.573,39.214],[9.568,39.238],[9.582,39.266],[9.607,39.289],[9.635,39.297],[9.635,39.303],[9.604,39.326],[9.602,39.356],[9.614,39.399],[9.639,39.452],[9.645,39.484],[9.628,39.502],[9.646,39.549],[9.653,39.567],[9.656,39.595],[9.649,39.639],[9.676,39.718],[9.669,39.769],[9.676,39.819],[9.684,39.84],[9.697,39.852],[9.684,39.894],[9.697,39.92],[9.697,39.934],[9.687,39.961],[9.693,39.993],[9.73,40.069],[9.732,40.084],[9.71,40.096],[9.688,40.121],[9.665,40.132],[9.655,40.145],[9.631,40.196],[9.627,40.225],[9.626,40.263],[9.646,40.296],[9.683,40.324],[9.712,40.366],[9.749,40.377],[9.762,40.391],[9.778,40.427],[9.809,40.471],[9.815,40.503],[9.827,40.52],[9.821,40.536],[9.792,40.557],[9.782,40.582],[9.762,40.587],[9.753,40.605],[9.749,40.66],[9.744,40.68],[9.714,40.727],[9.704,40.759],[9.676,40.789],[9.658,40.8],[9.662,40.809],[9.69,40.817],[9.681,40.83],[9.699,40.85],[9.683,40.865],[9.658,40.864],[9.656,40.876],[9.614,40.893],[9.632,40.905],[9.642,40.921],[9.623,40.924],[9.593,40.91],[9.573,40.906],[9.539,40.921],[9.512,40.915],[9.512,40.934],[9.557,40.931],[9.571,40.935],[9.566,40.949],[9.579,40.962],[9.588,40.996],[9.604,41.003],[9.651,40.991],[9.663,41.003],[9.616,41.02],[9.588,41.021],[9.573,41.009],[9.553,41.009],[9.558,41.025],[9.543,41.037],[9.525,41.031],[9.532,41.016],[9.512,41.016],[9.521,41.032],[9.539,41.092],[9.562,41.097],[9.566,41.119],[9.546,41.121],[9.508,41.14],[9.469,41.146],[9.46,41.121],[9.443,41.092],[9.437,41.115],[9.443,41.133],[9.42,41.156],[9.409,41.16],[9.422,41.181],[9.388,41.181],[9.352,41.207],[9.335,41.212],[9.333,41.188],[9.313,41.201],[9.285,41.195],[9.267,41.202],[9.268,41.237],[9.258,41.25],[9.238,41.249],[9.231,41.263],[9.171,41.243],[9.163,41.225],[9.163,41.184],[9.158,41.169],[9.136,41.16],[9.108,41.139],[9.093,41.135],[9.025,41.129],[9.006,41.122],[8.991,41.097],[8.959,41.07],[8.94,41.061],[8.929,41.044],[8.913,41.033],[8.881,41.024],[8.875,41.008],[8.84,40.962],[8.811,40.941],[8.764,40.914],[8.734,40.921],[8.709,40.921],[8.641,40.896],[8.634,40.882],[8.598,40.853],[8.521,40.827],[8.478,40.826],[8.422,40.839],[8.31,40.851],[8.278,40.865],[8.233,40.91],[8.229,40.922],[8.236,40.955],[8.213,40.963],[8.202,40.975],[8.182,40.945],[8.179,40.928],[8.21,40.914],[8.216,40.9],[8.21,40.865],[8.134,40.729],[8.146,40.726],[8.168,40.702],[8.192,40.694],[8.185,40.657],[8.174,40.642],[8.141,40.625],[8.147,40.593],[8.166,40.586],[8.177,40.607],[8.193,40.617],[8.216,40.612],[8.196,40.578],[8.216,40.571],[8.267,40.594],[8.292,40.595],[8.312,40.578],[8.324,40.531],[8.332,40.511],[8.366,40.492],[8.38,40.469],[8.395,40.424],[8.392,40.412],[8.384,40.372],[8.386,40.352],[8.408,40.338],[8.416,40.345],[8.441,40.331],[8.463,40.315],[8.476,40.292],[8.476,40.262],[8.46,40.216],[8.463,40.163],[8.467,40.145],[8.49,40.104],[8.479,40.074],[8.46,40.057],[8.435,40.051],[8.401,40.05],[8.385,40.042],[8.407,40.022],[8.407,40.01],[8.394,39.977],[8.401,39.94],[8.394,39.92],[8.398,39.905],[8.431,39.885],[8.435,39.899],[8.463,39.914],[8.494,39.912],[8.523,39.899],[8.545,39.879],[8.555,39.853],[8.549,39.807],[8.535,39.771],[8.507,39.738],[8.504,39.722],[8.549,39.698],[8.517,39.702],[8.5,39.716],[8.469,39.755],[8.444,39.757],[8.45,39.659],[8.462,39.617],[8.464,39.598],[8.456,39.584],[8.463,39.577],[8.435,39.525],[8.395,39.481],[8.387,39.47],[8.398,39.447],[8.405,39.427],[8.401,39.412],[8.374,39.379],[8.382,39.36],[8.417,39.339],[8.416,39.324],[8.432,39.302],[8.426,39.283],[8.377,39.238],[8.372,39.231],[8.38,39.208],[8.399,39.201],[8.405,39.174],[8.419,39.177],[8.435,39.166],[8.438,39.128],[8.465,39.119],[8.483,39.08],[8.504,39.091],[8.518,39.083],[8.504,39.063],[8.544,39.051],[8.56,39.057],[8.572,39.014],[8.58,38.961],[8.603,38.965],[8.61,38.955]]],[[[8.275,41.057],[8.332,41.065],[8.341,41.074],[8.342,41.098],[8.326,41.118],[8.313,41.119],[8.302,41.105],[8.278,41.106],[8.276,41.07],[8.241,41.052],[8.223,41.034],[8.222,41.014],[8.21,40.996],[8.246,40.994],[8.251,41.044],[8.275,41.057]]],[[[9.475,41.236],[9.46,41.242],[9.446,41.22],[9.449,41.186],[9.464,41.173],[9.479,41.217],[9.475,41.236]]],[[[9.431,41.225],[9.431,41.246],[9.422,41.261],[9.398,41.256],[9.392,41.241],[9.373,41.23],[9.377,41.213],[9.395,41.211],[9.435,41.217],[9.431,41.225]]]]}}]}